<?xml version="1.0" encoding="utf-8"?>
<gpx xmlns="http://www.topografix.com/GPX/1/1" version="1.1" creator="https://mapy.com/">
	<trk>
		<name>Trasa z Parking – płatny do 49.608301N, 19.517074E</name>
		<trkseg>
			<trkpt lat="49.608378" lon="19.517363">
				<ele>710.000000</ele>
			</trkpt>
			<trkpt lat="49.608244" lon="19.517445">
				<ele>710.000000</ele>
			</trkpt>
			<trkpt lat="49.608297" lon="19.517616">
				<ele>710.000000</ele>
			</trkpt>
			<trkpt lat="49.608256" lon="19.517642">
				<ele>710.000000</ele>
			</trkpt>
			<trkpt lat="49.608186" lon="19.517687">
				<ele>711.000000</ele>
			</trkpt>
			<trkpt lat="49.608052" lon="19.517777">
				<ele>711.000000</ele>
			</trkpt>
			<trkpt lat="49.607860" lon="19.517893">
				<ele>713.000000</ele>
			</trkpt>
			<trkpt lat="49.607435" lon="19.518639">
				<ele>716.000000</ele>
			</trkpt>
			<trkpt lat="49.607086" lon="19.519008">
				<ele>719.000000</ele>
			</trkpt>
			<trkpt lat="49.606725" lon="19.519233">
				<ele>721.000000</ele>
			</trkpt>
			<trkpt lat="49.606078" lon="19.519537">
				<ele>725.000000</ele>
			</trkpt>
			<trkpt lat="49.605624" lon="19.519763">
				<ele>728.000000</ele>
			</trkpt>
			<trkpt lat="49.605578" lon="19.519763">
				<ele>729.000000</ele>
			</trkpt>
			<trkpt lat="49.605578" lon="19.519763">
				<ele>729.000000</ele>
			</trkpt>
			<trkpt lat="49.605380" lon="19.519763">
				<ele>730.000000</ele>
			</trkpt>
			<trkpt lat="49.605153" lon="19.519591">
				<ele>733.000000</ele>
			</trkpt>
			<trkpt lat="49.604932" lon="19.519394">
				<ele>736.000000</ele>
			</trkpt>
			<trkpt lat="49.604570" lon="19.518864">
				<ele>741.000000</ele>
			</trkpt>
			<trkpt lat="49.604472" lon="19.518568">
				<ele>743.000000</ele>
			</trkpt>
			<trkpt lat="49.604332" lon="19.518002">
				<ele>746.000000</ele>
			</trkpt>
			<trkpt lat="49.604291" lon="19.517327">
				<ele>750.000000</ele>
			</trkpt>
			<trkpt lat="49.604216" lon="19.516924">
				<ele>752.000000</ele>
			</trkpt>
			<trkpt lat="49.604076" lon="19.516671">
				<ele>754.000000</ele>
			</trkpt>
			<trkpt lat="49.603925" lon="19.516528">
				<ele>756.000000</ele>
			</trkpt>
			<trkpt lat="49.603499" lon="19.516088">
				<ele>760.000000</ele>
			</trkpt>
			<trkpt lat="49.603354" lon="19.515962">
				<ele>761.000000</ele>
			</trkpt>
			<trkpt lat="49.603255" lon="19.515864">
				<ele>762.000000</ele>
			</trkpt>
			<trkpt lat="49.603202" lon="19.515809">
				<ele>763.000000</ele>
			</trkpt>
			<trkpt lat="49.602999" lon="19.515505">
				<ele>765.000000</ele>
			</trkpt>
			<trkpt lat="49.602742" lon="19.514830">
				<ele>770.000000</ele>
			</trkpt>
			<trkpt lat="49.602201" lon="19.513492">
				<ele>779.000000</ele>
			</trkpt>
			<trkpt lat="49.602126" lon="19.513331">
				<ele>780.000000</ele>
			</trkpt>
			<trkpt lat="49.602038" lon="19.513187">
				<ele>781.000000</ele>
			</trkpt>
			<trkpt lat="49.601782" lon="19.512836">
				<ele>785.000000</ele>
			</trkpt>
			<trkpt lat="49.601642" lon="19.512503">
				<ele>787.000000</ele>
			</trkpt>
			<trkpt lat="49.601450" lon="19.511956">
				<ele>791.000000</ele>
			</trkpt>
			<trkpt lat="49.601328" lon="19.511669">
				<ele>793.000000</ele>
			</trkpt>
			<trkpt lat="49.601142" lon="19.511318">
				<ele>796.000000</ele>
			</trkpt>
			<trkpt lat="49.601002" lon="19.510977">
				<ele>798.000000</ele>
			</trkpt>
			<trkpt lat="49.600897" lon="19.510868">
				<ele>799.000000</ele>
			</trkpt>
			<trkpt lat="49.600804" lon="19.510824">
				<ele>800.000000</ele>
			</trkpt>
			<trkpt lat="49.600752" lon="19.510797">
				<ele>801.000000</ele>
			</trkpt>
			<trkpt lat="49.600617" lon="19.510725">
				<ele>803.000000</ele>
			</trkpt>
			<trkpt lat="49.600309" lon="19.510654">
				<ele>807.000000</ele>
			</trkpt>
			<trkpt lat="49.600123" lon="19.510528">
				<ele>810.000000</ele>
			</trkpt>
			<trkpt lat="49.599838" lon="19.510123">
				<ele>814.000000</ele>
			</trkpt>
			<trkpt lat="49.599680" lon="19.509953">
				<ele>816.000000</ele>
			</trkpt>
			<trkpt lat="49.599517" lon="19.509881">
				<ele>818.000000</ele>
			</trkpt>
			<trkpt lat="49.599331" lon="19.509881">
				<ele>820.000000</ele>
			</trkpt>
			<trkpt lat="49.599180" lon="19.509926">
				<ele>822.000000</ele>
			</trkpt>
			<trkpt lat="49.599063" lon="19.509943">
				<ele>824.000000</ele>
			</trkpt>
			<trkpt lat="49.598981" lon="19.510025">
				<ele>825.000000</ele>
			</trkpt>
			<trkpt lat="49.598655" lon="19.510384">
				<ele>831.000000</ele>
			</trkpt>
			<trkpt lat="49.598446" lon="19.510564">
				<ele>835.000000</ele>
			</trkpt>
			<trkpt lat="49.598184" lon="19.510671">
				<ele>840.000000</ele>
			</trkpt>
			<trkpt lat="49.597992" lon="19.510654">
				<ele>844.000000</ele>
			</trkpt>
			<trkpt lat="49.597835" lon="19.510635">
				<ele>848.000000</ele>
			</trkpt>
			<trkpt lat="49.597520" lon="19.510564">
				<ele>853.000000</ele>
			</trkpt>
			<trkpt lat="49.597147" lon="19.510581">
				<ele>859.000000</ele>
			</trkpt>
			<trkpt lat="49.596956" lon="19.510618">
				<ele>862.000000</ele>
			</trkpt>
			<trkpt lat="49.596728" lon="19.510797">
				<ele>866.000000</ele>
			</trkpt>
			<trkpt lat="49.596594" lon="19.511004">
				<ele>868.000000</ele>
			</trkpt>
			<trkpt lat="49.596298" lon="19.511282">
				<ele>875.000000</ele>
			</trkpt>
			<trkpt lat="49.596140" lon="19.511434">
				<ele>878.000000</ele>
			</trkpt>
			<trkpt lat="49.596041" lon="19.511614">
				<ele>881.000000</ele>
			</trkpt>
			<trkpt lat="49.596001" lon="19.511884">
				<ele>885.000000</ele>
			</trkpt>
			<trkpt lat="49.596012" lon="19.512090">
				<ele>887.000000</ele>
			</trkpt>
			<trkpt lat="49.596030" lon="19.512279">
				<ele>890.000000</ele>
			</trkpt>
			<trkpt lat="49.596094" lon="19.512459">
				<ele>892.000000</ele>
			</trkpt>
			<trkpt lat="49.596117" lon="19.512486">
				<ele>893.000000</ele>
			</trkpt>
			<trkpt lat="49.596158" lon="19.512540">
				<ele>894.000000</ele>
			</trkpt>
			<trkpt lat="49.596181" lon="19.512558">
				<ele>894.000000</ele>
			</trkpt>
			<trkpt lat="49.596158" lon="19.512621">
				<ele>895.000000</ele>
			</trkpt>
			<trkpt lat="49.596146" lon="19.512683">
				<ele>896.000000</ele>
			</trkpt>
			<trkpt lat="49.596164" lon="19.512746">
				<ele>897.000000</ele>
			</trkpt>
			<trkpt lat="49.596192" lon="19.512782">
				<ele>897.000000</ele>
			</trkpt>
			<trkpt lat="49.596268" lon="19.512855">
				<ele>899.000000</ele>
			</trkpt>
			<trkpt lat="49.596355" lon="19.512953">
				<ele>902.000000</ele>
			</trkpt>
			<trkpt lat="49.596496" lon="19.513295">
				<ele>914.000000</ele>
			</trkpt>
			<trkpt lat="49.596612" lon="19.513384">
				<ele>918.000000</ele>
			</trkpt>
			<trkpt lat="49.596868" lon="19.513474">
				<ele>924.000000</ele>
			</trkpt>
			<trkpt lat="49.596956" lon="19.513537">
				<ele>926.000000</ele>
			</trkpt>
			<trkpt lat="49.596967" lon="19.513690">
				<ele>929.000000</ele>
			</trkpt>
			<trkpt lat="49.596856" lon="19.513878">
				<ele>931.000000</ele>
			</trkpt>
			<trkpt lat="49.596548" lon="19.514237">
				<ele>937.000000</ele>
			</trkpt>
			<trkpt lat="49.596490" lon="19.514310">
				<ele>938.000000</ele>
			</trkpt>
			<trkpt lat="49.596222" lon="19.514642">
				<ele>944.000000</ele>
			</trkpt>
			<trkpt lat="49.596030" lon="19.514866">
				<ele>951.000000</ele>
			</trkpt>
			<trkpt lat="49.595732" lon="19.515289">
				<ele>963.000000</ele>
			</trkpt>
			<trkpt lat="49.595616" lon="19.515432">
				<ele>966.000000</ele>
			</trkpt>
			<trkpt lat="49.595453" lon="19.515612">
				<ele>970.000000</ele>
			</trkpt>
			<trkpt lat="49.595197" lon="19.515792">
				<ele>975.000000</ele>
			</trkpt>
			<trkpt lat="49.594975" lon="19.515864">
				<ele>979.000000</ele>
			</trkpt>
			<trkpt lat="49.594825" lon="19.515927">
				<ele>982.000000</ele>
			</trkpt>
			<trkpt lat="49.594219" lon="19.516124">
				<ele>997.000000</ele>
			</trkpt>
			<trkpt lat="49.594155" lon="19.516169">
				<ele>999.000000</ele>
			</trkpt>
			<trkpt lat="49.593736" lon="19.516403">
				<ele>1012.000000</ele>
			</trkpt>
			<trkpt lat="49.593334" lon="19.516700">
				<ele>1025.000000</ele>
			</trkpt>
			<trkpt lat="49.593048" lon="19.516879">
				<ele>1037.000000</ele>
			</trkpt>
			<trkpt lat="49.592926" lon="19.516933">
				<ele>1041.000000</ele>
			</trkpt>
			<trkpt lat="49.592710" lon="19.517076">
				<ele>1049.000000</ele>
			</trkpt>
			<trkpt lat="49.592536" lon="19.517203">
				<ele>1056.000000</ele>
			</trkpt>
			<trkpt lat="49.592460" lon="19.517283">
				<ele>1060.000000</ele>
			</trkpt>
			<trkpt lat="49.592373" lon="19.517382">
				<ele>1063.000000</ele>
			</trkpt>
			<trkpt lat="49.592315" lon="19.517400">
				<ele>1064.000000</ele>
			</trkpt>
			<trkpt lat="49.591820" lon="19.517417">
				<ele>1077.000000</ele>
			</trkpt>
			<trkpt lat="49.591686" lon="19.517526">
				<ele>1081.000000</ele>
			</trkpt>
			<trkpt lat="49.591569" lon="19.517759">
				<ele>1086.000000</ele>
			</trkpt>
			<trkpt lat="49.591499" lon="19.517975">
				<ele>1090.000000</ele>
			</trkpt>
			<trkpt lat="49.591412" lon="19.518073">
				<ele>1094.000000</ele>
			</trkpt>
			<trkpt lat="49.591301" lon="19.518145">
				<ele>1098.000000</ele>
			</trkpt>
			<trkpt lat="49.591232" lon="19.518163">
				<ele>1101.000000</ele>
			</trkpt>
			<trkpt lat="49.591173" lon="19.518245">
				<ele>1103.000000</ele>
			</trkpt>
			<trkpt lat="49.591092" lon="19.518298">
				<ele>1106.000000</ele>
			</trkpt>
			<trkpt lat="49.590987" lon="19.518271">
				<ele>1109.000000</ele>
			</trkpt>
			<trkpt lat="49.590911" lon="19.518308">
				<ele>1111.000000</ele>
			</trkpt>
			<trkpt lat="49.590818" lon="19.518415">
				<ele>1116.000000</ele>
			</trkpt>
			<trkpt lat="49.590684" lon="19.518577">
				<ele>1122.000000</ele>
			</trkpt>
			<trkpt lat="49.590632" lon="19.518612">
				<ele>1123.000000</ele>
			</trkpt>
			<trkpt lat="49.590603" lon="19.518612">
				<ele>1124.000000</ele>
			</trkpt>
			<trkpt lat="49.590568" lon="19.518549">
				<ele>1126.000000</ele>
			</trkpt>
			<trkpt lat="49.590521" lon="19.518405">
				<ele>1128.000000</ele>
			</trkpt>
			<trkpt lat="49.590480" lon="19.518342">
				<ele>1130.000000</ele>
			</trkpt>
			<trkpt lat="49.590451" lon="19.518334">
				<ele>1131.000000</ele>
			</trkpt>
			<trkpt lat="49.590410" lon="19.518342">
				<ele>1132.000000</ele>
			</trkpt>
			<trkpt lat="49.590265" lon="19.518459">
				<ele>1138.000000</ele>
			</trkpt>
			<trkpt lat="49.590119" lon="19.518558">
				<ele>1142.000000</ele>
			</trkpt>
			<trkpt lat="49.589752" lon="19.518756">
				<ele>1153.000000</ele>
			</trkpt>
			<trkpt lat="49.589612" lon="19.518675">
				<ele>1157.000000</ele>
			</trkpt>
			<trkpt lat="49.589473" lon="19.518667">
				<ele>1160.000000</ele>
			</trkpt>
			<trkpt lat="49.589339" lon="19.518568">
				<ele>1161.000000</ele>
			</trkpt>
			<trkpt lat="49.589135" lon="19.518325">
				<ele>1163.000000</ele>
			</trkpt>
			<trkpt lat="49.589007" lon="19.518262">
				<ele>1164.000000</ele>
			</trkpt>
			<trkpt lat="49.588943" lon="19.518253">
				<ele>1165.000000</ele>
			</trkpt>
			<trkpt lat="49.588891" lon="19.518226">
				<ele>1165.000000</ele>
			</trkpt>
			<trkpt lat="49.588798" lon="19.518226">
				<ele>1166.000000</ele>
			</trkpt>
			<trkpt lat="49.588716" lon="19.518182">
				<ele>1167.000000</ele>
			</trkpt>
			<trkpt lat="49.588605" lon="19.518182">
				<ele>1168.000000</ele>
			</trkpt>
			<trkpt lat="49.588547" lon="19.518155">
				<ele>1168.000000</ele>
			</trkpt>
			<trkpt lat="49.588360" lon="19.517858">
				<ele>1171.000000</ele>
			</trkpt>
			<trkpt lat="49.588285" lon="19.517732">
				<ele>1173.000000</ele>
			</trkpt>
			<trkpt lat="49.588209" lon="19.517723">
				<ele>1174.000000</ele>
			</trkpt>
			<trkpt lat="49.588139" lon="19.517696">
				<ele>1176.000000</ele>
			</trkpt>
			<trkpt lat="49.588069" lon="19.517633">
				<ele>1177.000000</ele>
			</trkpt>
			<trkpt lat="49.588023" lon="19.517570">
				<ele>1178.000000</ele>
			</trkpt>
			<trkpt lat="49.587970" lon="19.517445">
				<ele>1180.000000</ele>
			</trkpt>
			<trkpt lat="49.587918" lon="19.517363">
				<ele>1182.000000</ele>
			</trkpt>
			<trkpt lat="49.587831" lon="19.517292">
				<ele>1184.000000</ele>
			</trkpt>
			<trkpt lat="49.587714" lon="19.517013">
				<ele>1189.000000</ele>
			</trkpt>
			<trkpt lat="49.587673" lon="19.516851">
				<ele>1191.000000</ele>
			</trkpt>
			<trkpt lat="49.587581" lon="19.516771">
				<ele>1192.000000</ele>
			</trkpt>
			<trkpt lat="49.587534" lon="19.516717">
				<ele>1193.000000</ele>
			</trkpt>
			<trkpt lat="49.587429" lon="19.516637">
				<ele>1194.000000</ele>
			</trkpt>
			<trkpt lat="49.587388" lon="19.516780">
				<ele>1195.000000</ele>
			</trkpt>
			<trkpt lat="49.587347" lon="19.516950">
				<ele>1195.000000</ele>
			</trkpt>
			<trkpt lat="49.587306" lon="19.517040">
				<ele>1195.000000</ele>
			</trkpt>
			<trkpt lat="49.587260" lon="19.517067">
				<ele>1195.000000</ele>
			</trkpt>
			<trkpt lat="49.587208" lon="19.517113">
				<ele>1195.000000</ele>
			</trkpt>
			<trkpt lat="49.587167" lon="19.517229">
				<ele>1195.000000</ele>
			</trkpt>
			<trkpt lat="49.587155" lon="19.517327">
				<ele>1195.000000</ele>
			</trkpt>
			<trkpt lat="49.587115" lon="19.517490">
				<ele>1195.000000</ele>
			</trkpt>
			<trkpt lat="49.587050" lon="19.517652">
				<ele>1195.000000</ele>
			</trkpt>
			<trkpt lat="49.586974" lon="19.517732">
				<ele>1195.000000</ele>
			</trkpt>
			<trkpt lat="49.586911" lon="19.517803">
				<ele>1195.000000</ele>
			</trkpt>
			<trkpt lat="49.586805" lon="19.517975">
				<ele>1195.000000</ele>
			</trkpt>
			<trkpt lat="49.586771" lon="19.518109">
				<ele>1195.000000</ele>
			</trkpt>
			<trkpt lat="49.586736" lon="19.518262">
				<ele>1195.000000</ele>
			</trkpt>
			<trkpt lat="49.586677" lon="19.518379">
				<ele>1196.000000</ele>
			</trkpt>
			<trkpt lat="49.586602" lon="19.518478">
				<ele>1196.000000</ele>
			</trkpt>
			<trkpt lat="49.586573" lon="19.518639">
				<ele>1196.000000</ele>
			</trkpt>
			<trkpt lat="49.586590" lon="19.518845">
				<ele>1196.000000</ele>
			</trkpt>
			<trkpt lat="49.586608" lon="19.518945">
				<ele>1196.000000</ele>
			</trkpt>
			<trkpt lat="49.586614" lon="19.519124">
				<ele>1196.000000</ele>
			</trkpt>
			<trkpt lat="49.586655" lon="19.519250">
				<ele>1196.000000</ele>
			</trkpt>
			<trkpt lat="49.586655" lon="19.519421">
				<ele>1196.000000</ele>
			</trkpt>
			<trkpt lat="49.586602" lon="19.519493">
				<ele>1196.000000</ele>
			</trkpt>
			<trkpt lat="49.586561" lon="19.519511">
				<ele>1196.000000</ele>
			</trkpt>
			<trkpt lat="49.586491" lon="19.519564">
				<ele>1196.000000</ele>
			</trkpt>
			<trkpt lat="49.586386" lon="19.519619">
				<ele>1196.000000</ele>
			</trkpt>
			<trkpt lat="49.586223" lon="19.519627">
				<ele>1196.000000</ele>
			</trkpt>
			<trkpt lat="49.586095" lon="19.519646">
				<ele>1197.000000</ele>
			</trkpt>
			<trkpt lat="49.586026" lon="19.519681">
				<ele>1197.000000</ele>
			</trkpt>
			<trkpt lat="49.585915" lon="19.519744">
				<ele>1197.000000</ele>
			</trkpt>
			<trkpt lat="49.585798" lon="19.519753">
				<ele>1197.000000</ele>
			</trkpt>
			<trkpt lat="49.585688" lon="19.519799">
				<ele>1197.000000</ele>
			</trkpt>
			<trkpt lat="49.585565" lon="19.519950">
				<ele>1197.000000</ele>
			</trkpt>
			<trkpt lat="49.585484" lon="19.520095">
				<ele>1197.000000</ele>
			</trkpt>
			<trkpt lat="49.585373" lon="19.520302">
				<ele>1197.000000</ele>
			</trkpt>
			<trkpt lat="49.585309" lon="19.520392">
				<ele>1197.000000</ele>
			</trkpt>
			<trkpt lat="49.585216" lon="19.520463">
				<ele>1197.000000</ele>
			</trkpt>
			<trkpt lat="49.585146" lon="19.520490">
				<ele>1197.000000</ele>
			</trkpt>
			<trkpt lat="49.585000" lon="19.520516">
				<ele>1198.000000</ele>
			</trkpt>
			<trkpt lat="49.584977" lon="19.520571">
				<ele>1198.000000</ele>
			</trkpt>
			<trkpt lat="49.584901" lon="19.520715">
				<ele>1198.000000</ele>
			</trkpt>
			<trkpt lat="49.584790" lon="19.520858">
				<ele>1198.000000</ele>
			</trkpt>
			<trkpt lat="49.584750" lon="19.520992">
				<ele>1198.000000</ele>
			</trkpt>
			<trkpt lat="49.584686" lon="19.521056">
				<ele>1198.000000</ele>
			</trkpt>
			<trkpt lat="49.584552" lon="19.521325">
				<ele>1198.000000</ele>
			</trkpt>
			<trkpt lat="49.584499" lon="19.521388">
				<ele>1198.000000</ele>
			</trkpt>
			<trkpt lat="49.584418" lon="19.521442">
				<ele>1198.000000</ele>
			</trkpt>
			<trkpt lat="49.584365" lon="19.521532">
				<ele>1198.000000</ele>
			</trkpt>
			<trkpt lat="49.584307" lon="19.521730">
				<ele>1198.000000</ele>
			</trkpt>
			<trkpt lat="49.584196" lon="19.521954">
				<ele>1199.000000</ele>
			</trkpt>
			<trkpt lat="49.584051" lon="19.522151">
				<ele>1199.000000</ele>
			</trkpt>
			<trkpt lat="49.583975" lon="19.522331">
				<ele>1199.000000</ele>
			</trkpt>
			<trkpt lat="49.583970" lon="19.522547">
				<ele>1199.000000</ele>
			</trkpt>
			<trkpt lat="49.583911" lon="19.522717">
				<ele>1199.000000</ele>
			</trkpt>
			<trkpt lat="49.583824" lon="19.522906">
				<ele>1199.000000</ele>
			</trkpt>
			<trkpt lat="49.583760" lon="19.522942">
				<ele>1199.000000</ele>
			</trkpt>
			<trkpt lat="49.583713" lon="19.523005">
				<ele>1199.000000</ele>
			</trkpt>
			<trkpt lat="49.583667" lon="19.523113">
				<ele>1199.000000</ele>
			</trkpt>
			<trkpt lat="49.583649" lon="19.523239">
				<ele>1199.000000</ele>
			</trkpt>
			<trkpt lat="49.583667" lon="19.523346">
				<ele>1199.000000</ele>
			</trkpt>
			<trkpt lat="49.583638" lon="19.523445">
				<ele>1199.000000</ele>
			</trkpt>
			<trkpt lat="49.583620" lon="19.523463">
				<ele>1199.000000</ele>
			</trkpt>
			<trkpt lat="49.583545" lon="19.523562">
				<ele>1202.000000</ele>
			</trkpt>
			<trkpt lat="49.583474" lon="19.523661">
				<ele>1206.000000</ele>
			</trkpt>
			<trkpt lat="49.583393" lon="19.523697">
				<ele>1210.000000</ele>
			</trkpt>
			<trkpt lat="49.583300" lon="19.523715">
				<ele>1216.000000</ele>
			</trkpt>
			<trkpt lat="49.583241" lon="19.523778">
				<ele>1220.000000</ele>
			</trkpt>
			<trkpt lat="49.583160" lon="19.523885">
				<ele>1222.000000</ele>
			</trkpt>
			<trkpt lat="49.583032" lon="19.523904">
				<ele>1224.000000</ele>
			</trkpt>
			<trkpt lat="49.582880" lon="19.523921">
				<ele>1226.000000</ele>
			</trkpt>
			<trkpt lat="49.582723" lon="19.523877">
				<ele>1228.000000</ele>
			</trkpt>
			<trkpt lat="49.582630" lon="19.523814">
				<ele>1229.000000</ele>
			</trkpt>
			<trkpt lat="49.582519" lon="19.523769">
				<ele>1231.000000</ele>
			</trkpt>
			<trkpt lat="49.582443" lon="19.523669">
				<ele>1233.000000</ele>
			</trkpt>
			<trkpt lat="49.582368" lon="19.523688">
				<ele>1235.000000</ele>
			</trkpt>
			<trkpt lat="49.582298" lon="19.523643">
				<ele>1236.000000</ele>
			</trkpt>
			<trkpt lat="49.582170" lon="19.523598">
				<ele>1239.000000</ele>
			</trkpt>
			<trkpt lat="49.581983" lon="19.523482">
				<ele>1243.000000</ele>
			</trkpt>
			<trkpt lat="49.581541" lon="19.523095">
				<ele>1256.000000</ele>
			</trkpt>
			<trkpt lat="49.581500" lon="19.523059">
				<ele>1257.000000</ele>
			</trkpt>
			<trkpt lat="49.580691" lon="19.522529">
				<ele>1278.000000</ele>
			</trkpt>
			<trkpt lat="49.580492" lon="19.522449">
				<ele>1283.000000</ele>
			</trkpt>
			<trkpt lat="49.580364" lon="19.522377">
				<ele>1287.000000</ele>
			</trkpt>
			<trkpt lat="49.580259" lon="19.522394">
				<ele>1290.000000</ele>
			</trkpt>
			<trkpt lat="49.579636" lon="19.521945">
				<ele>1305.000000</ele>
			</trkpt>
			<trkpt lat="49.579537" lon="19.521963">
				<ele>1307.000000</ele>
			</trkpt>
			<trkpt lat="49.579293" lon="19.522044">
				<ele>1310.000000</ele>
			</trkpt>
			<trkpt lat="49.578966" lon="19.522044">
				<ele>1317.000000</ele>
			</trkpt>
			<trkpt lat="49.578669" lon="19.521900">
				<ele>1324.000000</ele>
			</trkpt>
			<trkpt lat="49.578448" lon="19.521793">
				<ele>1328.000000</ele>
			</trkpt>
			<trkpt lat="49.578128" lon="19.521784">
				<ele>1333.000000</ele>
			</trkpt>
			<trkpt lat="49.577813" lon="19.521648">
				<ele>1337.000000</ele>
			</trkpt>
			<trkpt lat="49.577615" lon="19.521595">
				<ele>1340.000000</ele>
			</trkpt>
			<trkpt lat="49.577516" lon="19.521604">
				<ele>1345.000000</ele>
			</trkpt>
			<trkpt lat="49.577452" lon="19.521667">
				<ele>1348.000000</ele>
			</trkpt>
			<trkpt lat="49.577347" lon="19.521847">
				<ele>1355.000000</ele>
			</trkpt>
			<trkpt lat="49.577178" lon="19.522008">
				<ele>1362.000000</ele>
			</trkpt>
			<trkpt lat="49.577062" lon="19.522107">
				<ele>1365.000000</ele>
			</trkpt>
			<trkpt lat="49.576922" lon="19.522179">
				<ele>1369.000000</ele>
			</trkpt>
			<trkpt lat="49.576817" lon="19.522233">
				<ele>1371.000000</ele>
			</trkpt>
			<trkpt lat="49.576677" lon="19.522367">
				<ele>1375.000000</ele>
			</trkpt>
			<trkpt lat="49.576619" lon="19.522484">
				<ele>1378.000000</ele>
			</trkpt>
			<trkpt lat="49.576549" lon="19.522600">
				<ele>1380.000000</ele>
			</trkpt>
			<trkpt lat="49.576496" lon="19.522627">
				<ele>1382.000000</ele>
			</trkpt>
			<trkpt lat="49.576433" lon="19.522592">
				<ele>1384.000000</ele>
			</trkpt>
			<trkpt lat="49.576403" lon="19.522529">
				<ele>1385.000000</ele>
			</trkpt>
			<trkpt lat="49.576351" lon="19.522367">
				<ele>1389.000000</ele>
			</trkpt>
			<trkpt lat="49.576305" lon="19.522250">
				<ele>1392.000000</ele>
			</trkpt>
			<trkpt lat="49.576292" lon="19.522197">
				<ele>1393.000000</ele>
			</trkpt>
			<trkpt lat="49.576240" lon="19.522161">
				<ele>1396.000000</ele>
			</trkpt>
			<trkpt lat="49.576194" lon="19.522151">
				<ele>1398.000000</ele>
			</trkpt>
			<trkpt lat="49.576136" lon="19.522179">
				<ele>1400.000000</ele>
			</trkpt>
			<trkpt lat="49.576089" lon="19.522187">
				<ele>1403.000000</ele>
			</trkpt>
			<trkpt lat="49.576042" lon="19.522170">
				<ele>1406.000000</ele>
			</trkpt>
			<trkpt lat="49.575995" lon="19.522161">
				<ele>1409.000000</ele>
			</trkpt>
			<trkpt lat="49.575967" lon="19.522197">
				<ele>1412.000000</ele>
			</trkpt>
			<trkpt lat="49.575914" lon="19.522296">
				<ele>1416.000000</ele>
			</trkpt>
			<trkpt lat="49.575885" lon="19.522323">
				<ele>1418.000000</ele>
			</trkpt>
			<trkpt lat="49.575839" lon="19.522313">
				<ele>1420.000000</ele>
			</trkpt>
			<trkpt lat="49.575780" lon="19.522304">
				<ele>1422.000000</ele>
			</trkpt>
			<trkpt lat="49.575716" lon="19.522313">
				<ele>1424.000000</ele>
			</trkpt>
			<trkpt lat="49.575681" lon="19.522367">
				<ele>1425.000000</ele>
			</trkpt>
			<trkpt lat="49.575617" lon="19.522503">
				<ele>1428.000000</ele>
			</trkpt>
			<trkpt lat="49.575600" lon="19.522556">
				<ele>1429.000000</ele>
			</trkpt>
			<trkpt lat="49.575576" lon="19.522610">
				<ele>1430.000000</ele>
			</trkpt>
			<trkpt lat="49.575541" lon="19.522664">
				<ele>1431.000000</ele>
			</trkpt>
			<trkpt lat="49.575501" lon="19.522763">
				<ele>1433.000000</ele>
			</trkpt>
			<trkpt lat="49.575466" lon="19.522835">
				<ele>1435.000000</ele>
			</trkpt>
			<trkpt lat="49.575454" lon="19.522879">
				<ele>1436.000000</ele>
			</trkpt>
			<trkpt lat="49.575442" lon="19.522969">
				<ele>1437.000000</ele>
			</trkpt>
			<trkpt lat="49.575431" lon="19.523015">
				<ele>1438.000000</ele>
			</trkpt>
			<trkpt lat="49.575436" lon="19.523077">
				<ele>1439.000000</ele>
			</trkpt>
			<trkpt lat="49.575413" lon="19.523158">
				<ele>1441.000000</ele>
			</trkpt>
			<trkpt lat="49.575413" lon="19.523248">
				<ele>1442.000000</ele>
			</trkpt>
			<trkpt lat="49.575413" lon="19.523329">
				<ele>1444.000000</ele>
			</trkpt>
			<trkpt lat="49.575425" lon="19.523445">
				<ele>1446.000000</ele>
			</trkpt>
			<trkpt lat="49.575436" lon="19.523545">
				<ele>1447.000000</ele>
			</trkpt>
			<trkpt lat="49.575436" lon="19.523661">
				<ele>1449.000000</ele>
			</trkpt>
			<trkpt lat="49.575460" lon="19.523778">
				<ele>1451.000000</ele>
			</trkpt>
			<trkpt lat="49.575483" lon="19.523841">
				<ele>1453.000000</ele>
			</trkpt>
			<trkpt lat="49.575483" lon="19.523912">
				<ele>1454.000000</ele>
			</trkpt>
			<trkpt lat="49.575460" lon="19.523967">
				<ele>1455.000000</ele>
			</trkpt>
			<trkpt lat="49.575448" lon="19.524029">
				<ele>1456.000000</ele>
			</trkpt>
			<trkpt lat="49.575442" lon="19.524084">
				<ele>1457.000000</ele>
			</trkpt>
			<trkpt lat="49.575431" lon="19.524174">
				<ele>1459.000000</ele>
			</trkpt>
			<trkpt lat="49.575413" lon="19.524218">
				<ele>1460.000000</ele>
			</trkpt>
			<trkpt lat="49.575384" lon="19.524271">
				<ele>1461.000000</ele>
			</trkpt>
			<trkpt lat="49.575372" lon="19.524325">
				<ele>1463.000000</ele>
			</trkpt>
			<trkpt lat="49.575349" lon="19.524353">
				<ele>1464.000000</ele>
			</trkpt>
			<trkpt lat="49.575343" lon="19.524388">
				<ele>1465.000000</ele>
			</trkpt>
			<trkpt lat="49.575355" lon="19.524451">
				<ele>1467.000000</ele>
			</trkpt>
			<trkpt lat="49.575349" lon="19.524514">
				<ele>1469.000000</ele>
			</trkpt>
			<trkpt lat="49.575320" lon="19.524577">
				<ele>1471.000000</ele>
			</trkpt>
			<trkpt lat="49.575314" lon="19.524774">
				<ele>1475.000000</ele>
			</trkpt>
			<trkpt lat="49.575326" lon="19.524891">
				<ele>1477.000000</ele>
			</trkpt>
			<trkpt lat="49.575320" lon="19.524963">
				<ele>1479.000000</ele>
			</trkpt>
			<trkpt lat="49.575291" lon="19.525017">
				<ele>1481.000000</ele>
			</trkpt>
			<trkpt lat="49.575273" lon="19.525053">
				<ele>1482.000000</ele>
			</trkpt>
			<trkpt lat="49.575256" lon="19.525090">
				<ele>1484.000000</ele>
			</trkpt>
			<trkpt lat="49.575244" lon="19.525126">
				<ele>1486.000000</ele>
			</trkpt>
			<trkpt lat="49.575244" lon="19.525153">
				<ele>1487.000000</ele>
			</trkpt>
			<trkpt lat="49.575232" lon="19.525143">
				<ele>1488.000000</ele>
			</trkpt>
			<trkpt lat="49.575238" lon="19.525187">
				<ele>1489.000000</ele>
			</trkpt>
			<trkpt lat="49.575232" lon="19.525224">
				<ele>1491.000000</ele>
			</trkpt>
			<trkpt lat="49.575221" lon="19.525242">
				<ele>1493.000000</ele>
			</trkpt>
			<trkpt lat="49.575197" lon="19.525250">
				<ele>1495.000000</ele>
			</trkpt>
			<trkpt lat="49.575186" lon="19.525233">
				<ele>1497.000000</ele>
			</trkpt>
			<trkpt lat="49.575169" lon="19.525233">
				<ele>1499.000000</ele>
			</trkpt>
			<trkpt lat="49.575151" lon="19.525216">
				<ele>1501.000000</ele>
			</trkpt>
			<trkpt lat="49.575134" lon="19.525216">
				<ele>1502.000000</ele>
			</trkpt>
			<trkpt lat="49.575099" lon="19.525242">
				<ele>1503.000000</ele>
			</trkpt>
			<trkpt lat="49.575093" lon="19.525277">
				<ele>1505.000000</ele>
			</trkpt>
			<trkpt lat="49.575116" lon="19.525323">
				<ele>1506.000000</ele>
			</trkpt>
			<trkpt lat="49.575157" lon="19.525449">
				<ele>1511.000000</ele>
			</trkpt>
			<trkpt lat="49.575151" lon="19.525520">
				<ele>1513.000000</ele>
			</trkpt>
			<trkpt lat="49.575110" lon="19.525566">
				<ele>1515.000000</ele>
			</trkpt>
			<trkpt lat="49.575069" lon="19.525592">
				<ele>1518.000000</ele>
			</trkpt>
			<trkpt lat="49.575041" lon="19.525592">
				<ele>1519.000000</ele>
			</trkpt>
			<trkpt lat="49.575011" lon="19.525619">
				<ele>1521.000000</ele>
			</trkpt>
			<trkpt lat="49.574982" lon="19.525665">
				<ele>1522.000000</ele>
			</trkpt>
			<trkpt lat="49.574982" lon="19.525727">
				<ele>1524.000000</ele>
			</trkpt>
			<trkpt lat="49.575000" lon="19.525808">
				<ele>1527.000000</ele>
			</trkpt>
			<trkpt lat="49.575028" lon="19.525879">
				<ele>1530.000000</ele>
			</trkpt>
			<trkpt lat="49.575023" lon="19.525916">
				<ele>1531.000000</ele>
			</trkpt>
			<trkpt lat="49.575011" lon="19.525933">
				<ele>1532.000000</ele>
			</trkpt>
			<trkpt lat="49.575017" lon="19.525996">
				<ele>1534.000000</ele>
			</trkpt>
			<trkpt lat="49.575035" lon="19.526006">
				<ele>1535.000000</ele>
			</trkpt>
			<trkpt lat="49.575058" lon="19.526042">
				<ele>1537.000000</ele>
			</trkpt>
			<trkpt lat="49.575063" lon="19.526078">
				<ele>1539.000000</ele>
			</trkpt>
			<trkpt lat="49.575041" lon="19.526105">
				<ele>1540.000000</ele>
			</trkpt>
			<trkpt lat="49.575017" lon="19.526086">
				<ele>1542.000000</ele>
			</trkpt>
			<trkpt lat="49.575000" lon="19.526059">
				<ele>1544.000000</ele>
			</trkpt>
			<trkpt lat="49.574976" lon="19.526042">
				<ele>1545.000000</ele>
			</trkpt>
			<trkpt lat="49.574953" lon="19.526078">
				<ele>1547.000000</ele>
			</trkpt>
			<trkpt lat="49.574976" lon="19.526122">
				<ele>1549.000000</ele>
			</trkpt>
			<trkpt lat="49.574953" lon="19.526158">
				<ele>1551.000000</ele>
			</trkpt>
			<trkpt lat="49.574965" lon="19.526168">
				<ele>1552.000000</ele>
			</trkpt>
			<trkpt lat="49.574970" lon="19.526203">
				<ele>1553.000000</ele>
			</trkpt>
			<trkpt lat="49.574965" lon="19.526239">
				<ele>1554.000000</ele>
			</trkpt>
			<trkpt lat="49.574930" lon="19.526266">
				<ele>1556.000000</ele>
			</trkpt>
			<trkpt lat="49.574906" lon="19.526338">
				<ele>1559.000000</ele>
			</trkpt>
			<trkpt lat="49.574860" lon="19.526562">
				<ele>1567.000000</ele>
			</trkpt>
			<trkpt lat="49.574860" lon="19.526635">
				<ele>1569.000000</ele>
			</trkpt>
			<trkpt lat="49.574866" lon="19.526698">
				<ele>1571.000000</ele>
			</trkpt>
			<trkpt lat="49.574860" lon="19.526778">
				<ele>1574.000000</ele>
			</trkpt>
			<trkpt lat="49.574848" lon="19.526824">
				<ele>1575.000000</ele>
			</trkpt>
			<trkpt lat="49.574837" lon="19.526895">
				<ele>1578.000000</ele>
			</trkpt>
			<trkpt lat="49.574842" lon="19.526922">
				<ele>1579.000000</ele>
			</trkpt>
			<trkpt lat="49.574848" lon="19.526975">
				<ele>1580.000000</ele>
			</trkpt>
			<trkpt lat="49.574837" lon="19.527048">
				<ele>1583.000000</ele>
			</trkpt>
			<trkpt lat="49.574819" lon="19.527111">
				<ele>1585.000000</ele>
			</trkpt>
			<trkpt lat="49.574807" lon="19.527273">
				<ele>1590.000000</ele>
			</trkpt>
			<trkpt lat="49.574784" lon="19.527335">
				<ele>1592.000000</ele>
			</trkpt>
			<trkpt lat="49.574766" lon="19.527371">
				<ele>1593.000000</ele>
			</trkpt>
			<trkpt lat="49.574749" lon="19.527407">
				<ele>1594.000000</ele>
			</trkpt>
			<trkpt lat="49.574749" lon="19.527443">
				<ele>1595.000000</ele>
			</trkpt>
			<trkpt lat="49.574749" lon="19.527497">
				<ele>1597.000000</ele>
			</trkpt>
			<trkpt lat="49.574714" lon="19.527631">
				<ele>1601.000000</ele>
			</trkpt>
			<trkpt lat="49.574703" lon="19.527730">
				<ele>1603.000000</ele>
			</trkpt>
			<trkpt lat="49.574691" lon="19.527793">
				<ele>1605.000000</ele>
			</trkpt>
			<trkpt lat="49.574679" lon="19.527829">
				<ele>1606.000000</ele>
			</trkpt>
			<trkpt lat="49.574656" lon="19.527839">
				<ele>1607.000000</ele>
			</trkpt>
			<trkpt lat="49.574615" lon="19.527820">
				<ele>1609.000000</ele>
			</trkpt>
			<trkpt lat="49.574575" lon="19.527811">
				<ele>1611.000000</ele>
			</trkpt>
			<trkpt lat="49.574551" lon="19.527784">
				<ele>1612.000000</ele>
			</trkpt>
			<trkpt lat="49.574528" lon="19.527776">
				<ele>1613.000000</ele>
			</trkpt>
			<trkpt lat="49.574493" lon="19.527776">
				<ele>1615.000000</ele>
			</trkpt>
			<trkpt lat="49.574469" lon="19.527776">
				<ele>1616.000000</ele>
			</trkpt>
			<trkpt lat="49.574452" lon="19.527793">
				<ele>1617.000000</ele>
			</trkpt>
			<trkpt lat="49.574452" lon="19.527820">
				<ele>1618.000000</ele>
			</trkpt>
			<trkpt lat="49.574452" lon="19.527874">
				<ele>1619.000000</ele>
			</trkpt>
			<trkpt lat="49.574446" lon="19.527937">
				<ele>1622.000000</ele>
			</trkpt>
			<trkpt lat="49.574434" lon="19.527990">
				<ele>1624.000000</ele>
			</trkpt>
			<trkpt lat="49.574400" lon="19.528027">
				<ele>1627.000000</ele>
			</trkpt>
			<trkpt lat="49.574371" lon="19.528063">
				<ele>1629.000000</ele>
			</trkpt>
			<trkpt lat="49.574353" lon="19.528126">
				<ele>1632.000000</ele>
			</trkpt>
			<trkpt lat="49.574324" lon="19.528153">
				<ele>1634.000000</ele>
			</trkpt>
			<trkpt lat="49.574306" lon="19.528162">
				<ele>1635.000000</ele>
			</trkpt>
			<trkpt lat="49.574277" lon="19.528216">
				<ele>1638.000000</ele>
			</trkpt>
			<trkpt lat="49.574265" lon="19.528287">
				<ele>1640.000000</ele>
			</trkpt>
			<trkpt lat="49.574237" lon="19.528342">
				<ele>1642.000000</ele>
			</trkpt>
			<trkpt lat="49.574231" lon="19.528413">
				<ele>1645.000000</ele>
			</trkpt>
			<trkpt lat="49.574225" lon="19.528493">
				<ele>1647.000000</ele>
			</trkpt>
			<trkpt lat="49.574196" lon="19.528583">
				<ele>1650.000000</ele>
			</trkpt>
			<trkpt lat="49.574172" lon="19.528646">
				<ele>1653.000000</ele>
			</trkpt>
			<trkpt lat="49.574167" lon="19.528692">
				<ele>1655.000000</ele>
			</trkpt>
			<trkpt lat="49.574155" lon="19.528709">
				<ele>1656.000000</ele>
			</trkpt>
			<trkpt lat="49.574131" lon="19.528745">
				<ele>1658.000000</ele>
			</trkpt>
			<trkpt lat="49.574126" lon="19.528782">
				<ele>1659.000000</ele>
			</trkpt>
			<trkpt lat="49.574126" lon="19.528826">
				<ele>1661.000000</ele>
			</trkpt>
			<trkpt lat="49.574126" lon="19.528862">
				<ele>1662.000000</ele>
			</trkpt>
			<trkpt lat="49.574102" lon="19.528881">
				<ele>1664.000000</ele>
			</trkpt>
			<trkpt lat="49.574085" lon="19.528925">
				<ele>1665.000000</ele>
			</trkpt>
			<trkpt lat="49.574033" lon="19.529168">
				<ele>1675.000000</ele>
			</trkpt>
			<trkpt lat="49.574021" lon="19.529195">
				<ele>1676.000000</ele>
			</trkpt>
			<trkpt lat="49.574003" lon="19.529195">
				<ele>1677.000000</ele>
			</trkpt>
			<trkpt lat="49.573974" lon="19.529204">
				<ele>1679.000000</ele>
			</trkpt>
			<trkpt lat="49.573940" lon="19.529248">
				<ele>1681.000000</ele>
			</trkpt>
			<trkpt lat="49.573905" lon="19.529275">
				<ele>1683.000000</ele>
			</trkpt>
			<trkpt lat="49.573875" lon="19.529275">
				<ele>1684.000000</ele>
			</trkpt>
			<trkpt lat="49.573846" lon="19.529285">
				<ele>1686.000000</ele>
			</trkpt>
			<trkpt lat="49.573834" lon="19.529302">
				<ele>1686.000000</ele>
			</trkpt>
			<trkpt lat="49.573817" lon="19.529392">
				<ele>1689.000000</ele>
			</trkpt>
			<trkpt lat="49.573805" lon="19.529401">
				<ele>1690.000000</ele>
			</trkpt>
			<trkpt lat="49.573777" lon="19.529411">
				<ele>1691.000000</ele>
			</trkpt>
			<trkpt lat="49.573747" lon="19.529437">
				<ele>1693.000000</ele>
			</trkpt>
			<trkpt lat="49.573736" lon="19.529474">
				<ele>1694.000000</ele>
			</trkpt>
			<trkpt lat="49.573724" lon="19.529545">
				<ele>1696.000000</ele>
			</trkpt>
			<trkpt lat="49.573706" lon="19.529554">
				<ele>1697.000000</ele>
			</trkpt>
			<trkpt lat="49.573671" lon="19.529563">
				<ele>1699.000000</ele>
			</trkpt>
			<trkpt lat="49.573642" lon="19.529617">
				<ele>1701.000000</ele>
			</trkpt>
			<trkpt lat="49.573596" lon="19.529661">
				<ele>1703.000000</ele>
			</trkpt>
			<trkpt lat="49.573561" lon="19.529707">
				<ele>1705.000000</ele>
			</trkpt>
			<trkpt lat="49.573520" lon="19.529715">
				<ele>1706.000000</ele>
			</trkpt>
			<trkpt lat="49.573508" lon="19.529761">
				<ele>1708.000000</ele>
			</trkpt>
			<trkpt lat="49.573485" lon="19.529797">
				<ele>1709.000000</ele>
			</trkpt>
			<trkpt lat="49.573444" lon="19.529833">
				<ele>1711.000000</ele>
			</trkpt>
			<trkpt lat="49.573427" lon="19.529850">
				<ele>1712.000000</ele>
			</trkpt>
			<trkpt lat="49.573363" lon="19.529887">
				<ele>1714.000000</ele>
			</trkpt>
			<trkpt lat="49.573287" lon="19.529950">
				<ele>1716.000000</ele>
			</trkpt>
			<trkpt lat="49.573246" lon="19.529940">
				<ele>1718.000000</ele>
			</trkpt>
			<trkpt lat="49.573170" lon="19.529940">
				<ele>1720.000000</ele>
			</trkpt>
			<trkpt lat="49.573147" lon="19.529653">
				<ele>1720.000000</ele>
			</trkpt>
			<trkpt lat="49.573142" lon="19.529598">
				<ele>1720.000000</ele>
			</trkpt>
			<trkpt lat="49.573112" lon="19.529509">
				<ele>1720.000000</ele>
			</trkpt>
			<trkpt lat="49.573089" lon="19.529447">
				<ele>1720.000000</ele>
			</trkpt>
			<trkpt lat="49.573089" lon="19.529447">
				<ele>1720.000000</ele>
			</trkpt>
			<trkpt lat="49.573036" lon="19.529177">
				<ele>1720.000000</ele>
			</trkpt>
			<trkpt lat="49.572978" lon="19.529059">
				<ele>1718.000000</ele>
			</trkpt>
			<trkpt lat="49.573066" lon="19.528961">
				<ele>1713.000000</ele>
			</trkpt>
			<trkpt lat="49.573025" lon="19.528908">
				<ele>1711.000000</ele>
			</trkpt>
			<trkpt lat="49.573066" lon="19.528862">
				<ele>1709.000000</ele>
			</trkpt>
			<trkpt lat="49.572990" lon="19.528799">
				<ele>1706.000000</ele>
			</trkpt>
			<trkpt lat="49.572990" lon="19.528772">
				<ele>1706.000000</ele>
			</trkpt>
			<trkpt lat="49.572995" lon="19.528719">
				<ele>1705.000000</ele>
			</trkpt>
			<trkpt lat="49.572995" lon="19.528556">
				<ele>1701.000000</ele>
			</trkpt>
			<trkpt lat="49.572984" lon="19.528395">
				<ele>1699.000000</ele>
			</trkpt>
			<trkpt lat="49.572961" lon="19.528323">
				<ele>1699.000000</ele>
			</trkpt>
			<trkpt lat="49.572914" lon="19.528233">
				<ele>1698.000000</ele>
			</trkpt>
			<trkpt lat="49.572902" lon="19.528126">
				<ele>1697.000000</ele>
			</trkpt>
			<trkpt lat="49.572920" lon="19.528017">
				<ele>1697.000000</ele>
			</trkpt>
			<trkpt lat="49.572920" lon="19.527973">
				<ele>1697.000000</ele>
			</trkpt>
			<trkpt lat="49.572815" lon="19.527577">
				<ele>1694.000000</ele>
			</trkpt>
			<trkpt lat="49.572769" lon="19.527353">
				<ele>1692.000000</ele>
			</trkpt>
			<trkpt lat="49.572600" lon="19.526877">
				<ele>1689.000000</ele>
			</trkpt>
			<trkpt lat="49.572529" lon="19.526679">
				<ele>1688.000000</ele>
			</trkpt>
			<trkpt lat="49.572489" lon="19.526571">
				<ele>1687.000000</ele>
			</trkpt>
			<trkpt lat="49.572466" lon="19.526392">
				<ele>1686.000000</ele>
			</trkpt>
			<trkpt lat="49.572401" lon="19.526248">
				<ele>1685.000000</ele>
			</trkpt>
			<trkpt lat="49.572262" lon="19.525790">
				<ele>1681.000000</ele>
			</trkpt>
			<trkpt lat="49.572203" lon="19.525727">
				<ele>1681.000000</ele>
			</trkpt>
			<trkpt lat="49.572180" lon="19.525602">
				<ele>1680.000000</ele>
			</trkpt>
			<trkpt lat="49.572174" lon="19.525485">
				<ele>1677.000000</ele>
			</trkpt>
			<trkpt lat="49.572180" lon="19.525099">
				<ele>1666.000000</ele>
			</trkpt>
			<trkpt lat="49.572145" lon="19.524677">
				<ele>1658.000000</ele>
			</trkpt>
			<trkpt lat="49.572104" lon="19.524587">
				<ele>1656.000000</ele>
			</trkpt>
			<trkpt lat="49.572116" lon="19.524407">
				<ele>1653.000000</ele>
			</trkpt>
			<trkpt lat="49.572128" lon="19.524308">
				<ele>1652.000000</ele>
			</trkpt>
			<trkpt lat="49.572145" lon="19.524271">
				<ele>1651.000000</ele>
			</trkpt>
			<trkpt lat="49.572128" lon="19.524101">
				<ele>1649.000000</ele>
			</trkpt>
			<trkpt lat="49.572104" lon="19.524038">
				<ele>1648.000000</ele>
			</trkpt>
			<trkpt lat="49.572134" lon="19.524002">
				<ele>1647.000000</ele>
			</trkpt>
			<trkpt lat="49.572169" lon="19.523967">
				<ele>1646.000000</ele>
			</trkpt>
			<trkpt lat="49.572186" lon="19.523931">
				<ele>1645.000000</ele>
			</trkpt>
			<trkpt lat="49.572186" lon="19.523858">
				<ele>1644.000000</ele>
			</trkpt>
			<trkpt lat="49.572180" lon="19.523616">
				<ele>1641.000000</ele>
			</trkpt>
			<trkpt lat="49.572186" lon="19.523482">
				<ele>1639.000000</ele>
			</trkpt>
			<trkpt lat="49.572169" lon="19.523319">
				<ele>1638.000000</ele>
			</trkpt>
			<trkpt lat="49.572151" lon="19.523140">
				<ele>1637.000000</ele>
			</trkpt>
			<trkpt lat="49.572145" lon="19.522925">
				<ele>1636.000000</ele>
			</trkpt>
			<trkpt lat="49.572151" lon="19.522807">
				<ele>1635.000000</ele>
			</trkpt>
			<trkpt lat="49.572174" lon="19.522700">
				<ele>1634.000000</ele>
			</trkpt>
			<trkpt lat="49.572215" lon="19.522520">
				<ele>1633.000000</ele>
			</trkpt>
			<trkpt lat="49.572250" lon="19.522107">
				<ele>1630.000000</ele>
			</trkpt>
			<trkpt lat="49.572267" lon="19.521595">
				<ele>1626.000000</ele>
			</trkpt>
			<trkpt lat="49.572308" lon="19.521407">
				<ele>1624.000000</ele>
			</trkpt>
			<trkpt lat="49.572436" lon="19.521271">
				<ele>1622.000000</ele>
			</trkpt>
			<trkpt lat="49.572541" lon="19.521137">
				<ele>1620.000000</ele>
			</trkpt>
			<trkpt lat="49.572640" lon="19.520966">
				<ele>1618.000000</ele>
			</trkpt>
			<trkpt lat="49.572850" lon="19.520392">
				<ele>1613.000000</ele>
			</trkpt>
			<trkpt lat="49.572897" lon="19.520013">
				<ele>1610.000000</ele>
			</trkpt>
			<trkpt lat="49.572973" lon="19.519799">
				<ele>1609.000000</ele>
			</trkpt>
			<trkpt lat="49.573071" lon="19.519646">
				<ele>1609.000000</ele>
			</trkpt>
			<trkpt lat="49.573118" lon="19.519529">
				<ele>1609.000000</ele>
			</trkpt>
			<trkpt lat="49.573159" lon="19.519331">
				<ele>1608.000000</ele>
			</trkpt>
			<trkpt lat="49.573182" lon="19.519151">
				<ele>1608.000000</ele>
			</trkpt>
			<trkpt lat="49.573235" lon="19.518792">
				<ele>1607.000000</ele>
			</trkpt>
			<trkpt lat="49.573275" lon="19.518667">
				<ele>1606.000000</ele>
			</trkpt>
			<trkpt lat="49.573328" lon="19.518478">
				<ele>1606.000000</ele>
			</trkpt>
			<trkpt lat="49.573386" lon="19.518361">
				<ele>1606.000000</ele>
			</trkpt>
			<trkpt lat="49.573520" lon="19.518065">
				<ele>1605.000000</ele>
			</trkpt>
			<trkpt lat="49.573608" lon="19.517921">
				<ele>1604.000000</ele>
			</trkpt>
			<trkpt lat="49.573671" lon="19.517786">
				<ele>1604.000000</ele>
			</trkpt>
			<trkpt lat="49.573753" lon="19.517669">
				<ele>1603.000000</ele>
			</trkpt>
			<trkpt lat="49.573788" lon="19.517589">
				<ele>1603.000000</ele>
			</trkpt>
			<trkpt lat="49.573881" lon="19.517490">
				<ele>1603.000000</ele>
			</trkpt>
			<trkpt lat="49.573974" lon="19.517373">
				<ele>1602.000000</ele>
			</trkpt>
			<trkpt lat="49.574050" lon="19.517247">
				<ele>1602.000000</ele>
			</trkpt>
			<trkpt lat="49.574178" lon="19.517121">
				<ele>1601.000000</ele>
			</trkpt>
			<trkpt lat="49.574283" lon="19.516996">
				<ele>1601.000000</ele>
			</trkpt>
			<trkpt lat="49.574406" lon="19.516843">
				<ele>1600.000000</ele>
			</trkpt>
			<trkpt lat="49.574534" lon="19.516700">
				<ele>1598.000000</ele>
			</trkpt>
			<trkpt lat="49.574685" lon="19.516610">
				<ele>1596.000000</ele>
			</trkpt>
			<trkpt lat="49.574813" lon="19.516411">
				<ele>1593.000000</ele>
			</trkpt>
			<trkpt lat="49.574988" lon="19.516178">
				<ele>1590.000000</ele>
			</trkpt>
			<trkpt lat="49.575116" lon="19.516052">
				<ele>1587.000000</ele>
			</trkpt>
			<trkpt lat="49.575180" lon="19.515971">
				<ele>1585.000000</ele>
			</trkpt>
			<trkpt lat="49.575273" lon="19.515872">
				<ele>1583.000000</ele>
			</trkpt>
			<trkpt lat="49.575338" lon="19.515801">
				<ele>1581.000000</ele>
			</trkpt>
			<trkpt lat="49.575495" lon="19.515639">
				<ele>1576.000000</ele>
			</trkpt>
			<trkpt lat="49.575564" lon="19.515648">
				<ele>1573.000000</ele>
			</trkpt>
			<trkpt lat="49.575693" lon="19.515549">
				<ele>1569.000000</ele>
			</trkpt>
			<trkpt lat="49.575792" lon="19.515513">
				<ele>1565.000000</ele>
			</trkpt>
			<trkpt lat="49.575879" lon="19.515478">
				<ele>1562.000000</ele>
			</trkpt>
			<trkpt lat="49.575920" lon="19.515451">
				<ele>1561.000000</ele>
			</trkpt>
			<trkpt lat="49.575990" lon="19.515432">
				<ele>1558.000000</ele>
			</trkpt>
			<trkpt lat="49.576048" lon="19.515442">
				<ele>1556.000000</ele>
			</trkpt>
			<trkpt lat="49.576118" lon="19.515415">
				<ele>1554.000000</ele>
			</trkpt>
			<trkpt lat="49.576246" lon="19.515369">
				<ele>1549.000000</ele>
			</trkpt>
			<trkpt lat="49.576496" lon="19.515243">
				<ele>1541.000000</ele>
			</trkpt>
			<trkpt lat="49.576619" lon="19.515172">
				<ele>1536.000000</ele>
			</trkpt>
			<trkpt lat="49.576904" lon="19.515118">
				<ele>1528.000000</ele>
			</trkpt>
			<trkpt lat="49.577190" lon="19.514975">
				<ele>1524.000000</ele>
			</trkpt>
			<trkpt lat="49.577353" lon="19.514939">
				<ele>1522.000000</ele>
			</trkpt>
			<trkpt lat="49.577475" lon="19.514893">
				<ele>1520.000000</ele>
			</trkpt>
			<trkpt lat="49.577609" lon="19.514723">
				<ele>1514.000000</ele>
			</trkpt>
			<trkpt lat="49.577685" lon="19.514597">
				<ele>1509.000000</ele>
			</trkpt>
			<trkpt lat="49.577784" lon="19.514507">
				<ele>1503.000000</ele>
			</trkpt>
			<trkpt lat="49.578861" lon="19.513241">
				<ele>1457.000000</ele>
			</trkpt>
			<trkpt lat="49.579403" lon="19.512603">
				<ele>1442.000000</ele>
			</trkpt>
			<trkpt lat="49.579956" lon="19.511956">
				<ele>1431.000000</ele>
			</trkpt>
			<trkpt lat="49.580504" lon="19.511327">
				<ele>1421.000000</ele>
			</trkpt>
			<trkpt lat="49.580789" lon="19.510950">
				<ele>1418.000000</ele>
			</trkpt>
			<trkpt lat="49.581028" lon="19.510725">
				<ele>1415.000000</ele>
			</trkpt>
			<trkpt lat="49.581296" lon="19.510384">
				<ele>1413.000000</ele>
			</trkpt>
			<trkpt lat="49.581436" lon="19.510258">
				<ele>1411.000000</ele>
			</trkpt>
			<trkpt lat="49.581517" lon="19.510186">
				<ele>1410.000000</ele>
			</trkpt>
			<trkpt lat="49.581558" lon="19.510240">
				<ele>1410.000000</ele>
			</trkpt>
			<trkpt lat="49.581582" lon="19.510312">
				<ele>1408.000000</ele>
			</trkpt>
			<trkpt lat="49.581587" lon="19.510419">
				<ele>1406.000000</ele>
			</trkpt>
			<trkpt lat="49.581605" lon="19.510572">
				<ele>1402.000000</ele>
			</trkpt>
			<trkpt lat="49.581622" lon="19.510581">
				<ele>1401.000000</ele>
			</trkpt>
			<trkpt lat="49.581652" lon="19.510555">
				<ele>1400.000000</ele>
			</trkpt>
			<trkpt lat="49.581680" lon="19.510572">
				<ele>1398.000000</ele>
			</trkpt>
			<trkpt lat="49.581704" lon="19.510591">
				<ele>1397.000000</ele>
			</trkpt>
			<trkpt lat="49.581727" lon="19.510581">
				<ele>1395.000000</ele>
			</trkpt>
			<trkpt lat="49.581791" lon="19.510599">
				<ele>1392.000000</ele>
			</trkpt>
			<trkpt lat="49.581826" lon="19.510501">
				<ele>1388.000000</ele>
			</trkpt>
			<trkpt lat="49.581843" lon="19.510482">
				<ele>1387.000000</ele>
			</trkpt>
			<trkpt lat="49.581873" lon="19.510474">
				<ele>1386.000000</ele>
			</trkpt>
			<trkpt lat="49.581908" lon="19.510482">
				<ele>1384.000000</ele>
			</trkpt>
			<trkpt lat="49.581972" lon="19.510509">
				<ele>1380.000000</ele>
			</trkpt>
			<trkpt lat="49.582012" lon="19.510555">
				<ele>1378.000000</ele>
			</trkpt>
			<trkpt lat="49.582030" lon="19.510618">
				<ele>1376.000000</ele>
			</trkpt>
			<trkpt lat="49.582047" lon="19.510627">
				<ele>1375.000000</ele>
			</trkpt>
			<trkpt lat="49.582094" lon="19.510645">
				<ele>1373.000000</ele>
			</trkpt>
			<trkpt lat="49.582135" lon="19.510654">
				<ele>1372.000000</ele>
			</trkpt>
			<trkpt lat="49.582181" lon="19.510671">
				<ele>1369.000000</ele>
			</trkpt>
			<trkpt lat="49.582281" lon="19.510761">
				<ele>1365.000000</ele>
			</trkpt>
			<trkpt lat="49.582292" lon="19.510797">
				<ele>1364.000000</ele>
			</trkpt>
			<trkpt lat="49.582292" lon="19.510842">
				<ele>1363.000000</ele>
			</trkpt>
			<trkpt lat="49.582298" lon="19.510860">
				<ele>1362.000000</ele>
			</trkpt>
			<trkpt lat="49.582304" lon="19.510905">
				<ele>1361.000000</ele>
			</trkpt>
			<trkpt lat="49.582374" lon="19.510968">
				<ele>1357.000000</ele>
			</trkpt>
			<trkpt lat="49.582449" lon="19.511021">
				<ele>1354.000000</ele>
			</trkpt>
			<trkpt lat="49.582543" lon="19.511228">
				<ele>1347.000000</ele>
			</trkpt>
			<trkpt lat="49.582595" lon="19.511282">
				<ele>1343.000000</ele>
			</trkpt>
			<trkpt lat="49.582682" lon="19.511327">
				<ele>1339.000000</ele>
			</trkpt>
			<trkpt lat="49.582758" lon="19.511400">
				<ele>1336.000000</ele>
			</trkpt>
			<trkpt lat="49.582834" lon="19.511417">
				<ele>1333.000000</ele>
			</trkpt>
			<trkpt lat="49.582916" lon="19.511426">
				<ele>1330.000000</ele>
			</trkpt>
			<trkpt lat="49.582950" lon="19.511434">
				<ele>1328.000000</ele>
			</trkpt>
			<trkpt lat="49.583090" lon="19.511489">
				<ele>1323.000000</ele>
			</trkpt>
			<trkpt lat="49.583259" lon="19.511551">
				<ele>1319.000000</ele>
			</trkpt>
			<trkpt lat="49.583358" lon="19.511570">
				<ele>1319.000000</ele>
			</trkpt>
			<trkpt lat="49.583399" lon="19.511570">
				<ele>1318.000000</ele>
			</trkpt>
			<trkpt lat="49.583439" lon="19.511543">
				<ele>1318.000000</ele>
			</trkpt>
			<trkpt lat="49.583515" lon="19.511524">
				<ele>1317.000000</ele>
			</trkpt>
			<trkpt lat="49.583567" lon="19.511543">
				<ele>1317.000000</ele>
			</trkpt>
			<trkpt lat="49.583591" lon="19.511551">
				<ele>1317.000000</ele>
			</trkpt>
			<trkpt lat="49.583673" lon="19.511606">
				<ele>1316.000000</ele>
			</trkpt>
			<trkpt lat="49.583748" lon="19.511704">
				<ele>1315.000000</ele>
			</trkpt>
			<trkpt lat="49.583783" lon="19.511947">
				<ele>1314.000000</ele>
			</trkpt>
			<trkpt lat="49.583812" lon="19.512019">
				<ele>1314.000000</ele>
			</trkpt>
			<trkpt lat="49.583824" lon="19.512180">
				<ele>1313.000000</ele>
			</trkpt>
			<trkpt lat="49.583864" lon="19.512333">
				<ele>1312.000000</ele>
			</trkpt>
			<trkpt lat="49.583882" lon="19.512413">
				<ele>1312.000000</ele>
			</trkpt>
			<trkpt lat="49.583894" lon="19.512495">
				<ele>1311.000000</ele>
			</trkpt>
			<trkpt lat="49.583882" lon="19.512621">
				<ele>1311.000000</ele>
			</trkpt>
			<trkpt lat="49.583842" lon="19.512755">
				<ele>1310.000000</ele>
			</trkpt>
			<trkpt lat="49.583829" lon="19.512836">
				<ele>1309.000000</ele>
			</trkpt>
			<trkpt lat="49.583859" lon="19.512926">
				<ele>1308.000000</ele>
			</trkpt>
			<trkpt lat="49.583876" lon="19.512979">
				<ele>1307.000000</ele>
			</trkpt>
			<trkpt lat="49.583882" lon="19.513052">
				<ele>1306.000000</ele>
			</trkpt>
			<trkpt lat="49.583905" lon="19.513232">
				<ele>1304.000000</ele>
			</trkpt>
			<trkpt lat="49.583940" lon="19.513304">
				<ele>1302.000000</ele>
			</trkpt>
			<trkpt lat="49.584022" lon="19.513358">
				<ele>1301.000000</ele>
			</trkpt>
			<trkpt lat="49.584045" lon="19.513492">
				<ele>1299.000000</ele>
			</trkpt>
			<trkpt lat="49.584057" lon="19.513725">
				<ele>1297.000000</ele>
			</trkpt>
			<trkpt lat="49.584068" lon="19.513932">
				<ele>1294.000000</ele>
			</trkpt>
			<trkpt lat="49.584016" lon="19.514274">
				<ele>1291.000000</ele>
			</trkpt>
			<trkpt lat="49.584086" lon="19.514498">
				<ele>1286.000000</ele>
			</trkpt>
			<trkpt lat="49.584109" lon="19.514616">
				<ele>1284.000000</ele>
			</trkpt>
			<trkpt lat="49.584068" lon="19.514840">
				<ele>1278.000000</ele>
			</trkpt>
			<trkpt lat="49.584092" lon="19.515092">
				<ele>1272.000000</ele>
			</trkpt>
			<trkpt lat="49.584086" lon="19.515298">
				<ele>1268.000000</ele>
			</trkpt>
			<trkpt lat="49.584133" lon="19.515396">
				<ele>1267.000000</ele>
			</trkpt>
			<trkpt lat="49.584499" lon="19.515621">
				<ele>1259.000000</ele>
			</trkpt>
			<trkpt lat="49.584744" lon="19.515837">
				<ele>1253.000000</ele>
			</trkpt>
			<trkpt lat="49.584913" lon="19.515935">
				<ele>1249.000000</ele>
			</trkpt>
			<trkpt lat="49.585105" lon="19.516034">
				<ele>1247.000000</ele>
			</trkpt>
			<trkpt lat="49.585326" lon="19.515971">
				<ele>1244.000000</ele>
			</trkpt>
			<trkpt lat="49.585530" lon="19.515774">
				<ele>1240.000000</ele>
			</trkpt>
			<trkpt lat="49.585635" lon="19.515729">
				<ele>1239.000000</ele>
			</trkpt>
			<trkpt lat="49.585763" lon="19.515711">
				<ele>1237.000000</ele>
			</trkpt>
			<trkpt lat="49.586148" lon="19.515711">
				<ele>1231.000000</ele>
			</trkpt>
			<trkpt lat="49.586380" lon="19.515702">
				<ele>1226.000000</ele>
			</trkpt>
			<trkpt lat="49.586514" lon="19.515747">
				<ele>1222.000000</ele>
			</trkpt>
			<trkpt lat="49.586724" lon="19.515918">
				<ele>1216.000000</ele>
			</trkpt>
			<trkpt lat="49.586916" lon="19.516214">
				<ele>1209.000000</ele>
			</trkpt>
			<trkpt lat="49.587033" lon="19.516340">
				<ele>1205.000000</ele>
			</trkpt>
			<trkpt lat="49.587243" lon="19.516501">
				<ele>1199.000000</ele>
			</trkpt>
			<trkpt lat="49.587429" lon="19.516637">
				<ele>1194.000000</ele>
			</trkpt>
			<trkpt lat="49.587534" lon="19.516717">
				<ele>1193.000000</ele>
			</trkpt>
			<trkpt lat="49.587581" lon="19.516771">
				<ele>1192.000000</ele>
			</trkpt>
			<trkpt lat="49.587673" lon="19.516851">
				<ele>1191.000000</ele>
			</trkpt>
			<trkpt lat="49.587668" lon="19.517040">
				<ele>1190.000000</ele>
			</trkpt>
			<trkpt lat="49.587650" lon="19.517103">
				<ele>1190.000000</ele>
			</trkpt>
			<trkpt lat="49.587621" lon="19.517166">
				<ele>1190.000000</ele>
			</trkpt>
			<trkpt lat="49.587621" lon="19.517166">
				<ele>1190.000000</ele>
			</trkpt>
			<trkpt lat="49.587650" lon="19.517103">
				<ele>1190.000000</ele>
			</trkpt>
			<trkpt lat="49.587668" lon="19.517040">
				<ele>1190.000000</ele>
			</trkpt>
			<trkpt lat="49.587673" lon="19.516851">
				<ele>1191.000000</ele>
			</trkpt>
			<trkpt lat="49.587714" lon="19.517013">
				<ele>1189.000000</ele>
			</trkpt>
			<trkpt lat="49.587831" lon="19.517292">
				<ele>1184.000000</ele>
			</trkpt>
			<trkpt lat="49.587918" lon="19.517363">
				<ele>1182.000000</ele>
			</trkpt>
			<trkpt lat="49.587970" lon="19.517445">
				<ele>1180.000000</ele>
			</trkpt>
			<trkpt lat="49.588023" lon="19.517570">
				<ele>1178.000000</ele>
			</trkpt>
			<trkpt lat="49.588069" lon="19.517633">
				<ele>1177.000000</ele>
			</trkpt>
			<trkpt lat="49.588139" lon="19.517696">
				<ele>1176.000000</ele>
			</trkpt>
			<trkpt lat="49.588209" lon="19.517723">
				<ele>1174.000000</ele>
			</trkpt>
			<trkpt lat="49.588285" lon="19.517732">
				<ele>1173.000000</ele>
			</trkpt>
			<trkpt lat="49.588360" lon="19.517858">
				<ele>1171.000000</ele>
			</trkpt>
			<trkpt lat="49.588547" lon="19.518155">
				<ele>1168.000000</ele>
			</trkpt>
			<trkpt lat="49.588576" lon="19.518397">
				<ele>1165.000000</ele>
			</trkpt>
			<trkpt lat="49.588646" lon="19.518639">
				<ele>1162.000000</ele>
			</trkpt>
			<trkpt lat="49.588792" lon="19.519098">
				<ele>1151.000000</ele>
			</trkpt>
			<trkpt lat="49.588844" lon="19.519313">
				<ele>1147.000000</ele>
			</trkpt>
			<trkpt lat="49.588879" lon="19.519763">
				<ele>1140.000000</ele>
			</trkpt>
			<trkpt lat="49.588914" lon="19.519843">
				<ele>1138.000000</ele>
			</trkpt>
			<trkpt lat="49.588943" lon="19.520059">
				<ele>1134.000000</ele>
			</trkpt>
			<trkpt lat="49.588931" lon="19.520606">
				<ele>1128.000000</ele>
			</trkpt>
			<trkpt lat="49.588867" lon="19.520885">
				<ele>1127.000000</ele>
			</trkpt>
			<trkpt lat="49.588757" lon="19.521208">
				<ele>1125.000000</ele>
			</trkpt>
			<trkpt lat="49.588751" lon="19.521325">
				<ele>1124.000000</ele>
			</trkpt>
			<trkpt lat="49.588786" lon="19.521532">
				<ele>1123.000000</ele>
			</trkpt>
			<trkpt lat="49.588786" lon="19.521847">
				<ele>1122.000000</ele>
			</trkpt>
			<trkpt lat="49.588803" lon="19.522080">
				<ele>1120.000000</ele>
			</trkpt>
			<trkpt lat="49.588891" lon="19.522250">
				<ele>1119.000000</ele>
			</trkpt>
			<trkpt lat="49.588978" lon="19.522269">
				<ele>1117.000000</ele>
			</trkpt>
			<trkpt lat="49.589071" lon="19.522269">
				<ele>1116.000000</ele>
			</trkpt>
			<trkpt lat="49.589269" lon="19.522323">
				<ele>1113.000000</ele>
			</trkpt>
			<trkpt lat="49.589356" lon="19.522313">
				<ele>1111.000000</ele>
			</trkpt>
			<trkpt lat="49.589449" lon="19.522386">
				<ele>1110.000000</ele>
			</trkpt>
			<trkpt lat="49.589508" lon="19.522511">
				<ele>1108.000000</ele>
			</trkpt>
			<trkpt lat="49.589572" lon="19.522655">
				<ele>1107.000000</ele>
			</trkpt>
			<trkpt lat="49.589590" lon="19.522780">
				<ele>1106.000000</ele>
			</trkpt>
			<trkpt lat="49.589624" lon="19.522879">
				<ele>1105.000000</ele>
			</trkpt>
			<trkpt lat="49.589537" lon="19.523221">
				<ele>1103.000000</ele>
			</trkpt>
			<trkpt lat="49.589543" lon="19.523302">
				<ele>1102.000000</ele>
			</trkpt>
			<trkpt lat="49.589502" lon="19.523392">
				<ele>1101.000000</ele>
			</trkpt>
			<trkpt lat="49.589356" lon="19.523562">
				<ele>1098.000000</ele>
			</trkpt>
			<trkpt lat="49.589339" lon="19.523598">
				<ele>1097.000000</ele>
			</trkpt>
			<trkpt lat="49.589316" lon="19.523814">
				<ele>1094.000000</ele>
			</trkpt>
			<trkpt lat="49.589228" lon="19.523975">
				<ele>1091.000000</ele>
			</trkpt>
			<trkpt lat="49.589211" lon="19.524002">
				<ele>1090.000000</ele>
			</trkpt>
			<trkpt lat="49.589187" lon="19.524048">
				<ele>1089.000000</ele>
			</trkpt>
			<trkpt lat="49.589176" lon="19.524084">
				<ele>1089.000000</ele>
			</trkpt>
			<trkpt lat="49.589170" lon="19.524128">
				<ele>1088.000000</ele>
			</trkpt>
			<trkpt lat="49.589170" lon="19.524155">
				<ele>1088.000000</ele>
			</trkpt>
			<trkpt lat="49.589176" lon="19.524218">
				<ele>1087.000000</ele>
			</trkpt>
			<trkpt lat="49.589170" lon="19.524281">
				<ele>1086.000000</ele>
			</trkpt>
			<trkpt lat="49.589147" lon="19.524371">
				<ele>1084.000000</ele>
			</trkpt>
			<trkpt lat="49.589048" lon="19.524640">
				<ele>1080.000000</ele>
			</trkpt>
			<trkpt lat="49.588989" lon="19.524847">
				<ele>1077.000000</ele>
			</trkpt>
			<trkpt lat="49.588984" lon="19.525044">
				<ele>1075.000000</ele>
			</trkpt>
			<trkpt lat="49.589048" lon="19.525323">
				<ele>1071.000000</ele>
			</trkpt>
			<trkpt lat="49.589112" lon="19.525529">
				<ele>1068.000000</ele>
			</trkpt>
			<trkpt lat="49.589199" lon="19.525772">
				<ele>1065.000000</ele>
			</trkpt>
			<trkpt lat="49.589223" lon="19.525996">
				<ele>1062.000000</ele>
			</trkpt>
			<trkpt lat="49.589263" lon="19.526239">
				<ele>1057.000000</ele>
			</trkpt>
			<trkpt lat="49.589362" lon="19.526491">
				<ele>1049.000000</ele>
			</trkpt>
			<trkpt lat="49.589403" lon="19.526625">
				<ele>1043.000000</ele>
			</trkpt>
			<trkpt lat="49.589479" lon="19.526724">
				<ele>1038.000000</ele>
			</trkpt>
			<trkpt lat="49.589531" lon="19.526877">
				<ele>1032.000000</ele>
			</trkpt>
			<trkpt lat="49.589607" lon="19.526958">
				<ele>1028.000000</ele>
			</trkpt>
			<trkpt lat="49.589659" lon="19.527048">
				<ele>1025.000000</ele>
			</trkpt>
			<trkpt lat="49.589770" lon="19.527084">
				<ele>1021.000000</ele>
			</trkpt>
			<trkpt lat="49.589944" lon="19.527300">
				<ele>1013.000000</ele>
			</trkpt>
			<trkpt lat="49.590335" lon="19.528009">
				<ele>1000.000000</ele>
			</trkpt>
			<trkpt lat="49.590440" lon="19.528458">
				<ele>994.000000</ele>
			</trkpt>
			<trkpt lat="49.590644" lon="19.528548">
				<ele>989.000000</ele>
			</trkpt>
			<trkpt lat="49.590940" lon="19.528682">
				<ele>982.000000</ele>
			</trkpt>
			<trkpt lat="49.591755" lon="19.528952">
				<ele>959.000000</ele>
			</trkpt>
			<trkpt lat="49.592193" lon="19.529177">
				<ele>951.000000</ele>
			</trkpt>
			<trkpt lat="49.592384" lon="19.529275">
				<ele>948.000000</ele>
			</trkpt>
			<trkpt lat="49.593060" lon="19.529625">
				<ele>939.000000</ele>
			</trkpt>
			<trkpt lat="49.593339" lon="19.529778">
				<ele>938.000000</ele>
			</trkpt>
			<trkpt lat="49.594289" lon="19.530390">
				<ele>932.000000</ele>
			</trkpt>
			<trkpt lat="49.594533" lon="19.530542">
				<ele>930.000000</ele>
			</trkpt>
			<trkpt lat="49.595226" lon="19.531539">
				<ele>920.000000</ele>
			</trkpt>
			<trkpt lat="49.595576" lon="19.531737">
				<ele>920.000000</ele>
			</trkpt>
			<trkpt lat="49.595919" lon="19.532042">
				<ele>920.000000</ele>
			</trkpt>
			<trkpt lat="49.596274" lon="19.532348">
				<ele>920.000000</ele>
			</trkpt>
			<trkpt lat="49.596903" lon="19.532959">
				<ele>913.000000</ele>
			</trkpt>
			<trkpt lat="49.597631" lon="19.533785">
				<ele>903.000000</ele>
			</trkpt>
			<trkpt lat="49.597846" lon="19.534091">
				<ele>899.000000</ele>
			</trkpt>
			<trkpt lat="49.597998" lon="19.534216">
				<ele>897.000000</ele>
			</trkpt>
			<trkpt lat="49.598149" lon="19.534225">
				<ele>895.000000</ele>
			</trkpt>
			<trkpt lat="49.598853" lon="19.534485">
				<ele>880.000000</ele>
			</trkpt>
			<trkpt lat="49.599098" lon="19.534422">
				<ele>880.000000</ele>
			</trkpt>
			<trkpt lat="49.599296" lon="19.534441">
				<ele>878.000000</ele>
			</trkpt>
			<trkpt lat="49.599482" lon="19.534558">
				<ele>875.000000</ele>
			</trkpt>
			<trkpt lat="49.599675" lon="19.534567">
				<ele>872.000000</ele>
			</trkpt>
			<trkpt lat="49.600041" lon="19.534495">
				<ele>868.000000</ele>
			</trkpt>
			<trkpt lat="49.600361" lon="19.534495">
				<ele>864.000000</ele>
			</trkpt>
			<trkpt lat="49.600571" lon="19.534558">
				<ele>862.000000</ele>
			</trkpt>
			<trkpt lat="49.600798" lon="19.534522">
				<ele>859.000000</ele>
			</trkpt>
			<trkpt lat="49.600967" lon="19.534567">
				<ele>858.000000</ele>
			</trkpt>
			<trkpt lat="49.601147" lon="19.534701">
				<ele>857.000000</ele>
			</trkpt>
			<trkpt lat="49.601258" lon="19.534953">
				<ele>855.000000</ele>
			</trkpt>
			<trkpt lat="49.601381" lon="19.535070">
				<ele>854.000000</ele>
			</trkpt>
			<trkpt lat="49.601526" lon="19.535070">
				<ele>853.000000</ele>
			</trkpt>
			<trkpt lat="49.601741" lon="19.534988">
				<ele>851.000000</ele>
			</trkpt>
			<trkpt lat="49.601957" lon="19.534818">
				<ele>850.000000</ele>
			</trkpt>
			<trkpt lat="49.602154" lon="19.534755">
				<ele>850.000000</ele>
			</trkpt>
			<trkpt lat="49.602393" lon="19.534827">
				<ele>850.000000</ele>
			</trkpt>
			<trkpt lat="49.602516" lon="19.534755">
				<ele>850.000000</ele>
			</trkpt>
			<trkpt lat="49.602714" lon="19.534611">
				<ele>850.000000</ele>
			</trkpt>
			<trkpt lat="49.603109" lon="19.534449">
				<ele>850.000000</ele>
			</trkpt>
			<trkpt lat="49.603406" lon="19.534414">
				<ele>850.000000</ele>
			</trkpt>
			<trkpt lat="49.603686" lon="19.534441">
				<ele>850.000000</ele>
			</trkpt>
			<trkpt lat="49.603913" lon="19.534531">
				<ele>850.000000</ele>
			</trkpt>
			<trkpt lat="49.604169" lon="19.534638">
				<ele>850.000000</ele>
			</trkpt>
			<trkpt lat="49.604513" lon="19.534684">
				<ele>850.000000</ele>
			</trkpt>
			<trkpt lat="49.604717" lon="19.534692">
				<ele>850.000000</ele>
			</trkpt>
			<trkpt lat="49.604879" lon="19.534602">
				<ele>850.000000</ele>
			</trkpt>
			<trkpt lat="49.605147" lon="19.534477">
				<ele>850.000000</ele>
			</trkpt>
			<trkpt lat="49.605746" lon="19.534378">
				<ele>850.000000</ele>
			</trkpt>
			<trkpt lat="49.605881" lon="19.534261">
				<ele>850.000000</ele>
			</trkpt>
			<trkpt lat="49.606072" lon="19.534235">
				<ele>850.000000</ele>
			</trkpt>
			<trkpt lat="49.606311" lon="19.534172">
				<ele>850.000000</ele>
			</trkpt>
			<trkpt lat="49.606597" lon="19.533982">
				<ele>850.000000</ele>
			</trkpt>
			<trkpt lat="49.607307" lon="19.533506">
				<ele>850.000000</ele>
			</trkpt>
			<trkpt lat="49.607604" lon="19.533560">
				<ele>850.000000</ele>
			</trkpt>
			<trkpt lat="49.608145" lon="19.533615">
				<ele>849.000000</ele>
			</trkpt>
			<trkpt lat="49.608413" lon="19.533516">
				<ele>848.000000</ele>
			</trkpt>
			<trkpt lat="49.609030" lon="19.533120">
				<ele>846.000000</ele>
			</trkpt>
			<trkpt lat="49.609268" lon="19.532887">
				<ele>845.000000</ele>
			</trkpt>
			<trkpt lat="49.609565" lon="19.532770">
				<ele>845.000000</ele>
			</trkpt>
			<trkpt lat="49.609752" lon="19.532751">
				<ele>844.000000</ele>
			</trkpt>
			<trkpt lat="49.610165" lon="19.532608">
				<ele>843.000000</ele>
			</trkpt>
			<trkpt lat="49.610479" lon="19.532348">
				<ele>842.000000</ele>
			</trkpt>
			<trkpt lat="49.610799" lon="19.532097">
				<ele>841.000000</ele>
			</trkpt>
			<trkpt lat="49.610799" lon="19.532097">
				<ele>841.000000</ele>
			</trkpt>
			<trkpt lat="49.610660" lon="19.531566">
				<ele>838.000000</ele>
			</trkpt>
			<trkpt lat="49.610566" lon="19.531036">
				<ele>826.000000</ele>
			</trkpt>
			<trkpt lat="49.610503" lon="19.530686">
				<ele>820.000000</ele>
			</trkpt>
			<trkpt lat="49.610508" lon="19.530434">
				<ele>816.000000</ele>
			</trkpt>
			<trkpt lat="49.610572" lon="19.530219">
				<ele>812.000000</ele>
			</trkpt>
			<trkpt lat="49.610555" lon="19.530084">
				<ele>810.000000</ele>
			</trkpt>
			<trkpt lat="49.610427" lon="19.529895">
				<ele>805.000000</ele>
			</trkpt>
			<trkpt lat="49.610177" lon="19.529428">
				<ele>797.000000</ele>
			</trkpt>
			<trkpt lat="49.610147" lon="19.529275">
				<ele>795.000000</ele>
			</trkpt>
			<trkpt lat="49.610153" lon="19.529069">
				<ele>792.000000</ele>
			</trkpt>
			<trkpt lat="49.610106" lon="19.528898">
				<ele>790.000000</ele>
			</trkpt>
			<trkpt lat="49.610078" lon="19.528719">
				<ele>788.000000</ele>
			</trkpt>
			<trkpt lat="49.610054" lon="19.528466">
				<ele>785.000000</ele>
			</trkpt>
			<trkpt lat="49.609996" lon="19.528242">
				<ele>782.000000</ele>
			</trkpt>
			<trkpt lat="49.609862" lon="19.527811">
				<ele>775.000000</ele>
			</trkpt>
			<trkpt lat="49.609850" lon="19.527577">
				<ele>771.000000</ele>
			</trkpt>
			<trkpt lat="49.609897" lon="19.527424">
				<ele>767.000000</ele>
			</trkpt>
			<trkpt lat="49.609967" lon="19.527281">
				<ele>763.000000</ele>
			</trkpt>
			<trkpt lat="49.609961" lon="19.527038">
				<ele>758.000000</ele>
			</trkpt>
			<trkpt lat="49.609978" lon="19.526824">
				<ele>755.000000</ele>
			</trkpt>
			<trkpt lat="49.610084" lon="19.526554">
				<ele>750.000000</ele>
			</trkpt>
			<trkpt lat="49.610165" lon="19.526258">
				<ele>747.000000</ele>
			</trkpt>
			<trkpt lat="49.610252" lon="19.525916">
				<ele>743.000000</ele>
			</trkpt>
			<trkpt lat="49.610299" lon="19.525449">
				<ele>738.000000</ele>
			</trkpt>
			<trkpt lat="49.610281" lon="19.525216">
				<ele>734.000000</ele>
			</trkpt>
			<trkpt lat="49.610229" lon="19.525036">
				<ele>731.000000</ele>
			</trkpt>
			<trkpt lat="49.610084" lon="19.524946">
				<ele>728.000000</ele>
			</trkpt>
			<trkpt lat="49.609856" lon="19.524829">
				<ele>723.000000</ele>
			</trkpt>
			<trkpt lat="49.609571" lon="19.524640">
				<ele>715.000000</ele>
			</trkpt>
			<trkpt lat="49.609117" lon="19.524145">
				<ele>704.000000</ele>
			</trkpt>
			<trkpt lat="49.609076" lon="19.523975">
				<ele>702.000000</ele>
			</trkpt>
			<trkpt lat="49.609070" lon="19.523795">
				<ele>700.000000</ele>
			</trkpt>
			<trkpt lat="49.609105" lon="19.523598">
				<ele>700.000000</ele>
			</trkpt>
			<trkpt lat="49.609170" lon="19.523455">
				<ele>700.000000</ele>
			</trkpt>
			<trkpt lat="49.609233" lon="19.523329">
				<ele>700.000000</ele>
			</trkpt>
			<trkpt lat="49.609339" lon="19.523005">
				<ele>700.000000</ele>
			</trkpt>
			<trkpt lat="49.609536" lon="19.522403">
				<ele>700.000000</ele>
			</trkpt>
			<trkpt lat="49.609798" lon="19.522134">
				<ele>700.000000</ele>
			</trkpt>
			<trkpt lat="49.609798" lon="19.521981">
				<ele>700.000000</ele>
			</trkpt>
			<trkpt lat="49.609775" lon="19.521855">
				<ele>700.000000</ele>
			</trkpt>
			<trkpt lat="49.609594" lon="19.521469">
				<ele>703.000000</ele>
			</trkpt>
			<trkpt lat="49.609519" lon="19.521119">
				<ele>705.000000</ele>
			</trkpt>
			<trkpt lat="49.609420" lon="19.520805">
				<ele>708.000000</ele>
			</trkpt>
			<trkpt lat="49.609396" lon="19.520562">
				<ele>710.000000</ele>
			</trkpt>
			<trkpt lat="49.609309" lon="19.520292">
				<ele>710.000000</ele>
			</trkpt>
			<trkpt lat="49.609280" lon="19.519960">
				<ele>710.000000</ele>
			</trkpt>
			<trkpt lat="49.609164" lon="19.519646">
				<ele>710.000000</ele>
			</trkpt>
			<trkpt lat="49.609111" lon="19.519430">
				<ele>710.000000</ele>
			</trkpt>
			<trkpt lat="49.609036" lon="19.519277">
				<ele>710.000000</ele>
			</trkpt>
			<trkpt lat="49.608966" lon="19.518900">
				<ele>710.000000</ele>
			</trkpt>
			<trkpt lat="49.608849" lon="19.518658">
				<ele>710.000000</ele>
			</trkpt>
			<trkpt lat="49.608745" lon="19.518459">
				<ele>710.000000</ele>
			</trkpt>
			<trkpt lat="49.608675" lon="19.518182">
				<ele>710.000000</ele>
			</trkpt>
			<trkpt lat="49.608663" lon="19.518145">
				<ele>710.000000</ele>
			</trkpt>
			<trkpt lat="49.608593" lon="19.518002">
				<ele>710.000000</ele>
			</trkpt>
			<trkpt lat="49.608576" lon="19.517992">
				<ele>710.000000</ele>
			</trkpt>
			<trkpt lat="49.608506" lon="19.517939">
				<ele>710.000000</ele>
			</trkpt>
			<trkpt lat="49.608500" lon="19.517939">
				<ele>710.000000</ele>
			</trkpt>
			<trkpt lat="49.608360" lon="19.517858">
				<ele>710.000000</ele>
			</trkpt>
			<trkpt lat="49.608186" lon="19.517687">
				<ele>711.000000</ele>
			</trkpt>
			<trkpt lat="49.608256" lon="19.517642">
				<ele>710.000000</ele>
			</trkpt>
			<trkpt lat="49.608297" lon="19.517616">
				<ele>710.000000</ele>
			</trkpt>
			<trkpt lat="49.608244" lon="19.517445">
				<ele>710.000000</ele>
			</trkpt>
			<trkpt lat="49.608197" lon="19.517266">
				<ele>710.000000</ele>
			</trkpt>
			<trkpt lat="49.608331" lon="19.517184">
				<ele>710.000000</ele>
			</trkpt>
		</trkseg>
	</trk>
</gpx>

