<?xml version="1.0" encoding="utf-8"?>
<gpx xmlns="http://www.topografix.com/GPX/1/1" version="1.1" creator="https://mapy.com/">
	<trk>
		<name>Trasa z 50.264290N, 16.996881E do 50.264309N, 16.996894E</name>
		<trkseg>
			<trkpt lat="50.264286" lon="16.996880">
				<ele>728.000000</ele>
			</trkpt>
			<trkpt lat="50.264252" lon="16.996304">
				<ele>732.000000</ele>
			</trkpt>
			<trkpt lat="50.264240" lon="16.996071">
				<ele>733.000000</ele>
			</trkpt>
			<trkpt lat="50.264217" lon="16.995838">
				<ele>734.000000</ele>
			</trkpt>
			<trkpt lat="50.264206" lon="16.995730">
				<ele>735.000000</ele>
			</trkpt>
			<trkpt lat="50.264177" lon="16.995631">
				<ele>736.000000</ele>
			</trkpt>
			<trkpt lat="50.264154" lon="16.995541">
				<ele>736.000000</ele>
			</trkpt>
			<trkpt lat="50.264137" lon="16.995497">
				<ele>736.000000</ele>
			</trkpt>
			<trkpt lat="50.264085" lon="16.995371">
				<ele>737.000000</ele>
			</trkpt>
			<trkpt lat="50.264016" lon="16.995227">
				<ele>738.000000</ele>
			</trkpt>
			<trkpt lat="50.263965" lon="16.995137">
				<ele>739.000000</ele>
			</trkpt>
			<trkpt lat="50.263884" lon="16.995038">
				<ele>740.000000</ele>
			</trkpt>
			<trkpt lat="50.263890" lon="16.995074">
				<ele>740.000000</ele>
			</trkpt>
			<trkpt lat="50.263896" lon="16.995461">
				<ele>740.000000</ele>
			</trkpt>
			<trkpt lat="50.263827" lon="16.995738">
				<ele>740.000000</ele>
			</trkpt>
			<trkpt lat="50.263741" lon="16.995990">
				<ele>742.000000</ele>
			</trkpt>
			<trkpt lat="50.263597" lon="16.996180">
				<ele>744.000000</ele>
			</trkpt>
			<trkpt lat="50.263385" lon="16.996314">
				<ele>746.000000</ele>
			</trkpt>
			<trkpt lat="50.262972" lon="16.996394">
				<ele>751.000000</ele>
			</trkpt>
			<trkpt lat="50.262678" lon="16.996493">
				<ele>757.000000</ele>
			</trkpt>
			<trkpt lat="50.262345" lon="16.996593">
				<ele>764.000000</ele>
			</trkpt>
			<trkpt lat="50.262064" lon="16.996656">
				<ele>769.000000</ele>
			</trkpt>
			<trkpt lat="50.261892" lon="16.996727">
				<ele>771.000000</ele>
			</trkpt>
			<trkpt lat="50.261777" lon="16.996835">
				<ele>773.000000</ele>
			</trkpt>
			<trkpt lat="50.261731" lon="16.996925">
				<ele>774.000000</ele>
			</trkpt>
			<trkpt lat="50.261496" lon="16.997365">
				<ele>777.000000</ele>
			</trkpt>
			<trkpt lat="50.261346" lon="16.997589">
				<ele>779.000000</ele>
			</trkpt>
			<trkpt lat="50.260979" lon="16.998084">
				<ele>786.000000</ele>
			</trkpt>
			<trkpt lat="50.260680" lon="16.998425">
				<ele>791.000000</ele>
			</trkpt>
			<trkpt lat="50.260542" lon="16.998757">
				<ele>795.000000</ele>
			</trkpt>
			<trkpt lat="50.260410" lon="16.999233">
				<ele>799.000000</ele>
			</trkpt>
			<trkpt lat="50.260255" lon="17.000195">
				<ele>806.000000</ele>
			</trkpt>
			<trkpt lat="50.260163" lon="17.000707">
				<ele>810.000000</ele>
			</trkpt>
			<trkpt lat="50.259985" lon="17.001363">
				<ele>817.000000</ele>
			</trkpt>
			<trkpt lat="50.259996" lon="17.001749">
				<ele>820.000000</ele>
			</trkpt>
			<trkpt lat="50.260077" lon="17.002063">
				<ele>822.000000</ele>
			</trkpt>
			<trkpt lat="50.260209" lon="17.002495">
				<ele>825.000000</ele>
			</trkpt>
			<trkpt lat="50.260393" lon="17.002889">
				<ele>828.000000</ele>
			</trkpt>
			<trkpt lat="50.260686" lon="17.003321">
				<ele>831.000000</ele>
			</trkpt>
			<trkpt lat="50.260944" lon="17.003725">
				<ele>835.000000</ele>
			</trkpt>
			<trkpt lat="50.261093" lon="17.003967">
				<ele>838.000000</ele>
			</trkpt>
			<trkpt lat="50.261140" lon="17.004164">
				<ele>839.000000</ele>
			</trkpt>
			<trkpt lat="50.261059" lon="17.004462">
				<ele>845.000000</ele>
			</trkpt>
			<trkpt lat="50.260990" lon="17.004812">
				<ele>853.000000</ele>
			</trkpt>
			<trkpt lat="50.260921" lon="17.005333">
				<ele>863.000000</ele>
			</trkpt>
			<trkpt lat="50.260858" lon="17.005665">
				<ele>868.000000</ele>
			</trkpt>
			<trkpt lat="50.260812" lon="17.005899">
				<ele>871.000000</ele>
			</trkpt>
			<trkpt lat="50.260743" lon="17.006151">
				<ele>874.000000</ele>
			</trkpt>
			<trkpt lat="50.260651" lon="17.006464">
				<ele>877.000000</ele>
			</trkpt>
			<trkpt lat="50.260605" lon="17.006717">
				<ele>879.000000</ele>
			</trkpt>
			<trkpt lat="50.260513" lon="17.007076">
				<ele>882.000000</ele>
			</trkpt>
			<trkpt lat="50.260370" lon="17.007570">
				<ele>886.000000</ele>
			</trkpt>
			<trkpt lat="50.259985" lon="17.009043">
				<ele>901.000000</ele>
			</trkpt>
			<trkpt lat="50.259967" lon="17.009124">
				<ele>902.000000</ele>
			</trkpt>
			<trkpt lat="50.259951" lon="17.009178">
				<ele>902.000000</ele>
			</trkpt>
			<trkpt lat="50.259956" lon="17.009214">
				<ele>905.000000</ele>
			</trkpt>
			<trkpt lat="50.260226" lon="17.009816">
				<ele>906.000000</ele>
			</trkpt>
			<trkpt lat="50.260312" lon="17.010013">
				<ele>906.000000</ele>
			</trkpt>
			<trkpt lat="50.260381" lon="17.010139">
				<ele>906.000000</ele>
			</trkpt>
			<trkpt lat="50.260473" lon="17.010229">
				<ele>907.000000</ele>
			</trkpt>
			<trkpt lat="50.260571" lon="17.010319">
				<ele>907.000000</ele>
			</trkpt>
			<trkpt lat="50.260784" lon="17.010453">
				<ele>908.000000</ele>
			</trkpt>
			<trkpt lat="50.260950" lon="17.010588">
				<ele>909.000000</ele>
			</trkpt>
			<trkpt lat="50.261306" lon="17.010912">
				<ele>911.000000</ele>
			</trkpt>
			<trkpt lat="50.261581" lon="17.011162">
				<ele>918.000000</ele>
			</trkpt>
			<trkpt lat="50.261897" lon="17.011414">
				<ele>927.000000</ele>
			</trkpt>
			<trkpt lat="50.261972" lon="17.011514">
				<ele>925.000000</ele>
			</trkpt>
			<trkpt lat="50.262104" lon="17.011478">
				<ele>929.000000</ele>
			</trkpt>
			<trkpt lat="50.262432" lon="17.011451">
				<ele>936.000000</ele>
			</trkpt>
			<trkpt lat="50.262811" lon="17.011468">
				<ele>944.000000</ele>
			</trkpt>
			<trkpt lat="50.263075" lon="17.011424">
				<ele>948.000000</ele>
			</trkpt>
			<trkpt lat="50.263350" lon="17.011441">
				<ele>955.000000</ele>
			</trkpt>
			<trkpt lat="50.263407" lon="17.011495">
				<ele>956.000000</ele>
			</trkpt>
			<trkpt lat="50.263454" lon="17.011604">
				<ele>959.000000</ele>
			</trkpt>
			<trkpt lat="50.263482" lon="17.011711">
				<ele>961.000000</ele>
			</trkpt>
			<trkpt lat="50.263494" lon="17.011828">
				<ele>964.000000</ele>
			</trkpt>
			<trkpt lat="50.263494" lon="17.011828">
				<ele>964.000000</ele>
			</trkpt>
			<trkpt lat="50.263499" lon="17.011900">
				<ele>966.000000</ele>
			</trkpt>
			<trkpt lat="50.263494" lon="17.012070">
				<ele>970.000000</ele>
			</trkpt>
			<trkpt lat="50.263511" lon="17.012250">
				<ele>974.000000</ele>
			</trkpt>
			<trkpt lat="50.263586" lon="17.012393">
				<ele>978.000000</ele>
			</trkpt>
			<trkpt lat="50.263741" lon="17.012672">
				<ele>980.000000</ele>
			</trkpt>
			<trkpt lat="50.263810" lon="17.012753">
				<ele>980.000000</ele>
			</trkpt>
			<trkpt lat="50.264045" lon="17.012923">
				<ele>980.000000</ele>
			</trkpt>
			<trkpt lat="50.264154" lon="17.013022">
				<ele>980.000000</ele>
			</trkpt>
			<trkpt lat="50.264211" lon="17.013112">
				<ele>980.000000</ele>
			</trkpt>
			<trkpt lat="50.264240" lon="17.013130">
				<ele>980.000000</ele>
			</trkpt>
			<trkpt lat="50.264269" lon="17.013122">
				<ele>980.000000</ele>
			</trkpt>
			<trkpt lat="50.264286" lon="17.013139">
				<ele>980.000000</ele>
			</trkpt>
			<trkpt lat="50.264321" lon="17.013185">
				<ele>980.000000</ele>
			</trkpt>
			<trkpt lat="50.264367" lon="17.013238">
				<ele>980.000000</ele>
			</trkpt>
			<trkpt lat="50.264367" lon="17.013238">
				<ele>980.000000</ele>
			</trkpt>
			<trkpt lat="50.264292" lon="17.013220">
				<ele>980.000000</ele>
			</trkpt>
			<trkpt lat="50.264240" lon="17.013202">
				<ele>981.000000</ele>
			</trkpt>
			<trkpt lat="50.264206" lon="17.013212">
				<ele>981.000000</ele>
			</trkpt>
			<trkpt lat="50.264171" lon="17.013212">
				<ele>981.000000</ele>
			</trkpt>
			<trkpt lat="50.264154" lon="17.013193">
				<ele>981.000000</ele>
			</trkpt>
			<trkpt lat="50.264132" lon="17.013185">
				<ele>981.000000</ele>
			</trkpt>
			<trkpt lat="50.264114" lon="17.013193">
				<ele>981.000000</ele>
			</trkpt>
			<trkpt lat="50.264079" lon="17.013212">
				<ele>981.000000</ele>
			</trkpt>
			<trkpt lat="50.264063" lon="17.013238">
				<ele>982.000000</ele>
			</trkpt>
			<trkpt lat="50.264034" lon="17.013256">
				<ele>982.000000</ele>
			</trkpt>
			<trkpt lat="50.263987" lon="17.013256">
				<ele>982.000000</ele>
			</trkpt>
			<trkpt lat="50.263769" lon="17.013319">
				<ele>983.000000</ele>
			</trkpt>
			<trkpt lat="50.263695" lon="17.013301">
				<ele>983.000000</ele>
			</trkpt>
			<trkpt lat="50.263568" lon="17.013238">
				<ele>984.000000</ele>
			</trkpt>
			<trkpt lat="50.263448" lon="17.013122">
				<ele>985.000000</ele>
			</trkpt>
			<trkpt lat="50.263063" lon="17.012619">
				<ele>972.000000</ele>
			</trkpt>
			<trkpt lat="50.262770" lon="17.012170">
				<ele>960.000000</ele>
			</trkpt>
			<trkpt lat="50.262667" lon="17.012080">
				<ele>954.000000</ele>
			</trkpt>
			<trkpt lat="50.262552" lon="17.011998">
				<ele>948.000000</ele>
			</trkpt>
			<trkpt lat="50.262340" lon="17.011791">
				<ele>938.000000</ele>
			</trkpt>
			<trkpt lat="50.261972" lon="17.011514">
				<ele>925.000000</ele>
			</trkpt>
			<trkpt lat="50.261897" lon="17.011414">
				<ele>927.000000</ele>
			</trkpt>
			<trkpt lat="50.261581" lon="17.011162">
				<ele>918.000000</ele>
			</trkpt>
			<trkpt lat="50.261306" lon="17.010912">
				<ele>911.000000</ele>
			</trkpt>
			<trkpt lat="50.260950" lon="17.010588">
				<ele>909.000000</ele>
			</trkpt>
			<trkpt lat="50.260784" lon="17.010453">
				<ele>908.000000</ele>
			</trkpt>
			<trkpt lat="50.260571" lon="17.010319">
				<ele>907.000000</ele>
			</trkpt>
			<trkpt lat="50.260473" lon="17.010229">
				<ele>907.000000</ele>
			</trkpt>
			<trkpt lat="50.260381" lon="17.010139">
				<ele>906.000000</ele>
			</trkpt>
			<trkpt lat="50.260312" lon="17.010013">
				<ele>906.000000</ele>
			</trkpt>
			<trkpt lat="50.260226" lon="17.009816">
				<ele>906.000000</ele>
			</trkpt>
			<trkpt lat="50.259956" lon="17.009214">
				<ele>905.000000</ele>
			</trkpt>
			<trkpt lat="50.259882" lon="17.009051">
				<ele>905.000000</ele>
			</trkpt>
			<trkpt lat="50.259784" lon="17.008881">
				<ele>905.000000</ele>
			</trkpt>
			<trkpt lat="50.259732" lon="17.008782">
				<ele>905.000000</ele>
			</trkpt>
			<trkpt lat="50.259675" lon="17.008638">
				<ele>905.000000</ele>
			</trkpt>
			<trkpt lat="50.259629" lon="17.008468">
				<ele>905.000000</ele>
			</trkpt>
			<trkpt lat="50.259583" lon="17.008225">
				<ele>905.000000</ele>
			</trkpt>
			<trkpt lat="50.259428" lon="17.007579">
				<ele>905.000000</ele>
			</trkpt>
			<trkpt lat="50.259422" lon="17.007480">
				<ele>905.000000</ele>
			</trkpt>
			<trkpt lat="50.259416" lon="17.007380">
				<ele>905.000000</ele>
			</trkpt>
			<trkpt lat="50.259422" lon="17.007004">
				<ele>906.000000</ele>
			</trkpt>
			<trkpt lat="50.259422" lon="17.006843">
				<ele>908.000000</ele>
			</trkpt>
			<trkpt lat="50.259411" lon="17.006680">
				<ele>910.000000</ele>
			</trkpt>
			<trkpt lat="50.259393" lon="17.006518">
				<ele>910.000000</ele>
			</trkpt>
			<trkpt lat="50.259371" lon="17.006384">
				<ele>910.000000</ele>
			</trkpt>
			<trkpt lat="50.259336" lon="17.006249">
				<ele>910.000000</ele>
			</trkpt>
			<trkpt lat="50.259290" lon="17.006141">
				<ele>910.000000</ele>
			</trkpt>
			<trkpt lat="50.259233" lon="17.005998">
				<ele>909.000000</ele>
			</trkpt>
			<trkpt lat="50.259095" lon="17.005692">
				<ele>907.000000</ele>
			</trkpt>
			<trkpt lat="50.258791" lon="17.005135">
				<ele>902.000000</ele>
			</trkpt>
			<trkpt lat="50.258589" lon="17.004820">
				<ele>900.000000</ele>
			</trkpt>
			<trkpt lat="50.258480" lon="17.004677">
				<ele>898.000000</ele>
			</trkpt>
			<trkpt lat="50.258383" lon="17.004560">
				<ele>897.000000</ele>
			</trkpt>
			<trkpt lat="50.258245" lon="17.004407">
				<ele>895.000000</ele>
			</trkpt>
			<trkpt lat="50.258119" lon="17.004291">
				<ele>894.000000</ele>
			</trkpt>
			<trkpt lat="50.257987" lon="17.004164">
				<ele>893.000000</ele>
			</trkpt>
			<trkpt lat="50.257871" lon="17.004004">
				<ele>891.000000</ele>
			</trkpt>
			<trkpt lat="50.257785" lon="17.003860">
				<ele>890.000000</ele>
			</trkpt>
			<trkpt lat="50.257584" lon="17.003509">
				<ele>894.000000</ele>
			</trkpt>
			<trkpt lat="50.257481" lon="17.003338">
				<ele>896.000000</ele>
			</trkpt>
			<trkpt lat="50.257268" lon="17.003006">
				<ele>901.000000</ele>
			</trkpt>
			<trkpt lat="50.257079" lon="17.002692">
				<ele>905.000000</ele>
			</trkpt>
			<trkpt lat="50.256550" lon="17.001776">
				<ele>916.000000</ele>
			</trkpt>
			<trkpt lat="50.256499" lon="17.001704">
				<ele>916.000000</ele>
			</trkpt>
			<trkpt lat="50.256436" lon="17.001659">
				<ele>917.000000</ele>
			</trkpt>
			<trkpt lat="50.256367" lon="17.001650">
				<ele>917.000000</ele>
			</trkpt>
			<trkpt lat="50.256304" lon="17.001667">
				<ele>917.000000</ele>
			</trkpt>
			<trkpt lat="50.256011" lon="17.001820">
				<ele>919.000000</ele>
			</trkpt>
			<trkpt lat="50.255643" lon="17.001982">
				<ele>920.000000</ele>
			</trkpt>
			<trkpt lat="50.255304" lon="17.002143">
				<ele>920.000000</ele>
			</trkpt>
			<trkpt lat="50.254477" lon="17.002556">
				<ele>922.000000</ele>
			</trkpt>
			<trkpt lat="50.253880" lon="17.002862">
				<ele>917.000000</ele>
			</trkpt>
			<trkpt lat="50.253225" lon="17.003159">
				<ele>915.000000</ele>
			</trkpt>
			<trkpt lat="50.253116" lon="17.003231">
				<ele>915.000000</ele>
			</trkpt>
			<trkpt lat="50.253070" lon="17.003267">
				<ele>915.000000</ele>
			</trkpt>
			<trkpt lat="50.253030" lon="17.003321">
				<ele>915.000000</ele>
			</trkpt>
			<trkpt lat="50.252955" lon="17.003447">
				<ele>915.000000</ele>
			</trkpt>
			<trkpt lat="50.252829" lon="17.003734">
				<ele>913.000000</ele>
			</trkpt>
			<trkpt lat="50.252495" lon="17.004489">
				<ele>899.000000</ele>
			</trkpt>
			<trkpt lat="50.252174" lon="17.005180">
				<ele>884.000000</ele>
			</trkpt>
			<trkpt lat="50.251571" lon="17.006420">
				<ele>869.000000</ele>
			</trkpt>
			<trkpt lat="50.250985" lon="17.007570">
				<ele>866.000000</ele>
			</trkpt>
			<trkpt lat="50.250887" lon="17.007759">
				<ele>865.000000</ele>
			</trkpt>
			<trkpt lat="50.249578" lon="17.010273">
				<ele>899.000000</ele>
			</trkpt>
			<trkpt lat="50.249474" lon="17.010472">
				<ele>903.000000</ele>
			</trkpt>
			<trkpt lat="50.249377" lon="17.010615">
				<ele>905.000000</ele>
			</trkpt>
			<trkpt lat="50.249273" lon="17.010749">
				<ele>905.000000</ele>
			</trkpt>
			<trkpt lat="50.249164" lon="17.010875">
				<ele>905.000000</ele>
			</trkpt>
			<trkpt lat="50.248992" lon="17.011019">
				<ele>905.000000</ele>
			</trkpt>
			<trkpt lat="50.248825" lon="17.011145">
				<ele>904.000000</ele>
			</trkpt>
			<trkpt lat="50.248664" lon="17.011235">
				<ele>902.000000</ele>
			</trkpt>
			<trkpt lat="50.248417" lon="17.011361">
				<ele>898.000000</ele>
			</trkpt>
			<trkpt lat="50.248262" lon="17.011441">
				<ele>896.000000</ele>
			</trkpt>
			<trkpt lat="50.248170" lon="17.011495">
				<ele>896.000000</ele>
			</trkpt>
			<trkpt lat="50.248027" lon="17.011567">
				<ele>897.000000</ele>
			</trkpt>
			<trkpt lat="50.247895" lon="17.011594">
				<ele>898.000000</ele>
			</trkpt>
			<trkpt lat="50.247751" lon="17.011585">
				<ele>900.000000</ele>
			</trkpt>
			<trkpt lat="50.247515" lon="17.011531">
				<ele>902.000000</ele>
			</trkpt>
			<trkpt lat="50.246343" lon="17.011307">
				<ele>914.000000</ele>
			</trkpt>
			<trkpt lat="50.244172" lon="17.010929">
				<ele>936.000000</ele>
			</trkpt>
			<trkpt lat="50.242914" lon="17.010669">
				<ele>949.000000</ele>
			</trkpt>
			<trkpt lat="50.242811" lon="17.010659">
				<ele>950.000000</ele>
			</trkpt>
			<trkpt lat="50.242707" lon="17.010686">
				<ele>951.000000</ele>
			</trkpt>
			<trkpt lat="50.242615" lon="17.010741">
				<ele>952.000000</ele>
			</trkpt>
			<trkpt lat="50.242380" lon="17.010894">
				<ele>954.000000</ele>
			</trkpt>
			<trkpt lat="50.242098" lon="17.011055">
				<ele>956.000000</ele>
			</trkpt>
			<trkpt lat="50.241655" lon="17.011334">
				<ele>959.000000</ele>
			</trkpt>
			<trkpt lat="50.241563" lon="17.011414">
				<ele>960.000000</ele>
			</trkpt>
			<trkpt lat="50.241478" lon="17.011504">
				<ele>961.000000</ele>
			</trkpt>
			<trkpt lat="50.241426" lon="17.011612">
				<ele>961.000000</ele>
			</trkpt>
			<trkpt lat="50.241351" lon="17.011818">
				<ele>962.000000</ele>
			</trkpt>
			<trkpt lat="50.241179" lon="17.012322">
				<ele>965.000000</ele>
			</trkpt>
			<trkpt lat="50.241053" lon="17.012780">
				<ele>967.000000</ele>
			</trkpt>
			<trkpt lat="50.240966" lon="17.013166">
				<ele>969.000000</ele>
			</trkpt>
			<trkpt lat="50.240777" lon="17.014055">
				<ele>974.000000</ele>
			</trkpt>
			<trkpt lat="50.240673" lon="17.014541">
				<ele>977.000000</ele>
			</trkpt>
			<trkpt lat="50.240587" lon="17.014864">
				<ele>978.000000</ele>
			</trkpt>
			<trkpt lat="50.240529" lon="17.015017">
				<ele>979.000000</ele>
			</trkpt>
			<trkpt lat="50.240472" lon="17.015152">
				<ele>980.000000</ele>
			</trkpt>
			<trkpt lat="50.240409" lon="17.015277">
				<ele>980.000000</ele>
			</trkpt>
			<trkpt lat="50.240317" lon="17.015412">
				<ele>981.000000</ele>
			</trkpt>
			<trkpt lat="50.240093" lon="17.015736">
				<ele>983.000000</ele>
			</trkpt>
			<trkpt lat="50.239903" lon="17.015969">
				<ele>985.000000</ele>
			</trkpt>
			<trkpt lat="50.239708" lon="17.016202">
				<ele>988.000000</ele>
			</trkpt>
			<trkpt lat="50.239076" lon="17.016804">
				<ele>1003.000000</ele>
			</trkpt>
			<trkpt lat="50.238800" lon="17.017101">
				<ele>1009.000000</ele>
			</trkpt>
			<trkpt lat="50.238616" lon="17.017317">
				<ele>1014.000000</ele>
			</trkpt>
			<trkpt lat="50.238415" lon="17.017577">
				<ele>1017.000000</ele>
			</trkpt>
			<trkpt lat="50.238243" lon="17.017820">
				<ele>1020.000000</ele>
			</trkpt>
			<trkpt lat="50.238076" lon="17.018080">
				<ele>1024.000000</ele>
			</trkpt>
			<trkpt lat="50.237812" lon="17.018546">
				<ele>1028.000000</ele>
			</trkpt>
			<trkpt lat="50.237330" lon="17.019454">
				<ele>1040.000000</ele>
			</trkpt>
			<trkpt lat="50.237082" lon="17.019904">
				<ele>1048.000000</ele>
			</trkpt>
			<trkpt lat="50.236841" lon="17.020317">
				<ele>1056.000000</ele>
			</trkpt>
			<trkpt lat="50.236617" lon="17.020659">
				<ele>1063.000000</ele>
			</trkpt>
			<trkpt lat="50.236312" lon="17.021089">
				<ele>1073.000000</ele>
			</trkpt>
			<trkpt lat="50.236002" lon="17.021466">
				<ele>1083.000000</ele>
			</trkpt>
			<trkpt lat="50.235623" lon="17.021871">
				<ele>1091.000000</ele>
			</trkpt>
			<trkpt lat="50.235140" lon="17.022328">
				<ele>1098.000000</ele>
			</trkpt>
			<trkpt lat="50.234784" lon="17.022653">
				<ele>1101.000000</ele>
			</trkpt>
			<trkpt lat="50.234433" lon="17.022976">
				<ele>1104.000000</ele>
			</trkpt>
			<trkpt lat="50.234192" lon="17.023146">
				<ele>1105.000000</ele>
			</trkpt>
			<trkpt lat="50.233980" lon="17.023317">
				<ele>1105.000000</ele>
			</trkpt>
			<trkpt lat="50.233342" lon="17.023910">
				<ele>1105.000000</ele>
			</trkpt>
			<trkpt lat="50.233049" lon="17.024188">
				<ele>1105.000000</ele>
			</trkpt>
			<trkpt lat="50.232600" lon="17.024665">
				<ele>1105.000000</ele>
			</trkpt>
			<trkpt lat="50.232514" lon="17.024754">
				<ele>1105.000000</ele>
			</trkpt>
			<trkpt lat="50.232302" lon="17.025131">
				<ele>1105.000000</ele>
			</trkpt>
			<trkpt lat="50.232158" lon="17.025330">
				<ele>1105.000000</ele>
			</trkpt>
			<trkpt lat="50.231796" lon="17.025896">
				<ele>1105.000000</ele>
			</trkpt>
			<trkpt lat="50.231164" lon="17.026892">
				<ele>1105.000000</ele>
			</trkpt>
			<trkpt lat="50.230900" lon="17.027315">
				<ele>1105.000000</ele>
			</trkpt>
			<trkpt lat="50.230784" lon="17.027458">
				<ele>1106.000000</ele>
			</trkpt>
			<trkpt lat="50.230687" lon="17.027584">
				<ele>1106.000000</ele>
			</trkpt>
			<trkpt lat="50.230348" lon="17.027944">
				<ele>1108.000000</ele>
			</trkpt>
			<trkpt lat="50.230135" lon="17.028177">
				<ele>1109.000000</ele>
			</trkpt>
			<trkpt lat="50.230078" lon="17.028257">
				<ele>1110.000000</ele>
			</trkpt>
			<trkpt lat="50.230043" lon="17.028357">
				<ele>1110.000000</ele>
			</trkpt>
			<trkpt lat="50.229986" lon="17.028312">
				<ele>1103.000000</ele>
			</trkpt>
			<trkpt lat="50.229888" lon="17.028223">
				<ele>1103.000000</ele>
			</trkpt>
			<trkpt lat="50.229825" lon="17.028159">
				<ele>1103.000000</ele>
			</trkpt>
			<trkpt lat="50.229606" lon="17.027980">
				<ele>1104.000000</ele>
			</trkpt>
			<trkpt lat="50.229279" lon="17.027477">
				<ele>1105.000000</ele>
			</trkpt>
			<trkpt lat="50.229210" lon="17.027171">
				<ele>1105.000000</ele>
			</trkpt>
			<trkpt lat="50.229066" lon="17.026775">
				<ele>1106.000000</ele>
			</trkpt>
			<trkpt lat="50.228698" lon="17.026596">
				<ele>1107.000000</ele>
			</trkpt>
			<trkpt lat="50.228469" lon="17.026345">
				<ele>1108.000000</ele>
			</trkpt>
			<trkpt lat="50.228210" lon="17.026022">
				<ele>1108.000000</ele>
			</trkpt>
			<trkpt lat="50.227900" lon="17.025167">
				<ele>1110.000000</ele>
			</trkpt>
			<trkpt lat="50.227647" lon="17.024862">
				<ele>1110.000000</ele>
			</trkpt>
			<trkpt lat="50.227503" lon="17.024710">
				<ele>1110.000000</ele>
			</trkpt>
			<trkpt lat="50.227222" lon="17.024458">
				<ele>1110.000000</ele>
			</trkpt>
			<trkpt lat="50.227164" lon="17.024261">
				<ele>1110.000000</ele>
			</trkpt>
			<trkpt lat="50.227124" lon="17.024099">
				<ele>1109.000000</ele>
			</trkpt>
			<trkpt lat="50.227055" lon="17.023928">
				<ele>1107.000000</ele>
			</trkpt>
			<trkpt lat="50.226980" lon="17.023668">
				<ele>1106.000000</ele>
			</trkpt>
			<trkpt lat="50.226951" lon="17.023515">
				<ele>1104.000000</ele>
			</trkpt>
			<trkpt lat="50.226951" lon="17.023416">
				<ele>1104.000000</ele>
			</trkpt>
			<trkpt lat="50.226825" lon="17.022581">
				<ele>1099.000000</ele>
			</trkpt>
			<trkpt lat="50.226612" lon="17.021592">
				<ele>1094.000000</ele>
			</trkpt>
			<trkpt lat="50.226520" lon="17.021332">
				<ele>1092.000000</ele>
			</trkpt>
			<trkpt lat="50.226451" lon="17.021152">
				<ele>1091.000000</ele>
			</trkpt>
			<trkpt lat="50.226371" lon="17.021045">
				<ele>1091.000000</ele>
			</trkpt>
			<trkpt lat="50.226262" lon="17.020892">
				<ele>1090.000000</ele>
			</trkpt>
			<trkpt lat="50.225957" lon="17.020659">
				<ele>1090.000000</ele>
			</trkpt>
			<trkpt lat="50.225820" lon="17.020613">
				<ele>1090.000000</ele>
			</trkpt>
			<trkpt lat="50.225687" lon="17.020577">
				<ele>1090.000000</ele>
			</trkpt>
			<trkpt lat="50.225411" lon="17.020596">
				<ele>1090.000000</ele>
			</trkpt>
			<trkpt lat="50.225221" lon="17.020542">
				<ele>1090.000000</ele>
			</trkpt>
			<trkpt lat="50.224871" lon="17.020299">
				<ele>1090.000000</ele>
			</trkpt>
			<trkpt lat="50.224463" lon="17.019877">
				<ele>1090.000000</ele>
			</trkpt>
			<trkpt lat="50.223945" lon="17.018879">
				<ele>1090.000000</ele>
			</trkpt>
			<trkpt lat="50.223503" lon="17.018439">
				<ele>1091.000000</ele>
			</trkpt>
			<trkpt lat="50.223176" lon="17.017963">
				<ele>1093.000000</ele>
			</trkpt>
			<trkpt lat="50.223003" lon="17.017829">
				<ele>1094.000000</ele>
			</trkpt>
			<trkpt lat="50.222831" lon="17.017712">
				<ele>1095.000000</ele>
			</trkpt>
			<trkpt lat="50.222693" lon="17.017559">
				<ele>1096.000000</ele>
			</trkpt>
			<trkpt lat="50.222549" lon="17.017433">
				<ele>1097.000000</ele>
			</trkpt>
			<trkpt lat="50.222400" lon="17.017317">
				<ele>1098.000000</ele>
			</trkpt>
			<trkpt lat="50.222233" lon="17.017038">
				<ele>1100.000000</ele>
			</trkpt>
			<trkpt lat="50.222089" lon="17.016867">
				<ele>1100.000000</ele>
			</trkpt>
			<trkpt lat="50.222009" lon="17.016778">
				<ele>1100.000000</ele>
			</trkpt>
			<trkpt lat="50.221830" lon="17.016634">
				<ele>1100.000000</ele>
			</trkpt>
			<trkpt lat="50.221836" lon="17.016651">
				<ele>1103.000000</ele>
			</trkpt>
			<trkpt lat="50.221693" lon="17.016544">
				<ele>1104.000000</ele>
			</trkpt>
			<trkpt lat="50.221589" lon="17.016472">
				<ele>1104.000000</ele>
			</trkpt>
			<trkpt lat="50.221526" lon="17.016445">
				<ele>1105.000000</ele>
			</trkpt>
			<trkpt lat="50.221463" lon="17.016428">
				<ele>1105.000000</ele>
			</trkpt>
			<trkpt lat="50.221244" lon="17.016418">
				<ele>1105.000000</ele>
			</trkpt>
			<trkpt lat="50.221130" lon="17.016382">
				<ele>1105.000000</ele>
			</trkpt>
			<trkpt lat="50.221032" lon="17.016319">
				<ele>1105.000000</ele>
			</trkpt>
			<trkpt lat="50.220853" lon="17.016149">
				<ele>1105.000000</ele>
			</trkpt>
			<trkpt lat="50.220756" lon="17.016086">
				<ele>1105.000000</ele>
			</trkpt>
			<trkpt lat="50.220578" lon="17.016005">
				<ele>1105.000000</ele>
			</trkpt>
			<trkpt lat="50.220399" lon="17.015915">
				<ele>1105.000000</ele>
			</trkpt>
			<trkpt lat="50.220279" lon="17.015816">
				<ele>1105.000000</ele>
			</trkpt>
			<trkpt lat="50.220037" lon="17.015592">
				<ele>1105.000000</ele>
			</trkpt>
			<trkpt lat="50.219842" lon="17.015449">
				<ele>1105.000000</ele>
			</trkpt>
			<trkpt lat="50.219796" lon="17.015412">
				<ele>1105.000000</ele>
			</trkpt>
			<trkpt lat="50.219756" lon="17.015359">
				<ele>1105.000000</ele>
			</trkpt>
			<trkpt lat="50.219721" lon="17.015304">
				<ele>1105.000000</ele>
			</trkpt>
			<trkpt lat="50.219687" lon="17.015187">
				<ele>1105.000000</ele>
			</trkpt>
			<trkpt lat="50.219653" lon="17.015097">
				<ele>1105.000000</ele>
			</trkpt>
			<trkpt lat="50.219572" lon="17.014972">
				<ele>1105.000000</ele>
			</trkpt>
			<trkpt lat="50.219520" lon="17.014883">
				<ele>1105.000000</ele>
			</trkpt>
			<trkpt lat="50.219451" lon="17.014774">
				<ele>1105.000000</ele>
			</trkpt>
			<trkpt lat="50.219382" lon="17.014676">
				<ele>1105.000000</ele>
			</trkpt>
			<trkpt lat="50.219382" lon="17.014676">
				<ele>1105.000000</ele>
			</trkpt>
			<trkpt lat="50.219371" lon="17.014667">
				<ele>1105.000000</ele>
			</trkpt>
			<trkpt lat="50.219325" lon="17.014613">
				<ele>1105.000000</ele>
			</trkpt>
			<trkpt lat="50.219342" lon="17.014621">
				<ele>1110.000000</ele>
			</trkpt>
			<trkpt lat="50.219262" lon="17.014496">
				<ele>1110.000000</ele>
			</trkpt>
			<trkpt lat="50.219215" lon="17.014317">
				<ele>1110.000000</ele>
			</trkpt>
			<trkpt lat="50.219135" lon="17.013841">
				<ele>1110.000000</ele>
			</trkpt>
			<trkpt lat="50.219135" lon="17.013562">
				<ele>1105.000000</ele>
			</trkpt>
			<trkpt lat="50.219123" lon="17.013454">
				<ele>1105.000000</ele>
			</trkpt>
			<trkpt lat="50.219072" lon="17.013212">
				<ele>1105.000000</ele>
			</trkpt>
			<trkpt lat="50.219009" lon="17.012833">
				<ele>1105.000000</ele>
			</trkpt>
			<trkpt lat="50.218940" lon="17.012573">
				<ele>1105.000000</ele>
			</trkpt>
			<trkpt lat="50.218813" lon="17.012061">
				<ele>1105.000000</ele>
			</trkpt>
			<trkpt lat="50.218790" lon="17.011954">
				<ele>1105.000000</ele>
			</trkpt>
			<trkpt lat="50.218710" lon="17.011783">
				<ele>1105.000000</ele>
			</trkpt>
			<trkpt lat="50.218687" lon="17.011667">
				<ele>1105.000000</ele>
			</trkpt>
			<trkpt lat="50.218641" lon="17.011514">
				<ele>1105.000000</ele>
			</trkpt>
			<trkpt lat="50.218549" lon="17.011325">
				<ele>1105.000000</ele>
			</trkpt>
			<trkpt lat="50.218279" lon="17.010749">
				<ele>1105.000000</ele>
			</trkpt>
			<trkpt lat="50.218227" lon="17.010642">
				<ele>1105.000000</ele>
			</trkpt>
			<trkpt lat="50.218140" lon="17.010382">
				<ele>1105.000000</ele>
			</trkpt>
			<trkpt lat="50.218118" lon="17.010283">
				<ele>1105.000000</ele>
			</trkpt>
			<trkpt lat="50.218083" lon="17.010085">
				<ele>1105.000000</ele>
			</trkpt>
			<trkpt lat="50.218020" lon="17.009933">
				<ele>1105.000000</ele>
			</trkpt>
			<trkpt lat="50.217991" lon="17.009816">
				<ele>1105.000000</ele>
			</trkpt>
			<trkpt lat="50.217962" lon="17.009644">
				<ele>1105.000000</ele>
			</trkpt>
			<trkpt lat="50.217945" lon="17.009267">
				<ele>1105.000000</ele>
			</trkpt>
			<trkpt lat="50.217905" lon="17.009017">
				<ele>1105.000000</ele>
			</trkpt>
			<trkpt lat="50.217870" lon="17.008872">
				<ele>1104.000000</ele>
			</trkpt>
			<trkpt lat="50.217865" lon="17.008747">
				<ele>1103.000000</ele>
			</trkpt>
			<trkpt lat="50.217865" lon="17.008621">
				<ele>1103.000000</ele>
			</trkpt>
			<trkpt lat="50.217888" lon="17.008495">
				<ele>1102.000000</ele>
			</trkpt>
			<trkpt lat="50.217916" lon="17.008315">
				<ele>1101.000000</ele>
			</trkpt>
			<trkpt lat="50.217916" lon="17.008244">
				<ele>1101.000000</ele>
			</trkpt>
			<trkpt lat="50.217899" lon="17.008154">
				<ele>1100.000000</ele>
			</trkpt>
			<trkpt lat="50.217882" lon="17.008019">
				<ele>1100.000000</ele>
			</trkpt>
			<trkpt lat="50.217870" lon="17.007848">
				<ele>1099.000000</ele>
			</trkpt>
			<trkpt lat="50.217865" lon="17.007705">
				<ele>1099.000000</ele>
			</trkpt>
			<trkpt lat="50.217830" lon="17.007579">
				<ele>1098.000000</ele>
			</trkpt>
			<trkpt lat="50.217784" lon="17.007498">
				<ele>1098.000000</ele>
			</trkpt>
			<trkpt lat="50.217727" lon="17.007390">
				<ele>1097.000000</ele>
			</trkpt>
			<trkpt lat="50.217548" lon="17.007193">
				<ele>1096.000000</ele>
			</trkpt>
			<trkpt lat="50.217519" lon="17.007156">
				<ele>1095.000000</ele>
			</trkpt>
			<trkpt lat="50.217503" lon="17.007120">
				<ele>1095.000000</ele>
			</trkpt>
			<trkpt lat="50.217479" lon="17.006994">
				<ele>1095.000000</ele>
			</trkpt>
			<trkpt lat="50.217456" lon="17.006824">
				<ele>1094.000000</ele>
			</trkpt>
			<trkpt lat="50.217456" lon="17.006671">
				<ele>1093.000000</ele>
			</trkpt>
			<trkpt lat="50.217462" lon="17.006483">
				<ele>1093.000000</ele>
			</trkpt>
			<trkpt lat="50.217451" lon="17.006411">
				<ele>1092.000000</ele>
			</trkpt>
			<trkpt lat="50.217428" lon="17.006330">
				<ele>1092.000000</ele>
			</trkpt>
			<trkpt lat="50.217342" lon="17.006034">
				<ele>1091.000000</ele>
			</trkpt>
			<trkpt lat="50.217302" lon="17.005818">
				<ele>1090.000000</ele>
			</trkpt>
			<trkpt lat="50.217284" lon="17.005692">
				<ele>1089.000000</ele>
			</trkpt>
			<trkpt lat="50.217284" lon="17.005692">
				<ele>1088.000000</ele>
			</trkpt>
			<trkpt lat="50.217284" lon="17.005692">
				<ele>1088.000000</ele>
			</trkpt>
			<trkpt lat="50.217261" lon="17.005441">
				<ele>1088.000000</ele>
			</trkpt>
			<trkpt lat="50.217238" lon="17.005296">
				<ele>1087.000000</ele>
			</trkpt>
			<trkpt lat="50.217215" lon="17.005198">
				<ele>1087.000000</ele>
			</trkpt>
			<trkpt lat="50.217181" lon="17.005117">
				<ele>1087.000000</ele>
			</trkpt>
			<trkpt lat="50.217135" lon="17.005046">
				<ele>1086.000000</ele>
			</trkpt>
			<trkpt lat="50.217072" lon="17.004938">
				<ele>1086.000000</ele>
			</trkpt>
			<trkpt lat="50.216980" lon="17.004793">
				<ele>1085.000000</ele>
			</trkpt>
			<trkpt lat="50.216916" lon="17.004641">
				<ele>1084.000000</ele>
			</trkpt>
			<trkpt lat="50.216824" lon="17.004273">
				<ele>1082.000000</ele>
			</trkpt>
			<trkpt lat="50.216784" lon="17.004130">
				<ele>1082.000000</ele>
			</trkpt>
			<trkpt lat="50.216750" lon="17.004013">
				<ele>1081.000000</ele>
			</trkpt>
			<trkpt lat="50.216732" lon="17.003860">
				<ele>1081.000000</ele>
			</trkpt>
			<trkpt lat="50.216675" lon="17.003518">
				<ele>1079.000000</ele>
			</trkpt>
			<trkpt lat="50.216594" lon="17.003185">
				<ele>1078.000000</ele>
			</trkpt>
			<trkpt lat="50.216577" lon="17.003088">
				<ele>1077.000000</ele>
			</trkpt>
			<trkpt lat="50.216542" lon="17.002898">
				<ele>1077.000000</ele>
			</trkpt>
			<trkpt lat="50.216525" lon="17.002818">
				<ele>1076.000000</ele>
			</trkpt>
			<trkpt lat="50.216457" lon="17.002575">
				<ele>1075.000000</ele>
			</trkpt>
			<trkpt lat="50.216428" lon="17.002432">
				<ele>1075.000000</ele>
			</trkpt>
			<trkpt lat="50.216370" lon="17.002109">
				<ele>1073.000000</ele>
			</trkpt>
			<trkpt lat="50.216341" lon="17.001937">
				<ele>1072.000000</ele>
			</trkpt>
			<trkpt lat="50.216330" lon="17.001767">
				<ele>1072.000000</ele>
			</trkpt>
			<trkpt lat="50.216324" lon="17.001632">
				<ele>1071.000000</ele>
			</trkpt>
			<trkpt lat="50.216278" lon="17.001488">
				<ele>1071.000000</ele>
			</trkpt>
			<trkpt lat="50.216227" lon="17.001290">
				<ele>1070.000000</ele>
			</trkpt>
			<trkpt lat="50.216215" lon="17.001138">
				<ele>1069.000000</ele>
			</trkpt>
			<trkpt lat="50.216198" lon="17.000922">
				<ele>1068.000000</ele>
			</trkpt>
			<trkpt lat="50.216175" lon="17.000770">
				<ele>1067.000000</ele>
			</trkpt>
			<trkpt lat="50.216117" lon="17.000446">
				<ele>1066.000000</ele>
			</trkpt>
			<trkpt lat="50.216082" lon="17.000258">
				<ele>1065.000000</ele>
			</trkpt>
			<trkpt lat="50.216060" lon="17.000122">
				<ele>1065.000000</ele>
			</trkpt>
			<trkpt lat="50.216031" lon="16.999835">
				<ele>1064.000000</ele>
			</trkpt>
			<trkpt lat="50.215962" lon="16.999467">
				<ele>1062.000000</ele>
			</trkpt>
			<trkpt lat="50.215899" lon="16.999072">
				<ele>1060.000000</ele>
			</trkpt>
			<trkpt lat="50.215876" lon="16.998919">
				<ele>1060.000000</ele>
			</trkpt>
			<trkpt lat="50.215876" lon="16.998775">
				<ele>1059.000000</ele>
			</trkpt>
			<trkpt lat="50.215865" lon="16.998767">
				<ele>1059.000000</ele>
			</trkpt>
			<trkpt lat="50.215865" lon="16.998767">
				<ele>1059.000000</ele>
			</trkpt>
			<trkpt lat="50.215715" lon="16.998631">
				<ele>1058.000000</ele>
			</trkpt>
			<trkpt lat="50.215600" lon="16.998560">
				<ele>1057.000000</ele>
			</trkpt>
			<trkpt lat="50.215479" lon="16.998497">
				<ele>1056.000000</ele>
			</trkpt>
			<trkpt lat="50.215335" lon="16.998478">
				<ele>1055.000000</ele>
			</trkpt>
			<trkpt lat="50.214985" lon="16.998451">
				<ele>1053.000000</ele>
			</trkpt>
			<trkpt lat="50.214306" lon="16.998407">
				<ele>1048.000000</ele>
			</trkpt>
			<trkpt lat="50.213955" lon="16.998361">
				<ele>1045.000000</ele>
			</trkpt>
			<trkpt lat="50.213933" lon="16.998155">
				<ele>1044.000000</ele>
			</trkpt>
			<trkpt lat="50.213898" lon="16.997562">
				<ele>1042.000000</ele>
			</trkpt>
			<trkpt lat="50.213892" lon="16.997392">
				<ele>1041.000000</ele>
			</trkpt>
			<trkpt lat="50.213904" lon="16.997239">
				<ele>1040.000000</ele>
			</trkpt>
			<trkpt lat="50.213933" lon="16.997069">
				<ele>1039.000000</ele>
			</trkpt>
			<trkpt lat="50.213996" lon="16.996790">
				<ele>1037.000000</ele>
			</trkpt>
			<trkpt lat="50.214013" lon="16.996682">
				<ele>1037.000000</ele>
			</trkpt>
			<trkpt lat="50.214013" lon="16.996583">
				<ele>1036.000000</ele>
			</trkpt>
			<trkpt lat="50.214019" lon="16.996503">
				<ele>1036.000000</ele>
			</trkpt>
			<trkpt lat="50.214002" lon="16.996403">
				<ele>1035.000000</ele>
			</trkpt>
			<trkpt lat="50.213829" lon="16.995497">
				<ele>1029.000000</ele>
			</trkpt>
			<trkpt lat="50.213760" lon="16.995119">
				<ele>1027.000000</ele>
			</trkpt>
			<trkpt lat="50.213703" lon="16.994796">
				<ele>1025.000000</ele>
			</trkpt>
			<trkpt lat="50.213640" lon="16.994463">
				<ele>1024.000000</ele>
			</trkpt>
			<trkpt lat="50.213496" lon="16.993772">
				<ele>1022.000000</ele>
			</trkpt>
			<trkpt lat="50.213450" lon="16.993574">
				<ele>1022.000000</ele>
			</trkpt>
			<trkpt lat="50.213352" lon="16.993206">
				<ele>1021.000000</ele>
			</trkpt>
			<trkpt lat="50.212829" lon="16.992998">
				<ele>1019.000000</ele>
			</trkpt>
			<trkpt lat="50.212657" lon="16.992937">
				<ele>1019.000000</ele>
			</trkpt>
			<trkpt lat="50.212576" lon="16.992891">
				<ele>1018.000000</ele>
			</trkpt>
			<trkpt lat="50.212507" lon="16.992847">
				<ele>1018.000000</ele>
			</trkpt>
			<trkpt lat="50.212444" lon="16.992774">
				<ele>1018.000000</ele>
			</trkpt>
			<trkpt lat="50.212283" lon="16.992585">
				<ele>1018.000000</ele>
			</trkpt>
			<trkpt lat="50.212036" lon="16.992343">
				<ele>1017.000000</ele>
			</trkpt>
			<trkpt lat="50.211846" lon="16.992136">
				<ele>1016.000000</ele>
			</trkpt>
			<trkpt lat="50.211651" lon="16.992002">
				<ele>1016.000000</ele>
			</trkpt>
			<trkpt lat="50.211478" lon="16.991885">
				<ele>1015.000000</ele>
			</trkpt>
			<trkpt lat="50.211363" lon="16.991795">
				<ele>1015.000000</ele>
			</trkpt>
			<trkpt lat="50.211248" lon="16.991679">
				<ele>1015.000000</ele>
			</trkpt>
			<trkpt lat="50.211128" lon="16.991517">
				<ele>1014.000000</ele>
			</trkpt>
			<trkpt lat="50.210817" lon="16.991067">
				<ele>1014.000000</ele>
			</trkpt>
			<trkpt lat="50.210765" lon="16.990987">
				<ele>1013.000000</ele>
			</trkpt>
			<trkpt lat="50.210731" lon="16.990897">
				<ele>1013.000000</ele>
			</trkpt>
			<trkpt lat="50.210593" lon="16.990528">
				<ele>1013.000000</ele>
			</trkpt>
			<trkpt lat="50.210386" lon="16.990520">
				<ele>1011.000000</ele>
			</trkpt>
			<trkpt lat="50.210253" lon="16.990537">
				<ele>1010.000000</ele>
			</trkpt>
			<trkpt lat="50.210190" lon="16.990107">
				<ele>1010.000000</ele>
			</trkpt>
			<trkpt lat="50.210190" lon="16.990035">
				<ele>1010.000000</ele>
			</trkpt>
			<trkpt lat="50.210190" lon="16.989998">
				<ele>1010.000000</ele>
			</trkpt>
			<trkpt lat="50.210190" lon="16.989998">
				<ele>1010.000000</ele>
			</trkpt>
			<trkpt lat="50.210190" lon="16.990035">
				<ele>1010.000000</ele>
			</trkpt>
			<trkpt lat="50.210190" lon="16.990107">
				<ele>1010.000000</ele>
			</trkpt>
			<trkpt lat="50.210253" lon="16.990537">
				<ele>1010.000000</ele>
			</trkpt>
			<trkpt lat="50.210386" lon="16.990520">
				<ele>1011.000000</ele>
			</trkpt>
			<trkpt lat="50.210593" lon="16.990528">
				<ele>1013.000000</ele>
			</trkpt>
			<trkpt lat="50.210731" lon="16.990897">
				<ele>1013.000000</ele>
			</trkpt>
			<trkpt lat="50.210765" lon="16.990987">
				<ele>1013.000000</ele>
			</trkpt>
			<trkpt lat="50.210817" lon="16.991067">
				<ele>1014.000000</ele>
			</trkpt>
			<trkpt lat="50.211128" lon="16.991517">
				<ele>1014.000000</ele>
			</trkpt>
			<trkpt lat="50.211248" lon="16.991679">
				<ele>1015.000000</ele>
			</trkpt>
			<trkpt lat="50.211363" lon="16.991795">
				<ele>1015.000000</ele>
			</trkpt>
			<trkpt lat="50.211478" lon="16.991885">
				<ele>1015.000000</ele>
			</trkpt>
			<trkpt lat="50.211651" lon="16.992002">
				<ele>1016.000000</ele>
			</trkpt>
			<trkpt lat="50.211846" lon="16.992136">
				<ele>1016.000000</ele>
			</trkpt>
			<trkpt lat="50.212036" lon="16.992343">
				<ele>1017.000000</ele>
			</trkpt>
			<trkpt lat="50.212283" lon="16.992585">
				<ele>1018.000000</ele>
			</trkpt>
			<trkpt lat="50.212444" lon="16.992774">
				<ele>1018.000000</ele>
			</trkpt>
			<trkpt lat="50.212507" lon="16.992847">
				<ele>1018.000000</ele>
			</trkpt>
			<trkpt lat="50.212576" lon="16.992891">
				<ele>1018.000000</ele>
			</trkpt>
			<trkpt lat="50.212657" lon="16.992937">
				<ele>1019.000000</ele>
			</trkpt>
			<trkpt lat="50.212829" lon="16.992998">
				<ele>1019.000000</ele>
			</trkpt>
			<trkpt lat="50.213352" lon="16.993206">
				<ele>1021.000000</ele>
			</trkpt>
			<trkpt lat="50.213450" lon="16.993574">
				<ele>1022.000000</ele>
			</trkpt>
			<trkpt lat="50.213525" lon="16.993619">
				<ele>1022.000000</ele>
			</trkpt>
			<trkpt lat="50.213588" lon="16.993637">
				<ele>1022.000000</ele>
			</trkpt>
			<trkpt lat="50.213662" lon="16.993637">
				<ele>1022.000000</ele>
			</trkpt>
			<trkpt lat="50.213749" lon="16.993646">
				<ele>1022.000000</ele>
			</trkpt>
			<trkpt lat="50.213979" lon="16.993583">
				<ele>1023.000000</ele>
			</trkpt>
			<trkpt lat="50.214048" lon="16.993583">
				<ele>1023.000000</ele>
			</trkpt>
			<trkpt lat="50.214226" lon="16.993619">
				<ele>1023.000000</ele>
			</trkpt>
			<trkpt lat="50.214330" lon="16.993627">
				<ele>1023.000000</ele>
			</trkpt>
			<trkpt lat="50.214560" lon="16.993593">
				<ele>1024.000000</ele>
			</trkpt>
			<trkpt lat="50.214680" lon="16.993583">
				<ele>1024.000000</ele>
			</trkpt>
			<trkpt lat="50.214790" lon="16.993601">
				<ele>1024.000000</ele>
			</trkpt>
			<trkpt lat="50.214910" lon="16.993654">
				<ele>1025.000000</ele>
			</trkpt>
			<trkpt lat="50.215232" lon="16.993807">
				<ele>1025.000000</ele>
			</trkpt>
			<trkpt lat="50.215329" lon="16.993826">
				<ele>1025.000000</ele>
			</trkpt>
			<trkpt lat="50.215439" lon="16.993843">
				<ele>1025.000000</ele>
			</trkpt>
			<trkpt lat="50.215531" lon="16.993834">
				<ele>1025.000000</ele>
			</trkpt>
			<trkpt lat="50.215594" lon="16.993807">
				<ele>1025.000000</ele>
			</trkpt>
			<trkpt lat="50.215715" lon="16.993933">
				<ele>1027.000000</ele>
			</trkpt>
			<trkpt lat="50.215749" lon="16.993969">
				<ele>1028.000000</ele>
			</trkpt>
			<trkpt lat="50.215807" lon="16.993996">
				<ele>1028.000000</ele>
			</trkpt>
			<trkpt lat="50.215905" lon="16.994014">
				<ele>1030.000000</ele>
			</trkpt>
			<trkpt lat="50.216082" lon="16.994069">
				<ele>1031.000000</ele>
			</trkpt>
			<trkpt lat="50.216221" lon="16.994069">
				<ele>1031.000000</ele>
			</trkpt>
			<trkpt lat="50.216468" lon="16.994167">
				<ele>1032.000000</ele>
			</trkpt>
			<trkpt lat="50.216640" lon="16.994203">
				<ele>1033.000000</ele>
			</trkpt>
			<trkpt lat="50.216709" lon="16.994212">
				<ele>1033.000000</ele>
			</trkpt>
			<trkpt lat="50.216870" lon="16.994310">
				<ele>1034.000000</ele>
			</trkpt>
			<trkpt lat="50.216951" lon="16.994382">
				<ele>1034.000000</ele>
			</trkpt>
			<trkpt lat="50.217210" lon="16.994517">
				<ele>1035.000000</ele>
			</trkpt>
			<trkpt lat="50.217313" lon="16.994589">
				<ele>1036.000000</ele>
			</trkpt>
			<trkpt lat="50.217439" lon="16.994706">
				<ele>1036.000000</ele>
			</trkpt>
			<trkpt lat="50.217560" lon="16.994859">
				<ele>1037.000000</ele>
			</trkpt>
			<trkpt lat="50.217692" lon="16.995082">
				<ele>1038.000000</ele>
			</trkpt>
			<trkpt lat="50.217853" lon="16.995317">
				<ele>1039.000000</ele>
			</trkpt>
			<trkpt lat="50.217905" lon="16.995398">
				<ele>1039.000000</ele>
			</trkpt>
			<trkpt lat="50.217928" lon="16.995461">
				<ele>1039.000000</ele>
			</trkpt>
			<trkpt lat="50.217974" lon="16.995568">
				<ele>1039.000000</ele>
			</trkpt>
			<trkpt lat="50.218008" lon="16.995640">
				<ele>1040.000000</ele>
			</trkpt>
			<trkpt lat="50.218071" lon="16.995721">
				<ele>1040.000000</ele>
			</trkpt>
			<trkpt lat="50.218175" lon="16.995847">
				<ele>1040.000000</ele>
			</trkpt>
			<trkpt lat="50.218204" lon="16.995874">
				<ele>1041.000000</ele>
			</trkpt>
			<trkpt lat="50.218204" lon="16.995874">
				<ele>1041.000000</ele>
			</trkpt>
			<trkpt lat="50.218227" lon="16.995891">
				<ele>1041.000000</ele>
			</trkpt>
			<trkpt lat="50.218290" lon="16.995918">
				<ele>1041.000000</ele>
			</trkpt>
			<trkpt lat="50.218325" lon="16.995927">
				<ele>1041.000000</ele>
			</trkpt>
			<trkpt lat="50.218462" lon="16.995891">
				<ele>1041.000000</ele>
			</trkpt>
			<trkpt lat="50.218663" lon="16.995801">
				<ele>1041.000000</ele>
			</trkpt>
			<trkpt lat="50.219049" lon="16.995658">
				<ele>1041.000000</ele>
			</trkpt>
			<trkpt lat="50.219141" lon="16.995622">
				<ele>1041.000000</ele>
			</trkpt>
			<trkpt lat="50.219215" lon="16.995587">
				<ele>1041.000000</ele>
			</trkpt>
			<trkpt lat="50.219278" lon="16.995541">
				<ele>1041.000000</ele>
			</trkpt>
			<trkpt lat="50.219359" lon="16.995461">
				<ele>1041.000000</ele>
			</trkpt>
			<trkpt lat="50.219514" lon="16.995298">
				<ele>1040.000000</ele>
			</trkpt>
			<trkpt lat="50.219589" lon="16.995235">
				<ele>1040.000000</ele>
			</trkpt>
			<trkpt lat="50.219681" lon="16.995182">
				<ele>1040.000000</ele>
			</trkpt>
			<trkpt lat="50.219773" lon="16.995155">
				<ele>1040.000000</ele>
			</trkpt>
			<trkpt lat="50.219951" lon="16.995111">
				<ele>1040.000000</ele>
			</trkpt>
			<trkpt lat="50.220106" lon="16.995029">
				<ele>1040.000000</ele>
			</trkpt>
			<trkpt lat="50.220261" lon="16.994814">
				<ele>1040.000000</ele>
			</trkpt>
			<trkpt lat="50.220308" lon="16.994759">
				<ele>1040.000000</ele>
			</trkpt>
			<trkpt lat="50.220371" lon="16.994715">
				<ele>1040.000000</ele>
			</trkpt>
			<trkpt lat="50.220589" lon="16.994589">
				<ele>1040.000000</ele>
			</trkpt>
			<trkpt lat="50.220727" lon="16.994499">
				<ele>1040.000000</ele>
			</trkpt>
			<trkpt lat="50.220825" lon="16.994427">
				<ele>1040.000000</ele>
			</trkpt>
			<trkpt lat="50.220992" lon="16.994382">
				<ele>1040.000000</ele>
			</trkpt>
			<trkpt lat="50.221061" lon="16.994373">
				<ele>1040.000000</ele>
			</trkpt>
			<trkpt lat="50.221198" lon="16.994392">
				<ele>1040.000000</ele>
			</trkpt>
			<trkpt lat="50.221302" lon="16.994409">
				<ele>1040.000000</ele>
			</trkpt>
			<trkpt lat="50.221399" lon="16.994400">
				<ele>1040.000000</ele>
			</trkpt>
			<trkpt lat="50.221629" lon="16.994356">
				<ele>1040.000000</ele>
			</trkpt>
			<trkpt lat="50.221739" lon="16.994338">
				<ele>1040.000000</ele>
			</trkpt>
			<trkpt lat="50.222043" lon="16.994302">
				<ele>1040.000000</ele>
			</trkpt>
			<trkpt lat="50.222176" lon="16.994275">
				<ele>1040.000000</ele>
			</trkpt>
			<trkpt lat="50.222279" lon="16.994283">
				<ele>1040.000000</ele>
			</trkpt>
			<trkpt lat="50.222377" lon="16.994283">
				<ele>1040.000000</ele>
			</trkpt>
			<trkpt lat="50.222503" lon="16.994220">
				<ele>1040.000000</ele>
			</trkpt>
			<trkpt lat="50.222664" lon="16.994167">
				<ele>1040.000000</ele>
			</trkpt>
			<trkpt lat="50.222854" lon="16.994149">
				<ele>1040.000000</ele>
			</trkpt>
			<trkpt lat="50.223187" lon="16.994140">
				<ele>1040.000000</ele>
			</trkpt>
			<trkpt lat="50.223325" lon="16.994113">
				<ele>1040.000000</ele>
			</trkpt>
			<trkpt lat="50.223394" lon="16.994086">
				<ele>1040.000000</ele>
			</trkpt>
			<trkpt lat="50.223469" lon="16.994059">
				<ele>1040.000000</ele>
			</trkpt>
			<trkpt lat="50.223544" lon="16.993996">
				<ele>1040.000000</ele>
			</trkpt>
			<trkpt lat="50.223607" lon="16.993933">
				<ele>1040.000000</ele>
			</trkpt>
			<trkpt lat="50.223652" lon="16.993861">
				<ele>1040.000000</ele>
			</trkpt>
			<trkpt lat="50.223779" lon="16.993610">
				<ele>1040.000000</ele>
			</trkpt>
			<trkpt lat="50.223848" lon="16.993520">
				<ele>1040.000000</ele>
			</trkpt>
			<trkpt lat="50.223929" lon="16.993385">
				<ele>1039.000000</ele>
			</trkpt>
			<trkpt lat="50.223992" lon="16.993314">
				<ele>1038.000000</ele>
			</trkpt>
			<trkpt lat="50.224055" lon="16.993277">
				<ele>1037.000000</ele>
			</trkpt>
			<trkpt lat="50.224141" lon="16.993251">
				<ele>1036.000000</ele>
			</trkpt>
			<trkpt lat="50.224262" lon="16.993260">
				<ele>1034.000000</ele>
			</trkpt>
			<trkpt lat="50.224383" lon="16.993277">
				<ele>1033.000000</ele>
			</trkpt>
			<trkpt lat="50.224526" lon="16.993323">
				<ele>1031.000000</ele>
			</trkpt>
			<trkpt lat="50.224693" lon="16.993331">
				<ele>1029.000000</ele>
			</trkpt>
			<trkpt lat="50.224940" lon="16.993314">
				<ele>1026.000000</ele>
			</trkpt>
			<trkpt lat="50.225038" lon="16.993314">
				<ele>1025.000000</ele>
			</trkpt>
			<trkpt lat="50.225107" lon="16.993304">
				<ele>1024.000000</ele>
			</trkpt>
			<trkpt lat="50.225181" lon="16.993296">
				<ele>1023.000000</ele>
			</trkpt>
			<trkpt lat="50.225233" lon="16.993251">
				<ele>1022.000000</ele>
			</trkpt>
			<trkpt lat="50.225302" lon="16.993170">
				<ele>1021.000000</ele>
			</trkpt>
			<trkpt lat="50.225400" lon="16.993061">
				<ele>1020.000000</ele>
			</trkpt>
			<trkpt lat="50.225509" lon="16.992972">
				<ele>1020.000000</ele>
			</trkpt>
			<trkpt lat="50.225630" lon="16.992891">
				<ele>1020.000000</ele>
			</trkpt>
			<trkpt lat="50.225739" lon="16.992855">
				<ele>1020.000000</ele>
			</trkpt>
			<trkpt lat="50.225968" lon="16.992837">
				<ele>1020.000000</ele>
			</trkpt>
			<trkpt lat="50.226124" lon="16.992784">
				<ele>1020.000000</ele>
			</trkpt>
			<trkpt lat="50.226187" lon="16.992748">
				<ele>1020.000000</ele>
			</trkpt>
			<trkpt lat="50.226250" lon="16.992694">
				<ele>1020.000000</ele>
			</trkpt>
			<trkpt lat="50.226498" lon="16.992469">
				<ele>1020.000000</ele>
			</trkpt>
			<trkpt lat="50.226583" lon="16.992415">
				<ele>1020.000000</ele>
			</trkpt>
			<trkpt lat="50.226744" lon="16.992325">
				<ele>1020.000000</ele>
			</trkpt>
			<trkpt lat="50.226837" lon="16.992245">
				<ele>1020.000000</ele>
			</trkpt>
			<trkpt lat="50.226980" lon="16.992082">
				<ele>1020.000000</ele>
			</trkpt>
			<trkpt lat="50.227159" lon="16.991849">
				<ele>1020.000000</ele>
			</trkpt>
			<trkpt lat="50.227279" lon="16.991696">
				<ele>1020.000000</ele>
			</trkpt>
			<trkpt lat="50.227555" lon="16.991373">
				<ele>1020.000000</ele>
			</trkpt>
			<trkpt lat="50.227681" lon="16.991211">
				<ele>1020.000000</ele>
			</trkpt>
			<trkpt lat="50.227882" lon="16.991023">
				<ele>1020.000000</ele>
			</trkpt>
			<trkpt lat="50.228067" lon="16.990807">
				<ele>1020.000000</ele>
			</trkpt>
			<trkpt lat="50.228250" lon="16.990547">
				<ele>1020.000000</ele>
			</trkpt>
			<trkpt lat="50.228371" lon="16.990358">
				<ele>1020.000000</ele>
			</trkpt>
			<trkpt lat="50.228445" lon="16.990187">
				<ele>1020.000000</ele>
			</trkpt>
			<trkpt lat="50.228509" lon="16.989998">
				<ele>1020.000000</ele>
			</trkpt>
			<trkpt lat="50.228561" lon="16.989845">
				<ele>1020.000000</ele>
			</trkpt>
			<trkpt lat="50.228595" lon="16.989765">
				<ele>1020.000000</ele>
			</trkpt>
			<trkpt lat="50.228641" lon="16.989639">
				<ele>1020.000000</ele>
			</trkpt>
			<trkpt lat="50.228693" lon="16.989432">
				<ele>1020.000000</ele>
			</trkpt>
			<trkpt lat="50.228722" lon="16.989306">
				<ele>1020.000000</ele>
			</trkpt>
			<trkpt lat="50.228767" lon="16.989190">
				<ele>1020.000000</ele>
			</trkpt>
			<trkpt lat="50.228825" lon="16.989100">
				<ele>1020.000000</ele>
			</trkpt>
			<trkpt lat="50.228923" lon="16.988966">
				<ele>1020.000000</ele>
			</trkpt>
			<trkpt lat="50.228997" lon="16.988840">
				<ele>1019.000000</ele>
			</trkpt>
			<trkpt lat="50.229060" lon="16.988769">
				<ele>1019.000000</ele>
			</trkpt>
			<trkpt lat="50.229118" lon="16.988732">
				<ele>1019.000000</ele>
			</trkpt>
			<trkpt lat="50.229192" lon="16.988723">
				<ele>1019.000000</ele>
			</trkpt>
			<trkpt lat="50.229233" lon="16.988706">
				<ele>1019.000000</ele>
			</trkpt>
			<trkpt lat="50.229273" lon="16.988687">
				<ele>1019.000000</ele>
			</trkpt>
			<trkpt lat="50.229371" lon="16.988561">
				<ele>1019.000000</ele>
			</trkpt>
			<trkpt lat="50.229503" lon="16.988409">
				<ele>1018.000000</ele>
			</trkpt>
			<trkpt lat="50.229572" lon="16.988319">
				<ele>1018.000000</ele>
			</trkpt>
			<trkpt lat="50.229658" lon="16.988166">
				<ele>1018.000000</ele>
			</trkpt>
			<trkpt lat="50.229733" lon="16.988014">
				<ele>1018.000000</ele>
			</trkpt>
			<trkpt lat="50.229791" lon="16.987914">
				<ele>1018.000000</ele>
			</trkpt>
			<trkpt lat="50.229854" lon="16.987834">
				<ele>1018.000000</ele>
			</trkpt>
			<trkpt lat="50.229934" lon="16.987744">
				<ele>1018.000000</ele>
			</trkpt>
			<trkpt lat="50.230118" lon="16.987564">
				<ele>1017.000000</ele>
			</trkpt>
			<trkpt lat="50.230267" lon="16.987402">
				<ele>1017.000000</ele>
			</trkpt>
			<trkpt lat="50.230336" lon="16.987322">
				<ele>1017.000000</ele>
			</trkpt>
			<trkpt lat="50.230371" lon="16.987295">
				<ele>1017.000000</ele>
			</trkpt>
			<trkpt lat="50.230371" lon="16.987295">
				<ele>1017.000000</ele>
			</trkpt>
			<trkpt lat="50.230440" lon="16.987232">
				<ele>1017.000000</ele>
			</trkpt>
			<trkpt lat="50.230578" lon="16.987124">
				<ele>1016.000000</ele>
			</trkpt>
			<trkpt lat="50.230813" lon="16.986953">
				<ele>1016.000000</ele>
			</trkpt>
			<trkpt lat="50.230922" lon="16.986845">
				<ele>1016.000000</ele>
			</trkpt>
			<trkpt lat="50.231296" lon="16.986540">
				<ele>1015.000000</ele>
			</trkpt>
			<trkpt lat="50.231698" lon="16.986190">
				<ele>1017.000000</ele>
			</trkpt>
			<trkpt lat="50.231756" lon="16.986136">
				<ele>1017.000000</ele>
			</trkpt>
			<trkpt lat="50.231802" lon="16.986064">
				<ele>1018.000000</ele>
			</trkpt>
			<trkpt lat="50.231893" lon="16.985903">
				<ele>1019.000000</ele>
			</trkpt>
			<trkpt lat="50.232141" lon="16.985408">
				<ele>1021.000000</ele>
			</trkpt>
			<trkpt lat="50.232244" lon="16.985174">
				<ele>1023.000000</ele>
			</trkpt>
			<trkpt lat="50.232347" lon="16.984897">
				<ele>1025.000000</ele>
			</trkpt>
			<trkpt lat="50.232457" lon="16.984564">
				<ele>1027.000000</ele>
			</trkpt>
			<trkpt lat="50.232508" lon="16.984438">
				<ele>1027.000000</ele>
			</trkpt>
			<trkpt lat="50.232577" lon="16.984331">
				<ele>1028.000000</ele>
			</trkpt>
			<trkpt lat="50.232669" lon="16.984169">
				<ele>1029.000000</ele>
			</trkpt>
			<trkpt lat="50.232687" lon="16.984115">
				<ele>1030.000000</ele>
			</trkpt>
			<trkpt lat="50.232704" lon="16.984034">
				<ele>1030.000000</ele>
			</trkpt>
			<trkpt lat="50.232819" lon="16.983351">
				<ele>1032.000000</ele>
			</trkpt>
			<trkpt lat="50.232848" lon="16.983180">
				<ele>1033.000000</ele>
			</trkpt>
			<trkpt lat="50.232882" lon="16.983054">
				<ele>1033.000000</ele>
			</trkpt>
			<trkpt lat="50.232933" lon="16.982947">
				<ele>1033.000000</ele>
			</trkpt>
			<trkpt lat="50.232997" lon="16.982840">
				<ele>1034.000000</ele>
			</trkpt>
			<trkpt lat="50.233031" lon="16.982785">
				<ele>1034.000000</ele>
			</trkpt>
			<trkpt lat="50.233106" lon="16.982731">
				<ele>1034.000000</ele>
			</trkpt>
			<trkpt lat="50.233278" lon="16.982597">
				<ele>1035.000000</ele>
			</trkpt>
			<trkpt lat="50.233382" lon="16.982534">
				<ele>1036.000000</ele>
			</trkpt>
			<trkpt lat="50.233463" lon="16.982488">
				<ele>1036.000000</ele>
			</trkpt>
			<trkpt lat="50.233514" lon="16.982426">
				<ele>1036.000000</ele>
			</trkpt>
			<trkpt lat="50.233583" lon="16.982354">
				<ele>1036.000000</ele>
			</trkpt>
			<trkpt lat="50.233664" lon="16.982219">
				<ele>1037.000000</ele>
			</trkpt>
			<trkpt lat="50.233727" lon="16.982138">
				<ele>1037.000000</ele>
			</trkpt>
			<trkpt lat="50.233772" lon="16.982085">
				<ele>1037.000000</ele>
			</trkpt>
			<trkpt lat="50.233910" lon="16.981977">
				<ele>1038.000000</ele>
			</trkpt>
			<trkpt lat="50.234163" lon="16.981815">
				<ele>1038.000000</ele>
			</trkpt>
			<trkpt lat="50.234238" lon="16.981779">
				<ele>1039.000000</ele>
			</trkpt>
			<trkpt lat="50.234427" lon="16.981618">
				<ele>1039.000000</ele>
			</trkpt>
			<trkpt lat="50.234755" lon="16.981411">
				<ele>1041.000000</ele>
			</trkpt>
			<trkpt lat="50.235077" lon="16.981195">
				<ele>1043.000000</ele>
			</trkpt>
			<trkpt lat="50.235272" lon="16.981096">
				<ele>1045.000000</ele>
			</trkpt>
			<trkpt lat="50.235358" lon="16.981025">
				<ele>1045.000000</ele>
			</trkpt>
			<trkpt lat="50.235543" lon="16.980863">
				<ele>1047.000000</ele>
			</trkpt>
			<trkpt lat="50.235657" lon="16.980746">
				<ele>1048.000000</ele>
			</trkpt>
			<trkpt lat="50.235761" lon="16.980639">
				<ele>1049.000000</ele>
			</trkpt>
			<trkpt lat="50.235812" lon="16.980584">
				<ele>1050.000000</ele>
			</trkpt>
			<trkpt lat="50.235870" lon="16.980557">
				<ele>1050.000000</ele>
			</trkpt>
			<trkpt lat="50.235933" lon="16.980549">
				<ele>1051.000000</ele>
			</trkpt>
			<trkpt lat="50.236031" lon="16.980549">
				<ele>1052.000000</ele>
			</trkpt>
			<trkpt lat="50.236163" lon="16.980611">
				<ele>1053.000000</ele>
			</trkpt>
			<trkpt lat="50.236514" lon="16.980782">
				<ele>1057.000000</ele>
			</trkpt>
			<trkpt lat="50.236760" lon="16.980899">
				<ele>1059.000000</ele>
			</trkpt>
			<trkpt lat="50.236841" lon="16.980935">
				<ele>1059.000000</ele>
			</trkpt>
			<trkpt lat="50.236979" lon="16.980970">
				<ele>1060.000000</ele>
			</trkpt>
			<trkpt lat="50.237042" lon="16.980997">
				<ele>1061.000000</ele>
			</trkpt>
			<trkpt lat="50.237145" lon="16.981033">
				<ele>1062.000000</ele>
			</trkpt>
			<trkpt lat="50.237243" lon="16.981033">
				<ele>1063.000000</ele>
			</trkpt>
			<trkpt lat="50.237306" lon="16.981025">
				<ele>1063.000000</ele>
			</trkpt>
			<trkpt lat="50.237387" lon="16.981042">
				<ele>1064.000000</ele>
			</trkpt>
			<trkpt lat="50.237570" lon="16.981079">
				<ele>1066.000000</ele>
			</trkpt>
			<trkpt lat="50.237714" lon="16.981052">
				<ele>1068.000000</ele>
			</trkpt>
			<trkpt lat="50.237892" lon="16.981033">
				<ele>1070.000000</ele>
			</trkpt>
			<trkpt lat="50.238013" lon="16.981025">
				<ele>1070.000000</ele>
			</trkpt>
			<trkpt lat="50.238071" lon="16.981025">
				<ele>1071.000000</ele>
			</trkpt>
			<trkpt lat="50.238134" lon="16.981016">
				<ele>1071.000000</ele>
			</trkpt>
			<trkpt lat="50.238191" lon="16.980989">
				<ele>1071.000000</ele>
			</trkpt>
			<trkpt lat="50.238266" lon="16.980953">
				<ele>1071.000000</ele>
			</trkpt>
			<trkpt lat="50.238364" lon="16.980872">
				<ele>1071.000000</ele>
			</trkpt>
			<trkpt lat="50.238444" lon="16.980863">
				<ele>1071.000000</ele>
			</trkpt>
			<trkpt lat="50.238616" lon="16.980836">
				<ele>1072.000000</ele>
			</trkpt>
			<trkpt lat="50.238835" lon="16.980819">
				<ele>1072.000000</ele>
			</trkpt>
			<trkpt lat="50.238984" lon="16.980800">
				<ele>1073.000000</ele>
			</trkpt>
			<trkpt lat="50.239048" lon="16.980800">
				<ele>1073.000000</ele>
			</trkpt>
			<trkpt lat="50.239185" lon="16.980845">
				<ele>1073.000000</ele>
			</trkpt>
			<trkpt lat="50.239300" lon="16.980872">
				<ele>1073.000000</ele>
			</trkpt>
			<trkpt lat="50.239381" lon="16.980872">
				<ele>1073.000000</ele>
			</trkpt>
			<trkpt lat="50.239461" lon="16.980845">
				<ele>1074.000000</ele>
			</trkpt>
			<trkpt lat="50.239559" lon="16.980819">
				<ele>1074.000000</ele>
			</trkpt>
			<trkpt lat="50.239708" lon="16.980746">
				<ele>1074.000000</ele>
			</trkpt>
			<trkpt lat="50.239794" lon="16.980710">
				<ele>1074.000000</ele>
			</trkpt>
			<trkpt lat="50.239949" lon="16.980683">
				<ele>1075.000000</ele>
			</trkpt>
			<trkpt lat="50.240047" lon="16.980674">
				<ele>1075.000000</ele>
			</trkpt>
			<trkpt lat="50.240156" lon="16.980710">
				<ele>1075.000000</ele>
			</trkpt>
			<trkpt lat="50.240231" lon="16.980710">
				<ele>1075.000000</ele>
			</trkpt>
			<trkpt lat="50.240317" lon="16.980683">
				<ele>1075.000000</ele>
			</trkpt>
			<trkpt lat="50.240484" lon="16.980611">
				<ele>1075.000000</ele>
			</trkpt>
			<trkpt lat="50.240593" lon="16.980530">
				<ele>1074.000000</ele>
			</trkpt>
			<trkpt lat="50.240811" lon="16.980369">
				<ele>1074.000000</ele>
			</trkpt>
			<trkpt lat="50.241012" lon="16.980180">
				<ele>1074.000000</ele>
			</trkpt>
			<trkpt lat="50.241093" lon="16.980117">
				<ele>1074.000000</ele>
			</trkpt>
			<trkpt lat="50.241127" lon="16.980100">
				<ele>1074.000000</ele>
			</trkpt>
			<trkpt lat="50.241173" lon="16.980108">
				<ele>1074.000000</ele>
			</trkpt>
			<trkpt lat="50.241294" lon="16.980127">
				<ele>1074.000000</ele>
			</trkpt>
			<trkpt lat="50.241368" lon="16.980180">
				<ele>1073.000000</ele>
			</trkpt>
			<trkpt lat="50.241489" lon="16.980270">
				<ele>1073.000000</ele>
			</trkpt>
			<trkpt lat="50.241592" lon="16.980314">
				<ele>1073.000000</ele>
			</trkpt>
			<trkpt lat="50.241650" lon="16.980333">
				<ele>1073.000000</ele>
			</trkpt>
			<trkpt lat="50.241690" lon="16.980324">
				<ele>1073.000000</ele>
			</trkpt>
			<trkpt lat="50.241736" lon="16.980297">
				<ele>1073.000000</ele>
			</trkpt>
			<trkpt lat="50.241811" lon="16.980243">
				<ele>1073.000000</ele>
			</trkpt>
			<trkpt lat="50.241983" lon="16.980153">
				<ele>1074.000000</ele>
			</trkpt>
			<trkpt lat="50.242046" lon="16.980100">
				<ele>1074.000000</ele>
			</trkpt>
			<trkpt lat="50.242138" lon="16.980027">
				<ele>1075.000000</ele>
			</trkpt>
			<trkpt lat="50.242265" lon="16.979983">
				<ele>1077.000000</ele>
			</trkpt>
			<trkpt lat="50.242345" lon="16.979928">
				<ele>1078.000000</ele>
			</trkpt>
			<trkpt lat="50.242431" lon="16.979866">
				<ele>1079.000000</ele>
			</trkpt>
			<trkpt lat="50.242494" lon="16.979794">
				<ele>1080.000000</ele>
			</trkpt>
			<trkpt lat="50.242540" lon="16.979767">
				<ele>1080.000000</ele>
			</trkpt>
			<trkpt lat="50.242603" lon="16.979731">
				<ele>1081.000000</ele>
			</trkpt>
			<trkpt lat="50.242655" lon="16.979658">
				<ele>1082.000000</ele>
			</trkpt>
			<trkpt lat="50.242822" lon="16.979425">
				<ele>1084.000000</ele>
			</trkpt>
			<trkpt lat="50.243023" lon="16.979129">
				<ele>1088.000000</ele>
			</trkpt>
			<trkpt lat="50.243075" lon="16.979048">
				<ele>1089.000000</ele>
			</trkpt>
			<trkpt lat="50.243120" lon="16.978941">
				<ele>1090.000000</ele>
			</trkpt>
			<trkpt lat="50.243138" lon="16.978895">
				<ele>1090.000000</ele>
			</trkpt>
			<trkpt lat="50.243218" lon="16.978761">
				<ele>1091.000000</ele>
			</trkpt>
			<trkpt lat="50.243454" lon="16.978266">
				<ele>1096.000000</ele>
			</trkpt>
			<trkpt lat="50.243471" lon="16.978222">
				<ele>1096.000000</ele>
			</trkpt>
			<trkpt lat="50.243511" lon="16.978177">
				<ele>1096.000000</ele>
			</trkpt>
			<trkpt lat="50.243609" lon="16.978105">
				<ele>1097.000000</ele>
			</trkpt>
			<trkpt lat="50.243867" lon="16.977863">
				<ele>1099.000000</ele>
			</trkpt>
			<trkpt lat="50.244046" lon="16.977754">
				<ele>1100.000000</ele>
			</trkpt>
			<trkpt lat="50.244091" lon="16.977727">
				<ele>1100.000000</ele>
			</trkpt>
			<trkpt lat="50.244149" lon="16.977719">
				<ele>1100.000000</ele>
			</trkpt>
			<trkpt lat="50.244299" lon="16.977683">
				<ele>1099.000000</ele>
			</trkpt>
			<trkpt lat="50.244344" lon="16.977656">
				<ele>1099.000000</ele>
			</trkpt>
			<trkpt lat="50.244402" lon="16.977603">
				<ele>1099.000000</ele>
			</trkpt>
			<trkpt lat="50.244539" lon="16.977413">
				<ele>1099.000000</ele>
			</trkpt>
			<trkpt lat="50.244649" lon="16.977207">
				<ele>1098.000000</ele>
			</trkpt>
			<trkpt lat="50.244724" lon="16.977027">
				<ele>1098.000000</ele>
			</trkpt>
			<trkpt lat="50.244775" lon="16.976829">
				<ele>1098.000000</ele>
			</trkpt>
			<trkpt lat="50.244821" lon="16.976668">
				<ele>1098.000000</ele>
			</trkpt>
			<trkpt lat="50.244832" lon="16.976506">
				<ele>1097.000000</ele>
			</trkpt>
			<trkpt lat="50.244844" lon="16.976398">
				<ele>1097.000000</ele>
			</trkpt>
			<trkpt lat="50.244861" lon="16.976291">
				<ele>1097.000000</ele>
			</trkpt>
			<trkpt lat="50.244867" lon="16.976228">
				<ele>1097.000000</ele>
			</trkpt>
			<trkpt lat="50.244856" lon="16.976192">
				<ele>1097.000000</ele>
			</trkpt>
			<trkpt lat="50.244856" lon="16.976209">
				<ele>1104.000000</ele>
			</trkpt>
			<trkpt lat="50.244999" lon="16.975913">
				<ele>1103.000000</ele>
			</trkpt>
			<trkpt lat="50.244999" lon="16.975913">
				<ele>1103.000000</ele>
			</trkpt>
			<trkpt lat="50.244856" lon="16.976209">
				<ele>1104.000000</ele>
			</trkpt>
			<trkpt lat="50.244856" lon="16.976192">
				<ele>1097.000000</ele>
			</trkpt>
			<trkpt lat="50.244867" lon="16.976228">
				<ele>1097.000000</ele>
			</trkpt>
			<trkpt lat="50.244861" lon="16.976291">
				<ele>1097.000000</ele>
			</trkpt>
			<trkpt lat="50.244844" lon="16.976398">
				<ele>1097.000000</ele>
			</trkpt>
			<trkpt lat="50.244832" lon="16.976506">
				<ele>1097.000000</ele>
			</trkpt>
			<trkpt lat="50.244821" lon="16.976668">
				<ele>1098.000000</ele>
			</trkpt>
			<trkpt lat="50.244775" lon="16.976829">
				<ele>1098.000000</ele>
			</trkpt>
			<trkpt lat="50.244724" lon="16.977027">
				<ele>1098.000000</ele>
			</trkpt>
			<trkpt lat="50.244649" lon="16.977207">
				<ele>1098.000000</ele>
			</trkpt>
			<trkpt lat="50.244539" lon="16.977413">
				<ele>1099.000000</ele>
			</trkpt>
			<trkpt lat="50.244402" lon="16.977603">
				<ele>1099.000000</ele>
			</trkpt>
			<trkpt lat="50.244344" lon="16.977656">
				<ele>1099.000000</ele>
			</trkpt>
			<trkpt lat="50.244299" lon="16.977683">
				<ele>1099.000000</ele>
			</trkpt>
			<trkpt lat="50.244149" lon="16.977719">
				<ele>1100.000000</ele>
			</trkpt>
			<trkpt lat="50.244091" lon="16.977727">
				<ele>1100.000000</ele>
			</trkpt>
			<trkpt lat="50.244046" lon="16.977754">
				<ele>1100.000000</ele>
			</trkpt>
			<trkpt lat="50.243867" lon="16.977863">
				<ele>1099.000000</ele>
			</trkpt>
			<trkpt lat="50.243609" lon="16.978105">
				<ele>1097.000000</ele>
			</trkpt>
			<trkpt lat="50.243511" lon="16.978177">
				<ele>1096.000000</ele>
			</trkpt>
			<trkpt lat="50.243471" lon="16.978222">
				<ele>1096.000000</ele>
			</trkpt>
			<trkpt lat="50.243454" lon="16.978266">
				<ele>1096.000000</ele>
			</trkpt>
			<trkpt lat="50.243218" lon="16.978761">
				<ele>1091.000000</ele>
			</trkpt>
			<trkpt lat="50.243138" lon="16.978895">
				<ele>1090.000000</ele>
			</trkpt>
			<trkpt lat="50.243120" lon="16.978941">
				<ele>1090.000000</ele>
			</trkpt>
			<trkpt lat="50.243075" lon="16.979048">
				<ele>1089.000000</ele>
			</trkpt>
			<trkpt lat="50.243023" lon="16.979129">
				<ele>1088.000000</ele>
			</trkpt>
			<trkpt lat="50.242822" lon="16.979425">
				<ele>1084.000000</ele>
			</trkpt>
			<trkpt lat="50.242655" lon="16.979658">
				<ele>1082.000000</ele>
			</trkpt>
			<trkpt lat="50.242603" lon="16.979731">
				<ele>1081.000000</ele>
			</trkpt>
			<trkpt lat="50.242540" lon="16.979767">
				<ele>1080.000000</ele>
			</trkpt>
			<trkpt lat="50.242494" lon="16.979794">
				<ele>1080.000000</ele>
			</trkpt>
			<trkpt lat="50.242431" lon="16.979866">
				<ele>1079.000000</ele>
			</trkpt>
			<trkpt lat="50.242345" lon="16.979928">
				<ele>1078.000000</ele>
			</trkpt>
			<trkpt lat="50.242265" lon="16.979983">
				<ele>1077.000000</ele>
			</trkpt>
			<trkpt lat="50.242138" lon="16.980027">
				<ele>1075.000000</ele>
			</trkpt>
			<trkpt lat="50.242046" lon="16.980100">
				<ele>1074.000000</ele>
			</trkpt>
			<trkpt lat="50.241983" lon="16.980153">
				<ele>1074.000000</ele>
			</trkpt>
			<trkpt lat="50.241811" lon="16.980243">
				<ele>1073.000000</ele>
			</trkpt>
			<trkpt lat="50.241736" lon="16.980297">
				<ele>1073.000000</ele>
			</trkpt>
			<trkpt lat="50.241690" lon="16.980324">
				<ele>1073.000000</ele>
			</trkpt>
			<trkpt lat="50.241650" lon="16.980333">
				<ele>1073.000000</ele>
			</trkpt>
			<trkpt lat="50.241592" lon="16.980314">
				<ele>1073.000000</ele>
			</trkpt>
			<trkpt lat="50.241489" lon="16.980270">
				<ele>1073.000000</ele>
			</trkpt>
			<trkpt lat="50.241368" lon="16.980180">
				<ele>1073.000000</ele>
			</trkpt>
			<trkpt lat="50.241294" lon="16.980127">
				<ele>1074.000000</ele>
			</trkpt>
			<trkpt lat="50.241173" lon="16.980108">
				<ele>1074.000000</ele>
			</trkpt>
			<trkpt lat="50.241127" lon="16.980100">
				<ele>1074.000000</ele>
			</trkpt>
			<trkpt lat="50.241093" lon="16.980117">
				<ele>1074.000000</ele>
			</trkpt>
			<trkpt lat="50.241012" lon="16.980180">
				<ele>1074.000000</ele>
			</trkpt>
			<trkpt lat="50.240811" lon="16.980369">
				<ele>1074.000000</ele>
			</trkpt>
			<trkpt lat="50.240593" lon="16.980530">
				<ele>1074.000000</ele>
			</trkpt>
			<trkpt lat="50.240484" lon="16.980611">
				<ele>1075.000000</ele>
			</trkpt>
			<trkpt lat="50.240317" lon="16.980683">
				<ele>1075.000000</ele>
			</trkpt>
			<trkpt lat="50.240231" lon="16.980710">
				<ele>1075.000000</ele>
			</trkpt>
			<trkpt lat="50.240156" lon="16.980710">
				<ele>1075.000000</ele>
			</trkpt>
			<trkpt lat="50.240047" lon="16.980674">
				<ele>1075.000000</ele>
			</trkpt>
			<trkpt lat="50.239949" lon="16.980683">
				<ele>1075.000000</ele>
			</trkpt>
			<trkpt lat="50.239794" lon="16.980710">
				<ele>1074.000000</ele>
			</trkpt>
			<trkpt lat="50.239708" lon="16.980746">
				<ele>1074.000000</ele>
			</trkpt>
			<trkpt lat="50.239559" lon="16.980819">
				<ele>1074.000000</ele>
			</trkpt>
			<trkpt lat="50.239461" lon="16.980845">
				<ele>1074.000000</ele>
			</trkpt>
			<trkpt lat="50.239381" lon="16.980872">
				<ele>1073.000000</ele>
			</trkpt>
			<trkpt lat="50.239300" lon="16.980872">
				<ele>1073.000000</ele>
			</trkpt>
			<trkpt lat="50.239185" lon="16.980845">
				<ele>1073.000000</ele>
			</trkpt>
			<trkpt lat="50.239048" lon="16.980800">
				<ele>1073.000000</ele>
			</trkpt>
			<trkpt lat="50.238984" lon="16.980800">
				<ele>1073.000000</ele>
			</trkpt>
			<trkpt lat="50.238835" lon="16.980819">
				<ele>1072.000000</ele>
			</trkpt>
			<trkpt lat="50.238616" lon="16.980836">
				<ele>1072.000000</ele>
			</trkpt>
			<trkpt lat="50.238651" lon="16.980836">
				<ele>1074.000000</ele>
			</trkpt>
			<trkpt lat="50.238674" lon="16.980943">
				<ele>1074.000000</ele>
			</trkpt>
			<trkpt lat="50.238674" lon="16.981132">
				<ele>1073.000000</ele>
			</trkpt>
			<trkpt lat="50.238748" lon="16.981429">
				<ele>1073.000000</ele>
			</trkpt>
			<trkpt lat="50.238789" lon="16.981635">
				<ele>1073.000000</ele>
			</trkpt>
			<trkpt lat="50.238789" lon="16.981788">
				<ele>1072.000000</ele>
			</trkpt>
			<trkpt lat="50.238863" lon="16.982048">
				<ele>1072.000000</ele>
			</trkpt>
			<trkpt lat="50.238921" lon="16.982345">
				<ele>1072.000000</ele>
			</trkpt>
			<trkpt lat="50.238944" lon="16.982524">
				<ele>1071.000000</ele>
			</trkpt>
			<trkpt lat="50.238944" lon="16.982830">
				<ele>1071.000000</ele>
			</trkpt>
			<trkpt lat="50.238955" lon="16.982983">
				<ele>1071.000000</ele>
			</trkpt>
			<trkpt lat="50.239019" lon="16.983279">
				<ele>1070.000000</ele>
			</trkpt>
			<trkpt lat="50.239059" lon="16.983503">
				<ele>1069.000000</ele>
			</trkpt>
			<trkpt lat="50.239082" lon="16.983692">
				<ele>1068.000000</ele>
			</trkpt>
			<trkpt lat="50.239196" lon="16.984052">
				<ele>1066.000000</ele>
			</trkpt>
			<trkpt lat="50.239265" lon="16.984268">
				<ele>1065.000000</ele>
			</trkpt>
			<trkpt lat="50.239300" lon="16.984421">
				<ele>1064.000000</ele>
			</trkpt>
			<trkpt lat="50.239346" lon="16.984681">
				<ele>1063.000000</ele>
			</trkpt>
			<trkpt lat="50.239461" lon="16.984950">
				<ele>1062.000000</ele>
			</trkpt>
			<trkpt lat="50.239565" lon="16.985103">
				<ele>1060.000000</ele>
			</trkpt>
			<trkpt lat="50.239713" lon="16.985264">
				<ele>1059.000000</ele>
			</trkpt>
			<trkpt lat="50.239903" lon="16.985534">
				<ele>1056.000000</ele>
			</trkpt>
			<trkpt lat="50.240064" lon="16.985677">
				<ele>1054.000000</ele>
			</trkpt>
			<trkpt lat="50.240127" lon="16.985759">
				<ele>1053.000000</ele>
			</trkpt>
			<trkpt lat="50.240392" lon="16.986153">
				<ele>1049.000000</ele>
			</trkpt>
			<trkpt lat="50.240684" lon="16.986549">
				<ele>1044.000000</ele>
			</trkpt>
			<trkpt lat="50.240811" lon="16.986792">
				<ele>1042.000000</ele>
			</trkpt>
			<trkpt lat="50.241046" lon="16.987079">
				<ele>1039.000000</ele>
			</trkpt>
			<trkpt lat="50.241179" lon="16.987385">
				<ele>1038.000000</ele>
			</trkpt>
			<trkpt lat="50.241288" lon="16.987564">
				<ele>1038.000000</ele>
			</trkpt>
			<trkpt lat="50.241518" lon="16.987788">
				<ele>1037.000000</ele>
			</trkpt>
			<trkpt lat="50.241673" lon="16.988050">
				<ele>1036.000000</ele>
			</trkpt>
			<trkpt lat="50.241885" lon="16.988292">
				<ele>1035.000000</ele>
			</trkpt>
			<trkpt lat="50.242029" lon="16.988534">
				<ele>1034.000000</ele>
			</trkpt>
			<trkpt lat="50.242127" lon="16.988660">
				<ele>1034.000000</ele>
			</trkpt>
			<trkpt lat="50.242345" lon="16.988840">
				<ele>1033.000000</ele>
			</trkpt>
			<trkpt lat="50.242644" lon="16.989029">
				<ele>1032.000000</ele>
			</trkpt>
			<trkpt lat="50.242983" lon="16.989325">
				<ele>1030.000000</ele>
			</trkpt>
			<trkpt lat="50.243080" lon="16.989451">
				<ele>1029.000000</ele>
			</trkpt>
			<trkpt lat="50.243167" lon="16.989648">
				<ele>1028.000000</ele>
			</trkpt>
			<trkpt lat="50.243212" lon="16.989900">
				<ele>1026.000000</ele>
			</trkpt>
			<trkpt lat="50.243299" lon="16.990124">
				<ele>1025.000000</ele>
			</trkpt>
			<trkpt lat="50.243362" lon="16.990457">
				<ele>1023.000000</ele>
			</trkpt>
			<trkpt lat="50.243529" lon="16.990888">
				<ele>1020.000000</ele>
			</trkpt>
			<trkpt lat="50.243546" lon="16.991067">
				<ele>1020.000000</ele>
			</trkpt>
			<trkpt lat="50.243574" lon="16.991184">
				<ele>1020.000000</ele>
			</trkpt>
			<trkpt lat="50.243644" lon="16.991373">
				<ele>1020.000000</ele>
			</trkpt>
			<trkpt lat="50.243787" lon="16.991625">
				<ele>1020.000000</ele>
			</trkpt>
			<trkpt lat="50.244057" lon="16.992065">
				<ele>1020.000000</ele>
			</trkpt>
			<trkpt lat="50.244114" lon="16.992172">
				<ele>1020.000000</ele>
			</trkpt>
			<trkpt lat="50.244138" lon="16.992308">
				<ele>1020.000000</ele>
			</trkpt>
			<trkpt lat="50.244201" lon="16.992398">
				<ele>1020.000000</ele>
			</trkpt>
			<trkpt lat="50.244384" lon="16.992550">
				<ele>1020.000000</ele>
			</trkpt>
			<trkpt lat="50.244539" lon="16.992667">
				<ele>1020.000000</ele>
			</trkpt>
			<trkpt lat="50.244643" lon="16.992694">
				<ele>1020.000000</ele>
			</trkpt>
			<trkpt lat="50.244775" lon="16.992721">
				<ele>1020.000000</ele>
			</trkpt>
			<trkpt lat="50.244867" lon="16.992792">
				<ele>1019.000000</ele>
			</trkpt>
			<trkpt lat="50.245005" lon="16.992882">
				<ele>1017.000000</ele>
			</trkpt>
			<trkpt lat="50.245109" lon="16.992874">
				<ele>1016.000000</ele>
			</trkpt>
			<trkpt lat="50.245229" lon="16.992837">
				<ele>1014.000000</ele>
			</trkpt>
			<trkpt lat="50.245298" lon="16.992784">
				<ele>1014.000000</ele>
			</trkpt>
			<trkpt lat="50.245396" lon="16.992748">
				<ele>1012.000000</ele>
			</trkpt>
			<trkpt lat="50.245505" lon="16.992685">
				<ele>1011.000000</ele>
			</trkpt>
			<trkpt lat="50.245642" lon="16.992532">
				<ele>1008.000000</ele>
			</trkpt>
			<trkpt lat="50.245890" lon="16.992289">
				<ele>1003.000000</ele>
			</trkpt>
			<trkpt lat="50.246096" lon="16.992046">
				<ele>997.000000</ele>
			</trkpt>
			<trkpt lat="50.246235" lon="16.991876">
				<ele>994.000000</ele>
			</trkpt>
			<trkpt lat="50.246320" lon="16.991805">
				<ele>992.000000</ele>
			</trkpt>
			<trkpt lat="50.246383" lon="16.991750">
				<ele>990.000000</ele>
			</trkpt>
			<trkpt lat="50.246459" lon="16.991715">
				<ele>988.000000</ele>
			</trkpt>
			<trkpt lat="50.246608" lon="16.991598">
				<ele>981.000000</ele>
			</trkpt>
			<trkpt lat="50.246843" lon="16.991453">
				<ele>980.000000</ele>
			</trkpt>
			<trkpt lat="50.246975" lon="16.991409">
				<ele>979.000000</ele>
			</trkpt>
			<trkpt lat="50.247073" lon="16.991382">
				<ele>977.000000</ele>
			</trkpt>
			<trkpt lat="50.247228" lon="16.991329">
				<ele>974.000000</ele>
			</trkpt>
			<trkpt lat="50.247395" lon="16.991319">
				<ele>970.000000</ele>
			</trkpt>
			<trkpt lat="50.247550" lon="16.991390">
				<ele>966.000000</ele>
			</trkpt>
			<trkpt lat="50.247642" lon="16.991453">
				<ele>963.000000</ele>
			</trkpt>
			<trkpt lat="50.247705" lon="16.991526">
				<ele>961.000000</ele>
			</trkpt>
			<trkpt lat="50.247779" lon="16.991732">
				<ele>957.000000</ele>
			</trkpt>
			<trkpt lat="50.247797" lon="16.992002">
				<ele>951.000000</ele>
			</trkpt>
			<trkpt lat="50.247774" lon="16.992209">
				<ele>947.000000</ele>
			</trkpt>
			<trkpt lat="50.247797" lon="16.992371">
				<ele>944.000000</ele>
			</trkpt>
			<trkpt lat="50.247883" lon="16.992612">
				<ele>939.000000</ele>
			</trkpt>
			<trkpt lat="50.247963" lon="16.992811">
				<ele>936.000000</ele>
			</trkpt>
			<trkpt lat="50.248044" lon="16.992954">
				<ele>933.000000</ele>
			</trkpt>
			<trkpt lat="50.248119" lon="16.993035">
				<ele>931.000000</ele>
			</trkpt>
			<trkpt lat="50.248205" lon="16.993080">
				<ele>929.000000</ele>
			</trkpt>
			<trkpt lat="50.248296" lon="16.993080">
				<ele>927.000000</ele>
			</trkpt>
			<trkpt lat="50.248417" lon="16.993053">
				<ele>925.000000</ele>
			</trkpt>
			<trkpt lat="50.248544" lon="16.993008">
				<ele>922.000000</ele>
			</trkpt>
			<trkpt lat="50.248670" lon="16.992990">
				<ele>919.000000</ele>
			</trkpt>
			<trkpt lat="50.248785" lon="16.993008">
				<ele>916.000000</ele>
			</trkpt>
			<trkpt lat="50.248917" lon="16.993124">
				<ele>913.000000</ele>
			</trkpt>
			<trkpt lat="50.248940" lon="16.993061">
				<ele>912.000000</ele>
			</trkpt>
			<trkpt lat="50.249089" lon="16.993178">
				<ele>908.000000</ele>
			</trkpt>
			<trkpt lat="50.249187" lon="16.993268">
				<ele>906.000000</ele>
			</trkpt>
			<trkpt lat="50.249319" lon="16.993367">
				<ele>902.000000</ele>
			</trkpt>
			<trkpt lat="50.249497" lon="16.993457">
				<ele>898.000000</ele>
			</trkpt>
			<trkpt lat="50.249646" lon="16.993538">
				<ele>895.000000</ele>
			</trkpt>
			<trkpt lat="50.249819" lon="16.993664">
				<ele>891.000000</ele>
			</trkpt>
			<trkpt lat="50.249986" lon="16.993826">
				<ele>887.000000</ele>
			</trkpt>
			<trkpt lat="50.250026" lon="16.993897">
				<ele>886.000000</ele>
			</trkpt>
			<trkpt lat="50.250077" lon="16.993987">
				<ele>885.000000</ele>
			</trkpt>
			<trkpt lat="50.250129" lon="16.994103">
				<ele>884.000000</ele>
			</trkpt>
			<trkpt lat="50.250221" lon="16.994275">
				<ele>882.000000</ele>
			</trkpt>
			<trkpt lat="50.250427" lon="16.994499">
				<ele>877.000000</ele>
			</trkpt>
			<trkpt lat="50.250968" lon="16.994868">
				<ele>866.000000</ele>
			</trkpt>
			<trkpt lat="50.251008" lon="16.994895">
				<ele>865.000000</ele>
			</trkpt>
			<trkpt lat="50.251284" lon="16.994958">
				<ele>859.000000</ele>
			</trkpt>
			<trkpt lat="50.251622" lon="16.995056">
				<ele>850.000000</ele>
			</trkpt>
			<trkpt lat="50.251737" lon="16.995092">
				<ele>848.000000</ele>
			</trkpt>
			<trkpt lat="50.251864" lon="16.995172">
				<ele>845.000000</ele>
			</trkpt>
			<trkpt lat="50.252019" lon="16.995201">
				<ele>843.000000</ele>
			</trkpt>
			<trkpt lat="50.252117" lon="16.995245">
				<ele>841.000000</ele>
			</trkpt>
			<trkpt lat="50.252226" lon="16.995335">
				<ele>838.000000</ele>
			</trkpt>
			<trkpt lat="50.252386" lon="16.995497">
				<ele>834.000000</ele>
			</trkpt>
			<trkpt lat="50.252553" lon="16.995703">
				<ele>829.000000</ele>
			</trkpt>
			<trkpt lat="50.252639" lon="16.995721">
				<ele>826.000000</ele>
			</trkpt>
			<trkpt lat="50.252829" lon="16.995711">
				<ele>821.000000</ele>
			</trkpt>
			<trkpt lat="50.253059" lon="16.995721">
				<ele>814.000000</ele>
			</trkpt>
			<trkpt lat="50.253202" lon="16.995757">
				<ele>809.000000</ele>
			</trkpt>
			<trkpt lat="50.253346" lon="16.995838">
				<ele>805.000000</ele>
			</trkpt>
			<trkpt lat="50.253576" lon="16.996080">
				<ele>798.000000</ele>
			</trkpt>
			<trkpt lat="50.253828" lon="16.996440">
				<ele>790.000000</ele>
			</trkpt>
			<trkpt lat="50.253943" lon="16.996637">
				<ele>786.000000</ele>
			</trkpt>
			<trkpt lat="50.254156" lon="16.996709">
				<ele>782.000000</ele>
			</trkpt>
			<trkpt lat="50.254270" lon="16.996727">
				<ele>780.000000</ele>
			</trkpt>
			<trkpt lat="50.254345" lon="16.996772">
				<ele>780.000000</ele>
			</trkpt>
			<trkpt lat="50.254431" lon="16.996862">
				<ele>779.000000</ele>
			</trkpt>
			<trkpt lat="50.254431" lon="16.996862">
				<ele>779.000000</ele>
			</trkpt>
			<trkpt lat="50.254448" lon="16.996880">
				<ele>779.000000</ele>
			</trkpt>
			<trkpt lat="50.254569" lon="16.996637">
				<ele>778.000000</ele>
			</trkpt>
			<trkpt lat="50.254770" lon="16.996125">
				<ele>776.000000</ele>
			</trkpt>
			<trkpt lat="50.255109" lon="16.995595">
				<ele>774.000000</ele>
			</trkpt>
			<trkpt lat="50.255437" lon="16.995128">
				<ele>772.000000</ele>
			</trkpt>
			<trkpt lat="50.255585" lon="16.994841">
				<ele>771.000000</ele>
			</trkpt>
			<trkpt lat="50.255638" lon="16.994652">
				<ele>771.000000</ele>
			</trkpt>
			<trkpt lat="50.255666" lon="16.994346">
				<ele>770.000000</ele>
			</trkpt>
			<trkpt lat="50.255764" lon="16.993889">
				<ele>769.000000</ele>
			</trkpt>
			<trkpt lat="50.255890" lon="16.993637">
				<ele>768.000000</ele>
			</trkpt>
			<trkpt lat="50.256258" lon="16.993053">
				<ele>765.000000</ele>
			</trkpt>
			<trkpt lat="50.256355" lon="16.992738">
				<ele>764.000000</ele>
			</trkpt>
			<trkpt lat="50.256430" lon="16.992478">
				<ele>764.000000</ele>
			</trkpt>
			<trkpt lat="50.256568" lon="16.992128">
				<ele>762.000000</ele>
			</trkpt>
			<trkpt lat="50.256780" lon="16.991939">
				<ele>761.000000</ele>
			</trkpt>
			<trkpt lat="50.257223" lon="16.991660">
				<ele>759.000000</ele>
			</trkpt>
			<trkpt lat="50.257475" lon="16.991472">
				<ele>759.000000</ele>
			</trkpt>
			<trkpt lat="50.257596" lon="16.991390">
				<ele>758.000000</ele>
			</trkpt>
			<trkpt lat="50.257728" lon="16.991319">
				<ele>758.000000</ele>
			</trkpt>
			<trkpt lat="50.257975" lon="16.991149">
				<ele>757.000000</ele>
			</trkpt>
			<trkpt lat="50.258451" lon="16.990744">
				<ele>755.000000</ele>
			</trkpt>
			<trkpt lat="50.258567" lon="16.990673">
				<ele>755.000000</ele>
			</trkpt>
			<trkpt lat="50.258750" lon="16.990601">
				<ele>754.000000</ele>
			</trkpt>
			<trkpt lat="50.258968" lon="16.990520">
				<ele>753.000000</ele>
			</trkpt>
			<trkpt lat="50.259163" lon="16.990358">
				<ele>753.000000</ele>
			</trkpt>
			<trkpt lat="50.259371" lon="16.990115">
				<ele>752.000000</ele>
			</trkpt>
			<trkpt lat="50.259543" lon="16.989990">
				<ele>751.000000</ele>
			</trkpt>
			<trkpt lat="50.259916" lon="16.989801">
				<ele>750.000000</ele>
			</trkpt>
			<trkpt lat="50.260083" lon="16.989765">
				<ele>749.000000</ele>
			</trkpt>
			<trkpt lat="50.260180" lon="16.989756">
				<ele>749.000000</ele>
			</trkpt>
			<trkpt lat="50.260244" lon="16.989792">
				<ele>749.000000</ele>
			</trkpt>
			<trkpt lat="50.260473" lon="16.990098">
				<ele>748.000000</ele>
			</trkpt>
			<trkpt lat="50.260651" lon="16.990250">
				<ele>747.000000</ele>
			</trkpt>
			<trkpt lat="50.260858" lon="16.990358">
				<ele>746.000000</ele>
			</trkpt>
			<trkpt lat="50.261036" lon="16.990367">
				<ele>746.000000</ele>
			</trkpt>
			<trkpt lat="50.261380" lon="16.990304">
				<ele>745.000000</ele>
			</trkpt>
			<trkpt lat="50.261559" lon="16.990314">
				<ele>744.000000</ele>
			</trkpt>
			<trkpt lat="50.261702" lon="16.990394">
				<ele>744.000000</ele>
			</trkpt>
			<trkpt lat="50.261794" lon="16.990501">
				<ele>743.000000</ele>
			</trkpt>
			<trkpt lat="50.262012" lon="16.990843">
				<ele>742.000000</ele>
			</trkpt>
			<trkpt lat="50.262139" lon="16.991103">
				<ele>742.000000</ele>
			</trkpt>
			<trkpt lat="50.262213" lon="16.991329">
				<ele>741.000000</ele>
			</trkpt>
			<trkpt lat="50.262265" lon="16.991480">
				<ele>741.000000</ele>
			</trkpt>
			<trkpt lat="50.262334" lon="16.991769">
				<ele>740.000000</ele>
			</trkpt>
			<trkpt lat="50.262512" lon="16.992622">
				<ele>740.000000</ele>
			</trkpt>
			<trkpt lat="50.262672" lon="16.993027">
				<ele>740.000000</ele>
			</trkpt>
			<trkpt lat="50.262776" lon="16.993251">
				<ele>740.000000</ele>
			</trkpt>
			<trkpt lat="50.263023" lon="16.993610">
				<ele>740.000000</ele>
			</trkpt>
			<trkpt lat="50.263000" lon="16.993924">
				<ele>740.000000</ele>
			</trkpt>
			<trkpt lat="50.263040" lon="16.994023">
				<ele>740.000000</ele>
			</trkpt>
			<trkpt lat="50.263344" lon="16.994427">
				<ele>740.000000</ele>
			</trkpt>
			<trkpt lat="50.263884" lon="16.995038">
				<ele>740.000000</ele>
			</trkpt>
			<trkpt lat="50.263965" lon="16.995137">
				<ele>739.000000</ele>
			</trkpt>
			<trkpt lat="50.264016" lon="16.995227">
				<ele>738.000000</ele>
			</trkpt>
			<trkpt lat="50.264085" lon="16.995371">
				<ele>737.000000</ele>
			</trkpt>
			<trkpt lat="50.264137" lon="16.995497">
				<ele>736.000000</ele>
			</trkpt>
			<trkpt lat="50.264154" lon="16.995541">
				<ele>736.000000</ele>
			</trkpt>
			<trkpt lat="50.264177" lon="16.995631">
				<ele>736.000000</ele>
			</trkpt>
			<trkpt lat="50.264206" lon="16.995730">
				<ele>735.000000</ele>
			</trkpt>
			<trkpt lat="50.264217" lon="16.995838">
				<ele>734.000000</ele>
			</trkpt>
			<trkpt lat="50.264240" lon="16.996071">
				<ele>733.000000</ele>
			</trkpt>
			<trkpt lat="50.264252" lon="16.996304">
				<ele>732.000000</ele>
			</trkpt>
			<trkpt lat="50.264286" lon="16.996898">
				<ele>732.000000</ele>
			</trkpt>
		</trkseg>
	</trk>
</gpx>

