<?xml version="1.0" encoding="utf-8"?>
<gpx xmlns="http://www.topografix.com/GPX/1/1" version="1.1" creator="https://mapy.com/">
	<trk>
		<name>Trasa z 50.768927N, 15.728639E do 50.768975N, 15.728639E</name>
		<trkseg>
			<trkpt lat="50.768927" lon="15.728647">
				<ele>791.000000</ele>
			</trkpt>
			<trkpt lat="50.768978" lon="15.728612">
				<ele>791.000000</ele>
			</trkpt>
			<trkpt lat="50.768859" lon="15.728459">
				<ele>790.000000</ele>
			</trkpt>
			<trkpt lat="50.768803" lon="15.728413">
				<ele>790.000000</ele>
			</trkpt>
			<trkpt lat="50.768666" lon="15.728252">
				<ele>792.000000</ele>
			</trkpt>
			<trkpt lat="50.768564" lon="15.728153">
				<ele>794.000000</ele>
			</trkpt>
			<trkpt lat="50.768496" lon="15.728090">
				<ele>795.000000</ele>
			</trkpt>
			<trkpt lat="50.768394" lon="15.728054">
				<ele>797.000000</ele>
			</trkpt>
			<trkpt lat="50.768308" lon="15.728046">
				<ele>799.000000</ele>
			</trkpt>
			<trkpt lat="50.768132" lon="15.728046">
				<ele>802.000000</ele>
			</trkpt>
			<trkpt lat="50.767956" lon="15.728046">
				<ele>805.000000</ele>
			</trkpt>
			<trkpt lat="50.767842" lon="15.728010">
				<ele>807.000000</ele>
			</trkpt>
			<trkpt lat="50.767717" lon="15.727893">
				<ele>809.000000</ele>
			</trkpt>
			<trkpt lat="50.767609" lon="15.727830">
				<ele>811.000000</ele>
			</trkpt>
			<trkpt lat="50.767479" lon="15.727713">
				<ele>812.000000</ele>
			</trkpt>
			<trkpt lat="50.767427" lon="15.727650">
				<ele>813.000000</ele>
			</trkpt>
			<trkpt lat="50.767172" lon="15.727155">
				<ele>816.000000</ele>
			</trkpt>
			<trkpt lat="50.766962" lon="15.726779">
				<ele>819.000000</ele>
			</trkpt>
			<trkpt lat="50.766780" lon="15.726446">
				<ele>823.000000</ele>
			</trkpt>
			<trkpt lat="50.766649" lon="15.726176">
				<ele>825.000000</ele>
			</trkpt>
			<trkpt lat="50.766592" lon="15.726105">
				<ele>826.000000</ele>
			</trkpt>
			<trkpt lat="50.766524" lon="15.726042">
				<ele>827.000000</ele>
			</trkpt>
			<trkpt lat="50.766439" lon="15.725962">
				<ele>828.000000</ele>
			</trkpt>
			<trkpt lat="50.765950" lon="15.725665">
				<ele>836.000000</ele>
			</trkpt>
			<trkpt lat="50.765814" lon="15.725584">
				<ele>839.000000</ele>
			</trkpt>
			<trkpt lat="50.765399" lon="15.725413">
				<ele>842.000000</ele>
			</trkpt>
			<trkpt lat="50.764837" lon="15.724991">
				<ele>846.000000</ele>
			</trkpt>
			<trkpt lat="50.764592" lon="15.724820">
				<ele>848.000000</ele>
			</trkpt>
			<trkpt lat="50.764479" lon="15.724731">
				<ele>849.000000</ele>
			</trkpt>
			<trkpt lat="50.764291" lon="15.724542">
				<ele>850.000000</ele>
			</trkpt>
			<trkpt lat="50.764211" lon="15.724461">
				<ele>851.000000</ele>
			</trkpt>
			<trkpt lat="50.764149" lon="15.724371">
				<ele>852.000000</ele>
			</trkpt>
			<trkpt lat="50.763995" lon="15.724182">
				<ele>854.000000</ele>
			</trkpt>
			<trkpt lat="50.763956" lon="15.724128">
				<ele>855.000000</ele>
			</trkpt>
			<trkpt lat="50.763905" lon="15.724065">
				<ele>855.000000</ele>
			</trkpt>
			<trkpt lat="50.763802" lon="15.723931">
				<ele>857.000000</ele>
			</trkpt>
			<trkpt lat="50.763643" lon="15.723832">
				<ele>858.000000</ele>
			</trkpt>
			<trkpt lat="50.763467" lon="15.723742">
				<ele>861.000000</ele>
			</trkpt>
			<trkpt lat="50.763269" lon="15.723706">
				<ele>863.000000</ele>
			</trkpt>
			<trkpt lat="50.763075" lon="15.723733">
				<ele>866.000000</ele>
			</trkpt>
			<trkpt lat="50.762734" lon="15.723788">
				<ele>871.000000</ele>
			</trkpt>
			<trkpt lat="50.762666" lon="15.723796">
				<ele>873.000000</ele>
			</trkpt>
			<trkpt lat="50.762536" lon="15.723788">
				<ele>876.000000</ele>
			</trkpt>
			<trkpt lat="50.762433" lon="15.723769">
				<ele>878.000000</ele>
			</trkpt>
			<trkpt lat="50.762343" lon="15.723733">
				<ele>880.000000</ele>
			</trkpt>
			<trkpt lat="50.762286" lon="15.723698">
				<ele>881.000000</ele>
			</trkpt>
			<trkpt lat="50.762200" lon="15.723599">
				<ele>883.000000</ele>
			</trkpt>
			<trkpt lat="50.761803" lon="15.723140">
				<ele>889.000000</ele>
			</trkpt>
			<trkpt lat="50.761695" lon="15.723006">
				<ele>891.000000</ele>
			</trkpt>
			<trkpt lat="50.761479" lon="15.722746">
				<ele>895.000000</ele>
			</trkpt>
			<trkpt lat="50.761319" lon="15.722539">
				<ele>898.000000</ele>
			</trkpt>
			<trkpt lat="50.761126" lon="15.722323">
				<ele>902.000000</ele>
			</trkpt>
			<trkpt lat="50.760967" lon="15.722161">
				<ele>906.000000</ele>
			</trkpt>
			<trkpt lat="50.760887" lon="15.722063">
				<ele>908.000000</ele>
			</trkpt>
			<trkpt lat="50.760825" lon="15.721964">
				<ele>909.000000</ele>
			</trkpt>
			<trkpt lat="50.760785" lon="15.721865">
				<ele>911.000000</ele>
			</trkpt>
			<trkpt lat="50.760751" lon="15.721731">
				<ele>913.000000</ele>
			</trkpt>
			<trkpt lat="50.760728" lon="15.721532">
				<ele>916.000000</ele>
			</trkpt>
			<trkpt lat="50.760723" lon="15.721415">
				<ele>918.000000</ele>
			</trkpt>
			<trkpt lat="50.760734" lon="15.721254">
				<ele>920.000000</ele>
			</trkpt>
			<trkpt lat="50.760797" lon="15.720841">
				<ele>923.000000</ele>
			</trkpt>
			<trkpt lat="50.760848" lon="15.720545">
				<ele>925.000000</ele>
			</trkpt>
			<trkpt lat="50.760887" lon="15.720302">
				<ele>927.000000</ele>
			</trkpt>
			<trkpt lat="50.760933" lon="15.719960">
				<ele>929.000000</ele>
			</trkpt>
			<trkpt lat="50.760950" lon="15.719647">
				<ele>931.000000</ele>
			</trkpt>
			<trkpt lat="50.760979" lon="15.719305">
				<ele>934.000000</ele>
			</trkpt>
			<trkpt lat="50.761001" lon="15.719044">
				<ele>936.000000</ele>
			</trkpt>
			<trkpt lat="50.761007" lon="15.718775">
				<ele>938.000000</ele>
			</trkpt>
			<trkpt lat="50.761018" lon="15.718335">
				<ele>943.000000</ele>
			</trkpt>
			<trkpt lat="50.761041" lon="15.717966">
				<ele>947.000000</ele>
			</trkpt>
			<trkpt lat="50.761052" lon="15.717706">
				<ele>950.000000</ele>
			</trkpt>
			<trkpt lat="50.761036" lon="15.717536">
				<ele>953.000000</ele>
			</trkpt>
			<trkpt lat="50.760990" lon="15.717283">
				<ele>958.000000</ele>
			</trkpt>
			<trkpt lat="50.760910" lon="15.716897">
				<ele>964.000000</ele>
			</trkpt>
			<trkpt lat="50.760808" lon="15.716538">
				<ele>970.000000</ele>
			</trkpt>
			<trkpt lat="50.760774" lon="15.716412">
				<ele>972.000000</ele>
			</trkpt>
			<trkpt lat="50.760751" lon="15.716304">
				<ele>973.000000</ele>
			</trkpt>
			<trkpt lat="50.760757" lon="15.716197">
				<ele>975.000000</ele>
			</trkpt>
			<trkpt lat="50.760797" lon="15.716044">
				<ele>977.000000</ele>
			</trkpt>
			<trkpt lat="50.760848" lon="15.715918">
				<ele>979.000000</ele>
			</trkpt>
			<trkpt lat="50.761058" lon="15.715595">
				<ele>986.000000</ele>
			</trkpt>
			<trkpt lat="50.761172" lon="15.715423">
				<ele>990.000000</ele>
			</trkpt>
			<trkpt lat="50.761217" lon="15.715343">
				<ele>991.000000</ele>
			</trkpt>
			<trkpt lat="50.761234" lon="15.715280">
				<ele>992.000000</ele>
			</trkpt>
			<trkpt lat="50.761245" lon="15.715199">
				<ele>993.000000</ele>
			</trkpt>
			<trkpt lat="50.761245" lon="15.715047">
				<ele>994.000000</ele>
			</trkpt>
			<trkpt lat="50.761240" lon="15.714840">
				<ele>996.000000</ele>
			</trkpt>
			<trkpt lat="50.761240" lon="15.714561">
				<ele>999.000000</ele>
			</trkpt>
			<trkpt lat="50.761268" lon="15.714418">
				<ele>1001.000000</ele>
			</trkpt>
			<trkpt lat="50.761296" lon="15.714301">
				<ele>1002.000000</ele>
			</trkpt>
			<trkpt lat="50.761461" lon="15.714004">
				<ele>1008.000000</ele>
			</trkpt>
			<trkpt lat="50.761501" lon="15.713897">
				<ele>1010.000000</ele>
			</trkpt>
			<trkpt lat="50.761547" lon="15.713735">
				<ele>1012.000000</ele>
			</trkpt>
			<trkpt lat="50.761581" lon="15.713502">
				<ele>1015.000000</ele>
			</trkpt>
			<trkpt lat="50.761604" lon="15.713268">
				<ele>1017.000000</ele>
			</trkpt>
			<trkpt lat="50.761604" lon="15.713016">
				<ele>1020.000000</ele>
			</trkpt>
			<trkpt lat="50.761604" lon="15.712675">
				<ele>1024.000000</ele>
			</trkpt>
			<trkpt lat="50.761626" lon="15.712433">
				<ele>1027.000000</ele>
			</trkpt>
			<trkpt lat="50.761666" lon="15.712136">
				<ele>1031.000000</ele>
			</trkpt>
			<trkpt lat="50.761695" lon="15.711903">
				<ele>1034.000000</ele>
			</trkpt>
			<trkpt lat="50.761717" lon="15.711750">
				<ele>1036.000000</ele>
			</trkpt>
			<trkpt lat="50.761717" lon="15.711588">
				<ele>1037.000000</ele>
			</trkpt>
			<trkpt lat="50.761717" lon="15.711481">
				<ele>1039.000000</ele>
			</trkpt>
			<trkpt lat="50.761672" lon="15.711228">
				<ele>1042.000000</ele>
			</trkpt>
			<trkpt lat="50.761643" lon="15.711148">
				<ele>1043.000000</ele>
			</trkpt>
			<trkpt lat="50.761592" lon="15.711058">
				<ele>1045.000000</ele>
			</trkpt>
			<trkpt lat="50.761518" lon="15.710968">
				<ele>1047.000000</ele>
			</trkpt>
			<trkpt lat="50.761416" lon="15.710888">
				<ele>1047.000000</ele>
			</trkpt>
			<trkpt lat="50.761416" lon="15.710888">
				<ele>1047.000000</ele>
			</trkpt>
			<trkpt lat="50.761416" lon="15.710888">
				<ele>1049.000000</ele>
			</trkpt>
			<trkpt lat="50.760979" lon="15.710636">
				<ele>1058.000000</ele>
			</trkpt>
			<trkpt lat="50.760905" lon="15.710591">
				<ele>1060.000000</ele>
			</trkpt>
			<trkpt lat="50.760853" lon="15.710528">
				<ele>1061.000000</ele>
			</trkpt>
			<trkpt lat="50.760745" lon="15.710385">
				<ele>1064.000000</ele>
			</trkpt>
			<trkpt lat="50.760575" lon="15.710169">
				<ele>1068.000000</ele>
			</trkpt>
			<trkpt lat="50.760274" lon="15.709846">
				<ele>1073.000000</ele>
			</trkpt>
			<trkpt lat="50.759638" lon="15.709109">
				<ele>1084.000000</ele>
			</trkpt>
			<trkpt lat="50.759524" lon="15.708983">
				<ele>1086.000000</ele>
			</trkpt>
			<trkpt lat="50.759433" lon="15.708903">
				<ele>1087.000000</ele>
			</trkpt>
			<trkpt lat="50.759365" lon="15.708857">
				<ele>1088.000000</ele>
			</trkpt>
			<trkpt lat="50.759274" lon="15.708813">
				<ele>1089.000000</ele>
			</trkpt>
			<trkpt lat="50.759126" lon="15.708785">
				<ele>1092.000000</ele>
			</trkpt>
			<trkpt lat="50.759035" lon="15.708794">
				<ele>1094.000000</ele>
			</trkpt>
			<trkpt lat="50.758484" lon="15.708903">
				<ele>1108.000000</ele>
			</trkpt>
			<trkpt lat="50.758290" lon="15.708903">
				<ele>1113.000000</ele>
			</trkpt>
			<trkpt lat="50.757643" lon="15.708687">
				<ele>1129.000000</ele>
			</trkpt>
			<trkpt lat="50.757103" lon="15.708544">
				<ele>1141.000000</ele>
			</trkpt>
			<trkpt lat="50.756711" lon="15.708444">
				<ele>1150.000000</ele>
			</trkpt>
			<trkpt lat="50.756455" lon="15.708425">
				<ele>1155.000000</ele>
			</trkpt>
			<trkpt lat="50.755910" lon="15.708489">
				<ele>1165.000000</ele>
			</trkpt>
			<trkpt lat="50.755381" lon="15.708435">
				<ele>1175.000000</ele>
			</trkpt>
			<trkpt lat="50.755057" lon="15.708480">
				<ele>1181.000000</ele>
			</trkpt>
			<trkpt lat="50.754148" lon="15.708678">
				<ele>1198.000000</ele>
			</trkpt>
			<trkpt lat="50.753591" lon="15.708974">
				<ele>1209.000000</ele>
			</trkpt>
			<trkpt lat="50.753415" lon="15.709020">
				<ele>1212.000000</ele>
			</trkpt>
			<trkpt lat="50.752244" lon="15.709261">
				<ele>1235.000000</ele>
			</trkpt>
			<trkpt lat="50.752153" lon="15.709307">
				<ele>1236.000000</ele>
			</trkpt>
			<trkpt lat="50.752039" lon="15.709343">
				<ele>1239.000000</ele>
			</trkpt>
			<trkpt lat="50.751903" lon="15.709351">
				<ele>1241.000000</ele>
			</trkpt>
			<trkpt lat="50.751778" lon="15.709307">
				<ele>1243.000000</ele>
			</trkpt>
			<trkpt lat="50.751516" lon="15.709081">
				<ele>1248.000000</ele>
			</trkpt>
			<trkpt lat="50.751238" lon="15.708794">
				<ele>1254.000000</ele>
			</trkpt>
			<trkpt lat="50.751238" lon="15.708633">
				<ele>1254.000000</ele>
			</trkpt>
			<trkpt lat="50.751227" lon="15.708417">
				<ele>1254.000000</ele>
			</trkpt>
			<trkpt lat="50.751187" lon="15.708247">
				<ele>1254.000000</ele>
			</trkpt>
			<trkpt lat="50.751073" lon="15.707986">
				<ele>1254.000000</ele>
			</trkpt>
			<trkpt lat="50.750993" lon="15.707851">
				<ele>1254.000000</ele>
			</trkpt>
			<trkpt lat="50.750891" lon="15.707779">
				<ele>1254.000000</ele>
			</trkpt>
			<trkpt lat="50.750789" lon="15.707752">
				<ele>1255.000000</ele>
			</trkpt>
			<trkpt lat="50.750704" lon="15.707806">
				<ele>1255.000000</ele>
			</trkpt>
			<trkpt lat="50.750670" lon="15.707888">
				<ele>1255.000000</ele>
			</trkpt>
			<trkpt lat="50.750317" lon="15.707412">
				<ele>1253.000000</ele>
			</trkpt>
			<trkpt lat="50.750169" lon="15.707106">
				<ele>1252.000000</ele>
			</trkpt>
			<trkpt lat="50.749965" lon="15.706764">
				<ele>1251.000000</ele>
			</trkpt>
			<trkpt lat="50.749857" lon="15.706486">
				<ele>1250.000000</ele>
			</trkpt>
			<trkpt lat="50.749522" lon="15.706117">
				<ele>1246.000000</ele>
			</trkpt>
			<trkpt lat="50.749317" lon="15.705902">
				<ele>1243.000000</ele>
			</trkpt>
			<trkpt lat="50.749157" lon="15.705758">
				<ele>1241.000000</ele>
			</trkpt>
			<trkpt lat="50.749049" lon="15.705605">
				<ele>1240.000000</ele>
			</trkpt>
			<trkpt lat="50.748840" lon="15.705452">
				<ele>1238.000000</ele>
			</trkpt>
			<trkpt lat="50.748743" lon="15.705291">
				<ele>1237.000000</ele>
			</trkpt>
			<trkpt lat="50.748516" lon="15.704653">
				<ele>1233.000000</ele>
			</trkpt>
			<trkpt lat="50.748339" lon="15.704383">
				<ele>1230.000000</ele>
			</trkpt>
			<trkpt lat="50.748282" lon="15.704267">
				<ele>1228.000000</ele>
			</trkpt>
			<trkpt lat="50.748271" lon="15.704186">
				<ele>1227.000000</ele>
			</trkpt>
			<trkpt lat="50.748311" lon="15.704150">
				<ele>1226.000000</ele>
			</trkpt>
			<trkpt lat="50.748504" lon="15.703997">
				<ele>1221.000000</ele>
			</trkpt>
			<trkpt lat="50.748618" lon="15.703907">
				<ele>1217.000000</ele>
			</trkpt>
			<trkpt lat="50.748657" lon="15.703863">
				<ele>1216.000000</ele>
			</trkpt>
			<trkpt lat="50.748680" lon="15.703800">
				<ele>1215.000000</ele>
			</trkpt>
			<trkpt lat="50.748703" lon="15.703540">
				<ele>1210.000000</ele>
			</trkpt>
			<trkpt lat="50.748799" lon="15.703188">
				<ele>1207.000000</ele>
			</trkpt>
			<trkpt lat="50.748868" lon="15.702955">
				<ele>1205.000000</ele>
			</trkpt>
			<trkpt lat="50.748879" lon="15.702865">
				<ele>1204.000000</ele>
			</trkpt>
			<trkpt lat="50.748822" lon="15.702623">
				<ele>1202.000000</ele>
			</trkpt>
			<trkpt lat="50.748834" lon="15.702551">
				<ele>1202.000000</ele>
			</trkpt>
			<trkpt lat="50.748976" lon="15.702399">
				<ele>1199.000000</ele>
			</trkpt>
			<trkpt lat="50.748976" lon="15.702399">
				<ele>1199.000000</ele>
			</trkpt>
			<trkpt lat="50.748834" lon="15.702551">
				<ele>1202.000000</ele>
			</trkpt>
			<trkpt lat="50.748822" lon="15.702623">
				<ele>1202.000000</ele>
			</trkpt>
			<trkpt lat="50.748879" lon="15.702865">
				<ele>1204.000000</ele>
			</trkpt>
			<trkpt lat="50.748868" lon="15.702955">
				<ele>1205.000000</ele>
			</trkpt>
			<trkpt lat="50.748799" lon="15.703188">
				<ele>1207.000000</ele>
			</trkpt>
			<trkpt lat="50.748703" lon="15.703540">
				<ele>1210.000000</ele>
			</trkpt>
			<trkpt lat="50.748680" lon="15.703800">
				<ele>1215.000000</ele>
			</trkpt>
			<trkpt lat="50.748657" lon="15.703863">
				<ele>1216.000000</ele>
			</trkpt>
			<trkpt lat="50.748618" lon="15.703907">
				<ele>1217.000000</ele>
			</trkpt>
			<trkpt lat="50.748504" lon="15.703997">
				<ele>1221.000000</ele>
			</trkpt>
			<trkpt lat="50.748311" lon="15.704150">
				<ele>1226.000000</ele>
			</trkpt>
			<trkpt lat="50.748271" lon="15.704186">
				<ele>1227.000000</ele>
			</trkpt>
			<trkpt lat="50.748282" lon="15.704267">
				<ele>1228.000000</ele>
			</trkpt>
			<trkpt lat="50.748339" lon="15.704383">
				<ele>1230.000000</ele>
			</trkpt>
			<trkpt lat="50.748516" lon="15.704653">
				<ele>1233.000000</ele>
			</trkpt>
			<trkpt lat="50.748743" lon="15.705291">
				<ele>1237.000000</ele>
			</trkpt>
			<trkpt lat="50.748840" lon="15.705452">
				<ele>1238.000000</ele>
			</trkpt>
			<trkpt lat="50.749049" lon="15.705605">
				<ele>1240.000000</ele>
			</trkpt>
			<trkpt lat="50.749157" lon="15.705758">
				<ele>1241.000000</ele>
			</trkpt>
			<trkpt lat="50.749317" lon="15.705902">
				<ele>1243.000000</ele>
			</trkpt>
			<trkpt lat="50.749522" lon="15.706117">
				<ele>1246.000000</ele>
			</trkpt>
			<trkpt lat="50.749857" lon="15.706486">
				<ele>1250.000000</ele>
			</trkpt>
			<trkpt lat="50.749965" lon="15.706764">
				<ele>1251.000000</ele>
			</trkpt>
			<trkpt lat="50.750169" lon="15.707106">
				<ele>1252.000000</ele>
			</trkpt>
			<trkpt lat="50.750317" lon="15.707412">
				<ele>1253.000000</ele>
			</trkpt>
			<trkpt lat="50.750670" lon="15.707888">
				<ele>1255.000000</ele>
			</trkpt>
			<trkpt lat="50.750749" lon="15.707941">
				<ele>1255.000000</ele>
			</trkpt>
			<trkpt lat="50.750823" lon="15.707888">
				<ele>1255.000000</ele>
			</trkpt>
			<trkpt lat="50.750840" lon="15.707888">
				<ele>1255.000000</ele>
			</trkpt>
			<trkpt lat="50.750891" lon="15.707986">
				<ele>1256.000000</ele>
			</trkpt>
			<trkpt lat="50.751022" lon="15.708345">
				<ele>1257.000000</ele>
			</trkpt>
			<trkpt lat="50.751096" lon="15.708552">
				<ele>1257.000000</ele>
			</trkpt>
			<trkpt lat="50.751039" lon="15.708615">
				<ele>1258.000000</ele>
			</trkpt>
			<trkpt lat="50.751005" lon="15.708678">
				<ele>1257.000000</ele>
			</trkpt>
			<trkpt lat="50.751380" lon="15.709433">
				<ele>1255.000000</ele>
			</trkpt>
			<trkpt lat="50.751386" lon="15.709666">
				<ele>1255.000000</ele>
			</trkpt>
			<trkpt lat="50.751414" lon="15.709800">
				<ele>1254.000000</ele>
			</trkpt>
			<trkpt lat="50.751465" lon="15.709899">
				<ele>1254.000000</ele>
			</trkpt>
			<trkpt lat="50.751567" lon="15.710789">
				<ele>1252.000000</ele>
			</trkpt>
			<trkpt lat="50.751573" lon="15.711104">
				<ele>1251.000000</ele>
			</trkpt>
			<trkpt lat="50.751539" lon="15.711408">
				<ele>1250.000000</ele>
			</trkpt>
			<trkpt lat="50.751528" lon="15.711597">
				<ele>1250.000000</ele>
			</trkpt>
			<trkpt lat="50.751454" lon="15.711804">
				<ele>1248.000000</ele>
			</trkpt>
			<trkpt lat="50.751392" lon="15.712064">
				<ele>1247.000000</ele>
			</trkpt>
			<trkpt lat="50.751221" lon="15.712423">
				<ele>1244.000000</ele>
			</trkpt>
			<trkpt lat="50.751136" lon="15.712540">
				<ele>1243.000000</ele>
			</trkpt>
			<trkpt lat="50.750715" lon="15.712936">
				<ele>1239.000000</ele>
			</trkpt>
			<trkpt lat="50.750562" lon="15.712999">
				<ele>1238.000000</ele>
			</trkpt>
			<trkpt lat="50.750511" lon="15.713008">
				<ele>1238.000000</ele>
			</trkpt>
			<trkpt lat="50.750334" lon="15.713098">
				<ele>1237.000000</ele>
			</trkpt>
			<trkpt lat="50.750169" lon="15.713098">
				<ele>1236.000000</ele>
			</trkpt>
			<trkpt lat="50.750045" lon="15.713205">
				<ele>1235.000000</ele>
			</trkpt>
			<trkpt lat="50.749982" lon="15.713249">
				<ele>1234.000000</ele>
			</trkpt>
			<trkpt lat="50.749806" lon="15.713304">
				<ele>1233.000000</ele>
			</trkpt>
			<trkpt lat="50.749772" lon="15.713339">
				<ele>1233.000000</ele>
			</trkpt>
			<trkpt lat="50.749743" lon="15.713339">
				<ele>1233.000000</ele>
			</trkpt>
			<trkpt lat="50.749692" lon="15.713339">
				<ele>1232.000000</ele>
			</trkpt>
			<trkpt lat="50.749675" lon="15.713376">
				<ele>1232.000000</ele>
			</trkpt>
			<trkpt lat="50.749419" lon="15.713609">
				<ele>1230.000000</ele>
			</trkpt>
			<trkpt lat="50.749345" lon="15.713771">
				<ele>1230.000000</ele>
			</trkpt>
			<trkpt lat="50.749255" lon="15.713852">
				<ele>1229.000000</ele>
			</trkpt>
			<trkpt lat="50.749169" lon="15.713995">
				<ele>1229.000000</ele>
			</trkpt>
			<trkpt lat="50.749106" lon="15.714077">
				<ele>1228.000000</ele>
			</trkpt>
			<trkpt lat="50.749049" lon="15.714085">
				<ele>1228.000000</ele>
			</trkpt>
			<trkpt lat="50.749021" lon="15.714148">
				<ele>1228.000000</ele>
			</trkpt>
			<trkpt lat="50.749021" lon="15.714230">
				<ele>1228.000000</ele>
			</trkpt>
			<trkpt lat="50.749027" lon="15.714310">
				<ele>1228.000000</ele>
			</trkpt>
			<trkpt lat="50.749049" lon="15.714373">
				<ele>1227.000000</ele>
			</trkpt>
			<trkpt lat="50.749084" lon="15.714526">
				<ele>1227.000000</ele>
			</trkpt>
			<trkpt lat="50.749141" lon="15.714723">
				<ele>1226.000000</ele>
			</trkpt>
			<trkpt lat="50.749180" lon="15.714867">
				<ele>1229.000000</ele>
			</trkpt>
			<trkpt lat="50.749249" lon="15.715056">
				<ele>1232.000000</ele>
			</trkpt>
			<trkpt lat="50.749396" lon="15.715469">
				<ele>1237.000000</ele>
			</trkpt>
			<trkpt lat="50.749436" lon="15.715622">
				<ele>1238.000000</ele>
			</trkpt>
			<trkpt lat="50.749471" lon="15.715802">
				<ele>1240.000000</ele>
			</trkpt>
			<trkpt lat="50.749516" lon="15.716035">
				<ele>1243.000000</ele>
			</trkpt>
			<trkpt lat="50.749556" lon="15.716278">
				<ele>1245.000000</ele>
			</trkpt>
			<trkpt lat="50.749618" lon="15.716618">
				<ele>1248.000000</ele>
			</trkpt>
			<trkpt lat="50.749675" lon="15.716951">
				<ele>1252.000000</ele>
			</trkpt>
			<trkpt lat="50.749692" lon="15.717184">
				<ele>1254.000000</ele>
			</trkpt>
			<trkpt lat="50.749715" lon="15.717436">
				<ele>1256.000000</ele>
			</trkpt>
			<trkpt lat="50.749715" lon="15.717813">
				<ele>1260.000000</ele>
			</trkpt>
			<trkpt lat="50.749726" lon="15.718199">
				<ele>1263.000000</ele>
			</trkpt>
			<trkpt lat="50.749715" lon="15.718702">
				<ele>1268.000000</ele>
			</trkpt>
			<trkpt lat="50.749749" lon="15.719224">
				<ele>1274.000000</ele>
			</trkpt>
			<trkpt lat="50.749754" lon="15.719503">
				<ele>1277.000000</ele>
			</trkpt>
			<trkpt lat="50.749737" lon="15.720266">
				<ele>1284.000000</ele>
			</trkpt>
			<trkpt lat="50.749754" lon="15.720553">
				<ele>1287.000000</ele>
			</trkpt>
			<trkpt lat="50.749777" lon="15.720913">
				<ele>1291.000000</ele>
			</trkpt>
			<trkpt lat="50.749772" lon="15.721263">
				<ele>1294.000000</ele>
			</trkpt>
			<trkpt lat="50.749754" lon="15.721641">
				<ele>1298.000000</ele>
			</trkpt>
			<trkpt lat="50.749721" lon="15.722018">
				<ele>1301.000000</ele>
			</trkpt>
			<trkpt lat="50.749652" lon="15.722511">
				<ele>1306.000000</ele>
			</trkpt>
			<trkpt lat="50.749618" lon="15.722763">
				<ele>1308.000000</ele>
			</trkpt>
			<trkpt lat="50.749561" lon="15.723006">
				<ele>1310.000000</ele>
			</trkpt>
			<trkpt lat="50.749402" lon="15.723526">
				<ele>1316.000000</ele>
			</trkpt>
			<trkpt lat="50.749232" lon="15.724021">
				<ele>1322.000000</ele>
			</trkpt>
			<trkpt lat="50.749078" lon="15.724434">
				<ele>1326.000000</ele>
			</trkpt>
			<trkpt lat="50.748919" lon="15.724794">
				<ele>1330.000000</ele>
			</trkpt>
			<trkpt lat="50.748732" lon="15.725134">
				<ele>1335.000000</ele>
			</trkpt>
			<trkpt lat="50.748538" lon="15.725486">
				<ele>1339.000000</ele>
			</trkpt>
			<trkpt lat="50.748436" lon="15.725683">
				<ele>1342.000000</ele>
			</trkpt>
			<trkpt lat="50.748339" lon="15.725853">
				<ele>1344.000000</ele>
			</trkpt>
			<trkpt lat="50.748231" lon="15.726033">
				<ele>1346.000000</ele>
			</trkpt>
			<trkpt lat="50.748089" lon="15.726195">
				<ele>1349.000000</ele>
			</trkpt>
			<trkpt lat="50.747947" lon="15.726348">
				<ele>1351.000000</ele>
			</trkpt>
			<trkpt lat="50.747782" lon="15.726509">
				<ele>1354.000000</ele>
			</trkpt>
			<trkpt lat="50.747640" lon="15.726662">
				<ele>1356.000000</ele>
			</trkpt>
			<trkpt lat="50.747572" lon="15.726715">
				<ele>1357.000000</ele>
			</trkpt>
			<trkpt lat="50.747475" lon="15.726769">
				<ele>1358.000000</ele>
			</trkpt>
			<trkpt lat="50.747344" lon="15.726851">
				<ele>1360.000000</ele>
			</trkpt>
			<trkpt lat="50.747208" lon="15.726922">
				<ele>1360.000000</ele>
			</trkpt>
			<trkpt lat="50.747004" lon="15.727021">
				<ele>1361.000000</ele>
			</trkpt>
			<trkpt lat="50.746901" lon="15.727039">
				<ele>1361.000000</ele>
			</trkpt>
			<trkpt lat="50.746873" lon="15.727039">
				<ele>1361.000000</ele>
			</trkpt>
			<trkpt lat="50.746747" lon="15.727048">
				<ele>1361.000000</ele>
			</trkpt>
			<trkpt lat="50.746674" lon="15.727031">
				<ele>1361.000000</ele>
			</trkpt>
			<trkpt lat="50.746538" lon="15.726994">
				<ele>1361.000000</ele>
			</trkpt>
			<trkpt lat="50.746430" lon="15.726941">
				<ele>1361.000000</ele>
			</trkpt>
			<trkpt lat="50.746225" lon="15.726815">
				<ele>1362.000000</ele>
			</trkpt>
			<trkpt lat="50.746031" lon="15.726689">
				<ele>1362.000000</ele>
			</trkpt>
			<trkpt lat="50.745827" lon="15.726563">
				<ele>1362.000000</ele>
			</trkpt>
			<trkpt lat="50.745611" lon="15.726411">
				<ele>1363.000000</ele>
			</trkpt>
			<trkpt lat="50.745423" lon="15.726302">
				<ele>1363.000000</ele>
			</trkpt>
			<trkpt lat="50.745230" lon="15.726132">
				<ele>1363.000000</ele>
			</trkpt>
			<trkpt lat="50.745117" lon="15.726006">
				<ele>1364.000000</ele>
			</trkpt>
			<trkpt lat="50.745026" lon="15.725880">
				<ele>1364.000000</ele>
			</trkpt>
			<trkpt lat="50.744952" lon="15.725746">
				<ele>1364.000000</ele>
			</trkpt>
			<trkpt lat="50.744889" lon="15.725593">
				<ele>1364.000000</ele>
			</trkpt>
			<trkpt lat="50.744826" lon="15.725431">
				<ele>1364.000000</ele>
			</trkpt>
			<trkpt lat="50.744775" lon="15.725260">
				<ele>1364.000000</ele>
			</trkpt>
			<trkpt lat="50.744702" lon="15.724991">
				<ele>1365.000000</ele>
			</trkpt>
			<trkpt lat="50.744639" lon="15.724731">
				<ele>1365.000000</ele>
			</trkpt>
			<trkpt lat="50.744582" lon="15.724587">
				<ele>1365.000000</ele>
			</trkpt>
			<trkpt lat="50.744525" lon="15.724452">
				<ele>1365.000000</ele>
			</trkpt>
			<trkpt lat="50.744423" lon="15.724272">
				<ele>1366.000000</ele>
			</trkpt>
			<trkpt lat="50.744360" lon="15.724165">
				<ele>1366.000000</ele>
			</trkpt>
			<trkpt lat="50.744292" lon="15.724084">
				<ele>1366.000000</ele>
			</trkpt>
			<trkpt lat="50.744213" lon="15.723994">
				<ele>1366.000000</ele>
			</trkpt>
			<trkpt lat="50.744138" lon="15.723922">
				<ele>1366.000000</ele>
			</trkpt>
			<trkpt lat="50.744025" lon="15.723805">
				<ele>1366.000000</ele>
			</trkpt>
			<trkpt lat="50.743917" lon="15.723698">
				<ele>1366.000000</ele>
			</trkpt>
			<trkpt lat="50.743809" lon="15.723599">
				<ele>1367.000000</ele>
			</trkpt>
			<trkpt lat="50.743695" lon="15.723491">
				<ele>1367.000000</ele>
			</trkpt>
			<trkpt lat="50.743621" lon="15.723446">
				<ele>1367.000000</ele>
			</trkpt>
			<trkpt lat="50.743553" lon="15.723419">
				<ele>1367.000000</ele>
			</trkpt>
			<trkpt lat="50.743479" lon="15.723419">
				<ele>1367.000000</ele>
			</trkpt>
			<trkpt lat="50.743399" lon="15.723436">
				<ele>1367.000000</ele>
			</trkpt>
			<trkpt lat="50.743348" lon="15.723473">
				<ele>1367.000000</ele>
			</trkpt>
			<trkpt lat="50.743303" lon="15.723518">
				<ele>1367.000000</ele>
			</trkpt>
			<trkpt lat="50.743183" lon="15.723635">
				<ele>1368.000000</ele>
			</trkpt>
			<trkpt lat="50.743064" lon="15.723761">
				<ele>1368.000000</ele>
			</trkpt>
			<trkpt lat="50.742843" lon="15.723976">
				<ele>1368.000000</ele>
			</trkpt>
			<trkpt lat="50.742672" lon="15.724128">
				<ele>1369.000000</ele>
			</trkpt>
			<trkpt lat="50.742575" lon="15.724192">
				<ele>1369.000000</ele>
			</trkpt>
			<trkpt lat="50.742331" lon="15.724228">
				<ele>1369.000000</ele>
			</trkpt>
			<trkpt lat="50.742206" lon="15.724245">
				<ele>1369.000000</ele>
			</trkpt>
			<trkpt lat="50.742086" lon="15.724281">
				<ele>1369.000000</ele>
			</trkpt>
			<trkpt lat="50.742018" lon="15.724291">
				<ele>1370.000000</ele>
			</trkpt>
			<trkpt lat="50.741956" lon="15.724281">
				<ele>1370.000000</ele>
			</trkpt>
			<trkpt lat="50.741836" lon="15.724264">
				<ele>1370.000000</ele>
			</trkpt>
			<trkpt lat="50.741592" lon="15.724255">
				<ele>1372.000000</ele>
			</trkpt>
			<trkpt lat="50.741342" lon="15.724245">
				<ele>1375.000000</ele>
			</trkpt>
			<trkpt lat="50.741223" lon="15.724237">
				<ele>1376.000000</ele>
			</trkpt>
			<trkpt lat="50.741103" lon="15.724245">
				<ele>1378.000000</ele>
			</trkpt>
			<trkpt lat="50.740916" lon="15.724272">
				<ele>1380.000000</ele>
			</trkpt>
			<trkpt lat="50.740739" lon="15.724327">
				<ele>1383.000000</ele>
			</trkpt>
			<trkpt lat="50.740643" lon="15.724371">
				<ele>1385.000000</ele>
			</trkpt>
			<trkpt lat="50.740558" lon="15.724417">
				<ele>1387.000000</ele>
			</trkpt>
			<trkpt lat="50.740466" lon="15.724444">
				<ele>1389.000000</ele>
			</trkpt>
			<trkpt lat="50.740393" lon="15.724479">
				<ele>1390.000000</ele>
			</trkpt>
			<trkpt lat="50.740324" lon="15.724641">
				<ele>1390.000000</ele>
			</trkpt>
			<trkpt lat="50.740250" lon="15.724794">
				<ele>1390.000000</ele>
			</trkpt>
			<trkpt lat="50.740182" lon="15.724955">
				<ele>1390.000000</ele>
			</trkpt>
			<trkpt lat="50.740114" lon="15.725134">
				<ele>1390.000000</ele>
			</trkpt>
			<trkpt lat="50.740006" lon="15.725449">
				<ele>1390.000000</ele>
			</trkpt>
			<trkpt lat="50.739955" lon="15.725610">
				<ele>1390.000000</ele>
			</trkpt>
			<trkpt lat="50.739915" lon="15.725773">
				<ele>1390.000000</ele>
			</trkpt>
			<trkpt lat="50.739881" lon="15.725899">
				<ele>1390.000000</ele>
			</trkpt>
			<trkpt lat="50.739847" lon="15.726025">
				<ele>1390.000000</ele>
			</trkpt>
			<trkpt lat="50.739829" lon="15.726159">
				<ele>1390.000000</ele>
			</trkpt>
			<trkpt lat="50.739818" lon="15.726312">
				<ele>1390.000000</ele>
			</trkpt>
			<trkpt lat="50.739790" lon="15.726671">
				<ele>1390.000000</ele>
			</trkpt>
			<trkpt lat="50.739784" lon="15.726859">
				<ele>1390.000000</ele>
			</trkpt>
			<trkpt lat="50.739778" lon="15.727039">
				<ele>1390.000000</ele>
			</trkpt>
			<trkpt lat="50.739767" lon="15.727291">
				<ele>1390.000000</ele>
			</trkpt>
			<trkpt lat="50.739750" lon="15.727507">
				<ele>1390.000000</ele>
			</trkpt>
			<trkpt lat="50.739710" lon="15.727686">
				<ele>1390.000000</ele>
			</trkpt>
			<trkpt lat="50.739654" lon="15.727847">
				<ele>1390.000000</ele>
			</trkpt>
			<trkpt lat="50.739477" lon="15.728342">
				<ele>1390.000000</ele>
			</trkpt>
			<trkpt lat="50.739386" lon="15.728620">
				<ele>1390.000000</ele>
			</trkpt>
			<trkpt lat="50.739284" lon="15.728908">
				<ele>1390.000000</ele>
			</trkpt>
			<trkpt lat="50.739221" lon="15.729088">
				<ele>1390.000000</ele>
			</trkpt>
			<trkpt lat="50.739170" lon="15.729213">
				<ele>1397.000000</ele>
			</trkpt>
			<trkpt lat="50.738903" lon="15.729968">
				<ele>1398.000000</ele>
			</trkpt>
			<trkpt lat="50.738795" lon="15.730273">
				<ele>1399.000000</ele>
			</trkpt>
			<trkpt lat="50.738738" lon="15.730453">
				<ele>1399.000000</ele>
			</trkpt>
			<trkpt lat="50.738710" lon="15.730534">
				<ele>1399.000000</ele>
			</trkpt>
			<trkpt lat="50.738681" lon="15.730587">
				<ele>1400.000000</ele>
			</trkpt>
			<trkpt lat="50.738647" lon="15.730660">
				<ele>1400.000000</ele>
			</trkpt>
			<trkpt lat="50.738596" lon="15.730731">
				<ele>1400.000000</ele>
			</trkpt>
			<trkpt lat="50.738516" lon="15.730813">
				<ele>1401.000000</ele>
			</trkpt>
			<trkpt lat="50.738408" lon="15.730920">
				<ele>1402.000000</ele>
			</trkpt>
			<trkpt lat="50.738266" lon="15.731046">
				<ele>1404.000000</ele>
			</trkpt>
			<trkpt lat="50.738193" lon="15.731117">
				<ele>1405.000000</ele>
			</trkpt>
			<trkpt lat="50.738152" lon="15.731153">
				<ele>1406.000000</ele>
			</trkpt>
			<trkpt lat="50.738119" lon="15.731199">
				<ele>1406.000000</ele>
			</trkpt>
			<trkpt lat="50.738079" lon="15.731270">
				<ele>1407.000000</ele>
			</trkpt>
			<trkpt lat="50.738044" lon="15.731387">
				<ele>1408.000000</ele>
			</trkpt>
			<trkpt lat="50.738062" lon="15.731369">
				<ele>1443.000000</ele>
			</trkpt>
			<trkpt lat="50.737874" lon="15.731503">
				<ele>1445.000000</ele>
			</trkpt>
			<trkpt lat="50.737817" lon="15.731566">
				<ele>1446.000000</ele>
			</trkpt>
			<trkpt lat="50.737760" lon="15.731648">
				<ele>1447.000000</ele>
			</trkpt>
			<trkpt lat="50.737692" lon="15.731765">
				<ele>1449.000000</ele>
			</trkpt>
			<trkpt lat="50.737601" lon="15.731872">
				<ele>1450.000000</ele>
			</trkpt>
			<trkpt lat="50.737271" lon="15.732294">
				<ele>1456.000000</ele>
			</trkpt>
			<trkpt lat="50.737021" lon="15.732573">
				<ele>1460.000000</ele>
			</trkpt>
			<trkpt lat="50.736959" lon="15.732654">
				<ele>1461.000000</ele>
			</trkpt>
			<trkpt lat="50.736902" lon="15.732771">
				<ele>1462.000000</ele>
			</trkpt>
			<trkpt lat="50.736839" lon="15.732923">
				<ele>1463.000000</ele>
			</trkpt>
			<trkpt lat="50.736828" lon="15.733023">
				<ele>1464.000000</ele>
			</trkpt>
			<trkpt lat="50.736822" lon="15.733471">
				<ele>1468.000000</ele>
			</trkpt>
			<trkpt lat="50.736817" lon="15.733516">
				<ele>1468.000000</ele>
			</trkpt>
			<trkpt lat="50.736800" lon="15.733534">
				<ele>1469.000000</ele>
			</trkpt>
			<trkpt lat="50.736737" lon="15.733489">
				<ele>1470.000000</ele>
			</trkpt>
			<trkpt lat="50.736714" lon="15.733489">
				<ele>1470.000000</ele>
			</trkpt>
			<trkpt lat="50.736714" lon="15.733516">
				<ele>1470.000000</ele>
			</trkpt>
			<trkpt lat="50.736725" lon="15.733956">
				<ele>1474.000000</ele>
			</trkpt>
			<trkpt lat="50.736748" lon="15.734522">
				<ele>1478.000000</ele>
			</trkpt>
			<trkpt lat="50.736766" lon="15.734765">
				<ele>1480.000000</ele>
			</trkpt>
			<trkpt lat="50.736766" lon="15.734792">
				<ele>1481.000000</ele>
			</trkpt>
			<trkpt lat="50.736743" lon="15.734792">
				<ele>1481.000000</ele>
			</trkpt>
			<trkpt lat="50.736629" lon="15.734631">
				<ele>1483.000000</ele>
			</trkpt>
			<trkpt lat="50.736583" lon="15.734603">
				<ele>1484.000000</ele>
			</trkpt>
			<trkpt lat="50.736532" lon="15.734558">
				<ele>1484.000000</ele>
			</trkpt>
			<trkpt lat="50.736316" lon="15.734442">
				<ele>1487.000000</ele>
			</trkpt>
			<trkpt lat="50.736174" lon="15.734396">
				<ele>1489.000000</ele>
			</trkpt>
			<trkpt lat="50.736151" lon="15.734396">
				<ele>1490.000000</ele>
			</trkpt>
			<trkpt lat="50.736135" lon="15.734442">
				<ele>1490.000000</ele>
			</trkpt>
			<trkpt lat="50.736129" lon="15.734495">
				<ele>1491.000000</ele>
			</trkpt>
			<trkpt lat="50.736151" lon="15.734568">
				<ele>1493.000000</ele>
			</trkpt>
			<trkpt lat="50.736225" lon="15.734702">
				<ele>1497.000000</ele>
			</trkpt>
			<trkpt lat="50.736277" lon="15.734845">
				<ele>1500.000000</ele>
			</trkpt>
			<trkpt lat="50.736322" lon="15.734981">
				<ele>1504.000000</ele>
			</trkpt>
			<trkpt lat="50.736339" lon="15.735052">
				<ele>1506.000000</ele>
			</trkpt>
			<trkpt lat="50.736345" lon="15.735142">
				<ele>1508.000000</ele>
			</trkpt>
			<trkpt lat="50.736345" lon="15.735394">
				<ele>1513.000000</ele>
			</trkpt>
			<trkpt lat="50.736345" lon="15.735761">
				<ele>1521.000000</ele>
			</trkpt>
			<trkpt lat="50.736345" lon="15.735780">
				<ele>1522.000000</ele>
			</trkpt>
			<trkpt lat="50.736333" lon="15.735789">
				<ele>1522.000000</ele>
			</trkpt>
			<trkpt lat="50.736288" lon="15.735753">
				<ele>1524.000000</ele>
			</trkpt>
			<trkpt lat="50.736271" lon="15.735744">
				<ele>1525.000000</ele>
			</trkpt>
			<trkpt lat="50.736254" lon="15.735761">
				<ele>1525.000000</ele>
			</trkpt>
			<trkpt lat="50.736243" lon="15.735807">
				<ele>1526.000000</ele>
			</trkpt>
			<trkpt lat="50.736243" lon="15.735914">
				<ele>1529.000000</ele>
			</trkpt>
			<trkpt lat="50.736271" lon="15.736157">
				<ele>1534.000000</ele>
			</trkpt>
			<trkpt lat="50.736294" lon="15.736256">
				<ele>1536.000000</ele>
			</trkpt>
			<trkpt lat="50.736356" lon="15.736499">
				<ele>1540.000000</ele>
			</trkpt>
			<trkpt lat="50.736418" lon="15.736768">
				<ele>1544.000000</ele>
			</trkpt>
			<trkpt lat="50.736452" lon="15.737029">
				<ele>1548.000000</ele>
			</trkpt>
			<trkpt lat="50.736475" lon="15.737308">
				<ele>1552.000000</ele>
			</trkpt>
			<trkpt lat="50.736475" lon="15.737451">
				<ele>1554.000000</ele>
			</trkpt>
			<trkpt lat="50.736459" lon="15.737595">
				<ele>1556.000000</ele>
			</trkpt>
			<trkpt lat="50.736430" lon="15.737918">
				<ele>1561.000000</ele>
			</trkpt>
			<trkpt lat="50.736424" lon="15.738304">
				<ele>1567.000000</ele>
			</trkpt>
			<trkpt lat="50.736424" lon="15.738501">
				<ele>1570.000000</ele>
			</trkpt>
			<trkpt lat="50.736396" lon="15.738870">
				<ele>1575.000000</ele>
			</trkpt>
			<trkpt lat="50.736339" lon="15.739176">
				<ele>1580.000000</ele>
			</trkpt>
			<trkpt lat="50.736310" lon="15.739337">
				<ele>1582.000000</ele>
			</trkpt>
			<trkpt lat="50.736299" lon="15.739373">
				<ele>1583.000000</ele>
			</trkpt>
			<trkpt lat="50.736277" lon="15.739392">
				<ele>1584.000000</ele>
			</trkpt>
			<trkpt lat="50.736191" lon="15.739436">
				<ele>1586.000000</ele>
			</trkpt>
			<trkpt lat="50.736106" lon="15.739489">
				<ele>1588.000000</ele>
			</trkpt>
			<trkpt lat="50.736117" lon="15.739535">
				<ele>1600.000000</ele>
			</trkpt>
			<trkpt lat="50.735964" lon="15.739679">
				<ele>1600.000000</ele>
			</trkpt>
			<trkpt lat="50.735975" lon="15.739625">
				<ele>1599.000000</ele>
			</trkpt>
			<trkpt lat="50.735895" lon="15.739768">
				<ele>1599.000000</ele>
			</trkpt>
			<trkpt lat="50.735822" lon="15.739903">
				<ele>1599.000000</ele>
			</trkpt>
			<trkpt lat="50.735714" lon="15.740172">
				<ele>1599.000000</ele>
			</trkpt>
			<trkpt lat="50.735674" lon="15.740235">
				<ele>1598.000000</ele>
			</trkpt>
			<trkpt lat="50.735594" lon="15.740388">
				<ele>1594.000000</ele>
			</trkpt>
			<trkpt lat="50.735401" lon="15.740684">
				<ele>1586.000000</ele>
			</trkpt>
			<trkpt lat="50.735333" lon="15.740747">
				<ele>1584.000000</ele>
			</trkpt>
			<trkpt lat="50.735248" lon="15.740774">
				<ele>1582.000000</ele>
			</trkpt>
			<trkpt lat="50.734991" lon="15.740820">
				<ele>1575.000000</ele>
			</trkpt>
			<trkpt lat="50.734969" lon="15.740828">
				<ele>1574.000000</ele>
			</trkpt>
			<trkpt lat="50.734963" lon="15.740847">
				<ele>1574.000000</ele>
			</trkpt>
			<trkpt lat="50.735014" lon="15.741071">
				<ele>1571.000000</ele>
			</trkpt>
			<trkpt lat="50.735105" lon="15.741269">
				<ele>1568.000000</ele>
			</trkpt>
			<trkpt lat="50.735128" lon="15.741413">
				<ele>1566.000000</ele>
			</trkpt>
			<trkpt lat="50.735140" lon="15.741556">
				<ele>1565.000000</ele>
			</trkpt>
			<trkpt lat="50.735145" lon="15.741709">
				<ele>1564.000000</ele>
			</trkpt>
			<trkpt lat="50.735134" lon="15.741906">
				<ele>1564.000000</ele>
			</trkpt>
			<trkpt lat="50.735225" lon="15.742068">
				<ele>1561.000000</ele>
			</trkpt>
			<trkpt lat="50.735259" lon="15.742176">
				<ele>1560.000000</ele>
			</trkpt>
			<trkpt lat="50.735321" lon="15.742266">
				<ele>1559.000000</ele>
			</trkpt>
			<trkpt lat="50.735401" lon="15.742355">
				<ele>1557.000000</ele>
			</trkpt>
			<trkpt lat="50.735509" lon="15.742409">
				<ele>1556.000000</ele>
			</trkpt>
			<trkpt lat="50.735725" lon="15.742553">
				<ele>1552.000000</ele>
			</trkpt>
			<trkpt lat="50.736254" lon="15.742921">
				<ele>1544.000000</ele>
			</trkpt>
			<trkpt lat="50.736833" lon="15.743254">
				<ele>1535.000000</ele>
			</trkpt>
			<trkpt lat="50.737004" lon="15.743325">
				<ele>1532.000000</ele>
			</trkpt>
			<trkpt lat="50.737140" lon="15.743344">
				<ele>1530.000000</ele>
			</trkpt>
			<trkpt lat="50.737544" lon="15.743353">
				<ele>1525.000000</ele>
			</trkpt>
			<trkpt lat="50.738096" lon="15.743334">
				<ele>1518.000000</ele>
			</trkpt>
			<trkpt lat="50.738152" lon="15.743334">
				<ele>1518.000000</ele>
			</trkpt>
			<trkpt lat="50.738255" lon="15.743317">
				<ele>1516.000000</ele>
			</trkpt>
			<trkpt lat="50.738278" lon="15.743308">
				<ele>1516.000000</ele>
			</trkpt>
			<trkpt lat="50.738312" lon="15.743308">
				<ele>1516.000000</ele>
			</trkpt>
			<trkpt lat="50.738340" lon="15.743290">
				<ele>1515.000000</ele>
			</trkpt>
			<trkpt lat="50.738369" lon="15.743271">
				<ele>1515.000000</ele>
			</trkpt>
			<trkpt lat="50.738420" lon="15.743235">
				<ele>1514.000000</ele>
			</trkpt>
			<trkpt lat="50.738459" lon="15.743200">
				<ele>1513.000000</ele>
			</trkpt>
			<trkpt lat="50.738511" lon="15.743164">
				<ele>1513.000000</ele>
			</trkpt>
			<trkpt lat="50.738562" lon="15.743119">
				<ele>1512.000000</ele>
			</trkpt>
			<trkpt lat="50.738585" lon="15.743092">
				<ele>1512.000000</ele>
			</trkpt>
			<trkpt lat="50.738608" lon="15.743065">
				<ele>1511.000000</ele>
			</trkpt>
			<trkpt lat="50.738647" lon="15.743002">
				<ele>1511.000000</ele>
			</trkpt>
			<trkpt lat="50.738681" lon="15.742939">
				<ele>1510.000000</ele>
			</trkpt>
			<trkpt lat="50.738710" lon="15.742885">
				<ele>1509.000000</ele>
			</trkpt>
			<trkpt lat="50.738750" lon="15.742795">
				<ele>1509.000000</ele>
			</trkpt>
			<trkpt lat="50.738767" lon="15.742759">
				<ele>1508.000000</ele>
			</trkpt>
			<trkpt lat="50.738783" lon="15.742715">
				<ele>1508.000000</ele>
			</trkpt>
			<trkpt lat="50.738812" lon="15.742642">
				<ele>1507.000000</ele>
			</trkpt>
			<trkpt lat="50.738840" lon="15.742545">
				<ele>1506.000000</ele>
			</trkpt>
			<trkpt lat="50.738875" lon="15.742401">
				<ele>1505.000000</ele>
			</trkpt>
			<trkpt lat="50.738909" lon="15.742275">
				<ele>1504.000000</ele>
			</trkpt>
			<trkpt lat="50.738966" lon="15.742015">
				<ele>1502.000000</ele>
			</trkpt>
			<trkpt lat="50.738989" lon="15.741889">
				<ele>1501.000000</ele>
			</trkpt>
			<trkpt lat="50.739000" lon="15.741753">
				<ele>1500.000000</ele>
			</trkpt>
			<trkpt lat="50.739011" lon="15.741627">
				<ele>1499.000000</ele>
			</trkpt>
			<trkpt lat="50.739011" lon="15.741493">
				<ele>1497.000000</ele>
			</trkpt>
			<trkpt lat="50.739000" lon="15.741350">
				<ele>1496.000000</ele>
			</trkpt>
			<trkpt lat="50.738994" lon="15.741250">
				<ele>1495.000000</ele>
			</trkpt>
			<trkpt lat="50.738977" lon="15.741161">
				<ele>1495.000000</ele>
			</trkpt>
			<trkpt lat="50.738960" lon="15.741080">
				<ele>1494.000000</ele>
			</trkpt>
			<trkpt lat="50.738925" lon="15.740973">
				<ele>1493.000000</ele>
			</trkpt>
			<trkpt lat="50.738886" lon="15.740855">
				<ele>1492.000000</ele>
			</trkpt>
			<trkpt lat="50.738704" lon="15.740407">
				<ele>1488.000000</ele>
			</trkpt>
			<trkpt lat="50.738596" lon="15.740172">
				<ele>1485.000000</ele>
			</trkpt>
			<trkpt lat="50.738505" lon="15.739939">
				<ele>1483.000000</ele>
			</trkpt>
			<trkpt lat="50.738437" lon="15.739768">
				<ele>1481.000000</ele>
			</trkpt>
			<trkpt lat="50.738397" lon="15.739669">
				<ele>1480.000000</ele>
			</trkpt>
			<trkpt lat="50.738369" lon="15.739571">
				<ele>1479.000000</ele>
			</trkpt>
			<trkpt lat="50.738250" lon="15.739239">
				<ele>1476.000000</ele>
			</trkpt>
			<trkpt lat="50.738130" lon="15.738870">
				<ele>1472.000000</ele>
			</trkpt>
			<trkpt lat="50.738050" lon="15.738663">
				<ele>1470.000000</ele>
			</trkpt>
			<trkpt lat="50.737999" lon="15.738484">
				<ele>1469.000000</ele>
			</trkpt>
			<trkpt lat="50.737971" lon="15.738340">
				<ele>1468.000000</ele>
			</trkpt>
			<trkpt lat="50.737948" lon="15.738214">
				<ele>1467.000000</ele>
			</trkpt>
			<trkpt lat="50.737931" lon="15.738115">
				<ele>1466.000000</ele>
			</trkpt>
			<trkpt lat="50.737925" lon="15.738008">
				<ele>1465.000000</ele>
			</trkpt>
			<trkpt lat="50.737925" lon="15.737908">
				<ele>1464.000000</ele>
			</trkpt>
			<trkpt lat="50.737920" lon="15.737828">
				<ele>1463.000000</ele>
			</trkpt>
			<trkpt lat="50.737908" lon="15.737738">
				<ele>1463.000000</ele>
			</trkpt>
			<trkpt lat="50.737891" lon="15.737648">
				<ele>1462.000000</ele>
			</trkpt>
			<trkpt lat="50.737857" lon="15.737451">
				<ele>1460.000000</ele>
			</trkpt>
			<trkpt lat="50.737794" lon="15.737109">
				<ele>1457.000000</ele>
			</trkpt>
			<trkpt lat="50.737743" lon="15.736776">
				<ele>1455.000000</ele>
			</trkpt>
			<trkpt lat="50.737692" lon="15.736409">
				<ele>1452.000000</ele>
			</trkpt>
			<trkpt lat="50.737647" lon="15.736210">
				<ele>1450.000000</ele>
			</trkpt>
			<trkpt lat="50.737596" lon="15.736004">
				<ele>1448.000000</ele>
			</trkpt>
			<trkpt lat="50.737550" lon="15.735789">
				<ele>1446.000000</ele>
			</trkpt>
			<trkpt lat="50.737510" lon="15.735591">
				<ele>1445.000000</ele>
			</trkpt>
			<trkpt lat="50.737402" lon="15.735115">
				<ele>1441.000000</ele>
			</trkpt>
			<trkpt lat="50.737334" lon="15.734692">
				<ele>1437.000000</ele>
			</trkpt>
			<trkpt lat="50.737311" lon="15.734478">
				<ele>1436.000000</ele>
			</trkpt>
			<trkpt lat="50.737289" lon="15.734289">
				<ele>1434.000000</ele>
			</trkpt>
			<trkpt lat="50.737248" lon="15.734073">
				<ele>1432.000000</ele>
			</trkpt>
			<trkpt lat="50.737232" lon="15.733920">
				<ele>1431.000000</ele>
			</trkpt>
			<trkpt lat="50.737232" lon="15.733849">
				<ele>1430.000000</ele>
			</trkpt>
			<trkpt lat="50.737232" lon="15.733795">
				<ele>1430.000000</ele>
			</trkpt>
			<trkpt lat="50.737243" lon="15.733687">
				<ele>1429.000000</ele>
			</trkpt>
			<trkpt lat="50.737266" lon="15.733579">
				<ele>1428.000000</ele>
			</trkpt>
			<trkpt lat="50.737391" lon="15.733040">
				<ele>1423.000000</ele>
			</trkpt>
			<trkpt lat="50.737425" lon="15.732933">
				<ele>1422.000000</ele>
			</trkpt>
			<trkpt lat="50.737470" lon="15.732843">
				<ele>1422.000000</ele>
			</trkpt>
			<trkpt lat="50.737573" lon="15.732663">
				<ele>1420.000000</ele>
			</trkpt>
			<trkpt lat="50.737675" lon="15.732484">
				<ele>1418.000000</ele>
			</trkpt>
			<trkpt lat="50.737868" lon="15.732168">
				<ele>1415.000000</ele>
			</trkpt>
			<trkpt lat="50.737925" lon="15.732034">
				<ele>1413.000000</ele>
			</trkpt>
			<trkpt lat="50.737959" lon="15.731899">
				<ele>1412.000000</ele>
			</trkpt>
			<trkpt lat="50.738044" lon="15.731387">
				<ele>1408.000000</ele>
			</trkpt>
			<trkpt lat="50.738079" lon="15.731270">
				<ele>1407.000000</ele>
			</trkpt>
			<trkpt lat="50.738119" lon="15.731199">
				<ele>1406.000000</ele>
			</trkpt>
			<trkpt lat="50.738152" lon="15.731153">
				<ele>1406.000000</ele>
			</trkpt>
			<trkpt lat="50.738193" lon="15.731117">
				<ele>1405.000000</ele>
			</trkpt>
			<trkpt lat="50.738266" lon="15.731046">
				<ele>1404.000000</ele>
			</trkpt>
			<trkpt lat="50.738408" lon="15.730920">
				<ele>1402.000000</ele>
			</trkpt>
			<trkpt lat="50.738516" lon="15.730813">
				<ele>1401.000000</ele>
			</trkpt>
			<trkpt lat="50.738596" lon="15.730731">
				<ele>1400.000000</ele>
			</trkpt>
			<trkpt lat="50.738647" lon="15.730660">
				<ele>1400.000000</ele>
			</trkpt>
			<trkpt lat="50.738681" lon="15.730587">
				<ele>1400.000000</ele>
			</trkpt>
			<trkpt lat="50.738710" lon="15.730534">
				<ele>1399.000000</ele>
			</trkpt>
			<trkpt lat="50.738738" lon="15.730453">
				<ele>1399.000000</ele>
			</trkpt>
			<trkpt lat="50.738795" lon="15.730273">
				<ele>1399.000000</ele>
			</trkpt>
			<trkpt lat="50.738903" lon="15.729968">
				<ele>1398.000000</ele>
			</trkpt>
			<trkpt lat="50.739170" lon="15.729213">
				<ele>1397.000000</ele>
			</trkpt>
			<trkpt lat="50.739221" lon="15.729088">
				<ele>1390.000000</ele>
			</trkpt>
			<trkpt lat="50.739284" lon="15.728908">
				<ele>1390.000000</ele>
			</trkpt>
			<trkpt lat="50.739386" lon="15.728620">
				<ele>1390.000000</ele>
			</trkpt>
			<trkpt lat="50.739477" lon="15.728342">
				<ele>1390.000000</ele>
			</trkpt>
			<trkpt lat="50.739654" lon="15.727847">
				<ele>1390.000000</ele>
			</trkpt>
			<trkpt lat="50.739710" lon="15.727686">
				<ele>1390.000000</ele>
			</trkpt>
			<trkpt lat="50.739750" lon="15.727507">
				<ele>1390.000000</ele>
			</trkpt>
			<trkpt lat="50.739767" lon="15.727291">
				<ele>1390.000000</ele>
			</trkpt>
			<trkpt lat="50.739778" lon="15.727039">
				<ele>1390.000000</ele>
			</trkpt>
			<trkpt lat="50.739784" lon="15.726859">
				<ele>1390.000000</ele>
			</trkpt>
			<trkpt lat="50.739790" lon="15.726671">
				<ele>1390.000000</ele>
			</trkpt>
			<trkpt lat="50.739818" lon="15.726312">
				<ele>1390.000000</ele>
			</trkpt>
			<trkpt lat="50.739829" lon="15.726159">
				<ele>1390.000000</ele>
			</trkpt>
			<trkpt lat="50.739847" lon="15.726025">
				<ele>1390.000000</ele>
			</trkpt>
			<trkpt lat="50.739881" lon="15.725899">
				<ele>1390.000000</ele>
			</trkpt>
			<trkpt lat="50.739915" lon="15.725773">
				<ele>1390.000000</ele>
			</trkpt>
			<trkpt lat="50.739955" lon="15.725610">
				<ele>1390.000000</ele>
			</trkpt>
			<trkpt lat="50.740006" lon="15.725449">
				<ele>1390.000000</ele>
			</trkpt>
			<trkpt lat="50.740114" lon="15.725134">
				<ele>1390.000000</ele>
			</trkpt>
			<trkpt lat="50.740182" lon="15.724955">
				<ele>1390.000000</ele>
			</trkpt>
			<trkpt lat="50.740250" lon="15.724794">
				<ele>1390.000000</ele>
			</trkpt>
			<trkpt lat="50.740324" lon="15.724641">
				<ele>1390.000000</ele>
			</trkpt>
			<trkpt lat="50.740393" lon="15.724479">
				<ele>1390.000000</ele>
			</trkpt>
			<trkpt lat="50.740455" lon="15.724245">
				<ele>1390.000000</ele>
			</trkpt>
			<trkpt lat="50.740586" lon="15.723402">
				<ele>1390.000000</ele>
			</trkpt>
			<trkpt lat="50.740745" lon="15.722305">
				<ele>1392.000000</ele>
			</trkpt>
			<trkpt lat="50.740847" lon="15.721892">
				<ele>1396.000000</ele>
			</trkpt>
			<trkpt lat="50.740847" lon="15.721892">
				<ele>1396.000000</ele>
			</trkpt>
			<trkpt lat="50.740927" lon="15.721559">
				<ele>1398.000000</ele>
			</trkpt>
			<trkpt lat="50.741046" lon="15.720239">
				<ele>1406.000000</ele>
			</trkpt>
			<trkpt lat="50.741154" lon="15.719781">
				<ele>1409.000000</ele>
			</trkpt>
			<trkpt lat="50.741177" lon="15.719637">
				<ele>1410.000000</ele>
			</trkpt>
			<trkpt lat="50.741177" lon="15.719547">
				<ele>1410.000000</ele>
			</trkpt>
			<trkpt lat="50.741171" lon="15.719233">
				<ele>1412.000000</ele>
			</trkpt>
			<trkpt lat="50.741189" lon="15.718811">
				<ele>1415.000000</ele>
			</trkpt>
			<trkpt lat="50.741223" lon="15.718568">
				<ele>1417.000000</ele>
			</trkpt>
			<trkpt lat="50.741308" lon="15.718272">
				<ele>1419.000000</ele>
			</trkpt>
			<trkpt lat="50.741348" lon="15.717993">
				<ele>1420.000000</ele>
			</trkpt>
			<trkpt lat="50.741376" lon="15.717347">
				<ele>1422.000000</ele>
			</trkpt>
			<trkpt lat="50.741501" lon="15.716475">
				<ele>1425.000000</ele>
			</trkpt>
			<trkpt lat="50.741671" lon="15.715433">
				<ele>1429.000000</ele>
			</trkpt>
			<trkpt lat="50.741848" lon="15.714381">
				<ele>1430.000000</ele>
			</trkpt>
			<trkpt lat="50.741985" lon="15.713511">
				<ele>1430.000000</ele>
			</trkpt>
			<trkpt lat="50.742029" lon="15.712765">
				<ele>1430.000000</ele>
			</trkpt>
			<trkpt lat="50.741962" lon="15.712190">
				<ele>1430.000000</ele>
			</trkpt>
			<trkpt lat="50.741848" lon="15.711615">
				<ele>1430.000000</ele>
			</trkpt>
			<trkpt lat="50.741671" lon="15.710924">
				<ele>1430.000000</ele>
			</trkpt>
			<trkpt lat="50.741563" lon="15.710385">
				<ele>1430.000000</ele>
			</trkpt>
			<trkpt lat="50.741484" lon="15.709909">
				<ele>1430.000000</ele>
			</trkpt>
			<trkpt lat="50.741342" lon="15.708857">
				<ele>1430.000000</ele>
			</trkpt>
			<trkpt lat="50.741137" lon="15.706720">
				<ele>1430.000000</ele>
			</trkpt>
			<trkpt lat="50.741132" lon="15.706611">
				<ele>1429.000000</ele>
			</trkpt>
			<trkpt lat="50.741148" lon="15.706459">
				<ele>1429.000000</ele>
			</trkpt>
			<trkpt lat="50.741154" lon="15.706441">
				<ele>1429.000000</ele>
			</trkpt>
			<trkpt lat="50.741035" lon="15.706037">
				<ele>1428.000000</ele>
			</trkpt>
			<trkpt lat="50.740989" lon="15.705830">
				<ele>1428.000000</ele>
			</trkpt>
			<trkpt lat="50.740955" lon="15.705651">
				<ele>1427.000000</ele>
			</trkpt>
			<trkpt lat="50.740921" lon="15.705488">
				<ele>1427.000000</ele>
			</trkpt>
			<trkpt lat="50.740853" lon="15.705085">
				<ele>1426.000000</ele>
			</trkpt>
			<trkpt lat="50.740808" lon="15.704833">
				<ele>1425.000000</ele>
			</trkpt>
			<trkpt lat="50.740785" lon="15.704725">
				<ele>1425.000000</ele>
			</trkpt>
			<trkpt lat="50.740774" lon="15.704626">
				<ele>1425.000000</ele>
			</trkpt>
			<trkpt lat="50.740802" lon="15.704383">
				<ele>1424.000000</ele>
			</trkpt>
			<trkpt lat="50.740847" lon="15.704024">
				<ele>1423.000000</ele>
			</trkpt>
			<trkpt lat="50.740961" lon="15.703485">
				<ele>1422.000000</ele>
			</trkpt>
			<trkpt lat="50.741177" lon="15.702471">
				<ele>1419.000000</ele>
			</trkpt>
			<trkpt lat="50.741245" lon="15.702201">
				<ele>1418.000000</ele>
			</trkpt>
			<trkpt lat="50.741348" lon="15.701869">
				<ele>1417.000000</ele>
			</trkpt>
			<trkpt lat="50.741467" lon="15.701410">
				<ele>1415.000000</ele>
			</trkpt>
			<trkpt lat="50.741484" lon="15.701249">
				<ele>1414.000000</ele>
			</trkpt>
			<trkpt lat="50.741478" lon="15.701070">
				<ele>1414.000000</ele>
			</trkpt>
			<trkpt lat="50.741473" lon="15.700907">
				<ele>1413.000000</ele>
			</trkpt>
			<trkpt lat="50.741478" lon="15.700745">
				<ele>1412.000000</ele>
			</trkpt>
			<trkpt lat="50.741490" lon="15.700593">
				<ele>1412.000000</ele>
			</trkpt>
			<trkpt lat="50.741512" lon="15.700458">
				<ele>1411.000000</ele>
			</trkpt>
			<trkpt lat="50.741592" lon="15.700125">
				<ele>1410.000000</ele>
			</trkpt>
			<trkpt lat="50.741677" lon="15.699883">
				<ele>1409.000000</ele>
			</trkpt>
			<trkpt lat="50.741797" lon="15.699542">
				<ele>1408.000000</ele>
			</trkpt>
			<trkpt lat="50.741962" lon="15.699219">
				<ele>1407.000000</ele>
			</trkpt>
			<trkpt lat="50.742229" lon="15.698814">
				<ele>1406.000000</ele>
			</trkpt>
			<trkpt lat="50.742496" lon="15.698410">
				<ele>1405.000000</ele>
			</trkpt>
			<trkpt lat="50.742666" lon="15.698078">
				<ele>1404.000000</ele>
			</trkpt>
			<trkpt lat="50.742837" lon="15.697907">
				<ele>1403.000000</ele>
			</trkpt>
			<trkpt lat="50.742990" lon="15.697772">
				<ele>1402.000000</ele>
			</trkpt>
			<trkpt lat="50.743161" lon="15.697584">
				<ele>1402.000000</ele>
			</trkpt>
			<trkpt lat="50.743314" lon="15.697386">
				<ele>1401.000000</ele>
			</trkpt>
			<trkpt lat="50.743462" lon="15.697170">
				<ele>1400.000000</ele>
			</trkpt>
			<trkpt lat="50.743701" lon="15.696892">
				<ele>1400.000000</ele>
			</trkpt>
			<trkpt lat="50.743871" lon="15.696722">
				<ele>1400.000000</ele>
			</trkpt>
			<trkpt lat="50.744025" lon="15.696550">
				<ele>1400.000000</ele>
			</trkpt>
			<trkpt lat="50.744195" lon="15.696353">
				<ele>1400.000000</ele>
			</trkpt>
			<trkpt lat="50.744388" lon="15.696290">
				<ele>1400.000000</ele>
			</trkpt>
			<trkpt lat="50.744559" lon="15.696156">
				<ele>1399.000000</ele>
			</trkpt>
			<trkpt lat="50.744645" lon="15.696137">
				<ele>1398.000000</ele>
			</trkpt>
			<trkpt lat="50.744736" lon="15.696191">
				<ele>1398.000000</ele>
			</trkpt>
			<trkpt lat="50.744792" lon="15.696191">
				<ele>1398.000000</ele>
			</trkpt>
			<trkpt lat="50.744849" lon="15.696137">
				<ele>1397.000000</ele>
			</trkpt>
			<trkpt lat="50.745082" lon="15.695706">
				<ele>1396.000000</ele>
			</trkpt>
			<trkpt lat="50.745162" lon="15.695607">
				<ele>1395.000000</ele>
			</trkpt>
			<trkpt lat="50.745270" lon="15.695508">
				<ele>1395.000000</ele>
			</trkpt>
			<trkpt lat="50.745418" lon="15.695410">
				<ele>1394.000000</ele>
			</trkpt>
			<trkpt lat="50.745520" lon="15.695275">
				<ele>1394.000000</ele>
			</trkpt>
			<trkpt lat="50.745639" lon="15.695131">
				<ele>1393.000000</ele>
			</trkpt>
			<trkpt lat="50.745747" lon="15.695059">
				<ele>1392.000000</ele>
			</trkpt>
			<trkpt lat="50.745872" lon="15.695068">
				<ele>1392.000000</ele>
			</trkpt>
			<trkpt lat="50.745918" lon="15.695059">
				<ele>1392.000000</ele>
			</trkpt>
			<trkpt lat="50.745986" lon="15.695024">
				<ele>1391.000000</ele>
			</trkpt>
			<trkpt lat="50.746077" lon="15.694961">
				<ele>1391.000000</ele>
			</trkpt>
			<trkpt lat="50.746214" lon="15.694835">
				<ele>1390.000000</ele>
			</trkpt>
			<trkpt lat="50.746322" lon="15.694718">
				<ele>1390.000000</ele>
			</trkpt>
			<trkpt lat="50.746475" lon="15.694485">
				<ele>1390.000000</ele>
			</trkpt>
			<trkpt lat="50.746532" lon="15.694439">
				<ele>1390.000000</ele>
			</trkpt>
			<trkpt lat="50.746634" lon="15.694403">
				<ele>1390.000000</ele>
			</trkpt>
			<trkpt lat="50.746816" lon="15.694376">
				<ele>1390.000000</ele>
			</trkpt>
			<trkpt lat="50.747004" lon="15.694341">
				<ele>1390.000000</ele>
			</trkpt>
			<trkpt lat="50.747094" lon="15.694296">
				<ele>1390.000000</ele>
			</trkpt>
			<trkpt lat="50.747123" lon="15.694296">
				<ele>1390.000000</ele>
			</trkpt>
			<trkpt lat="50.747174" lon="15.694286">
				<ele>1390.000000</ele>
			</trkpt>
			<trkpt lat="50.747265" lon="15.694313">
				<ele>1390.000000</ele>
			</trkpt>
			<trkpt lat="50.747356" lon="15.694368">
				<ele>1390.000000</ele>
			</trkpt>
			<trkpt lat="50.747629" lon="15.694548">
				<ele>1390.000000</ele>
			</trkpt>
			<trkpt lat="50.747810" lon="15.694672">
				<ele>1390.000000</ele>
			</trkpt>
			<trkpt lat="50.748060" lon="15.694852">
				<ele>1390.000000</ele>
			</trkpt>
			<trkpt lat="50.748106" lon="15.694888">
				<ele>1390.000000</ele>
			</trkpt>
			<trkpt lat="50.748140" lon="15.694934">
				<ele>1390.000000</ele>
			</trkpt>
			<trkpt lat="50.748322" lon="15.695068">
				<ele>1390.000000</ele>
			</trkpt>
			<trkpt lat="50.748498" lon="15.695221">
				<ele>1390.000000</ele>
			</trkpt>
			<trkpt lat="50.748572" lon="15.695275">
				<ele>1390.000000</ele>
			</trkpt>
			<trkpt lat="50.748652" lon="15.695347">
				<ele>1390.000000</ele>
			</trkpt>
			<trkpt lat="50.748845" lon="15.695464">
				<ele>1390.000000</ele>
			</trkpt>
			<trkpt lat="50.749005" lon="15.695607">
				<ele>1390.000000</ele>
			</trkpt>
			<trkpt lat="50.749118" lon="15.695680">
				<ele>1390.000000</ele>
			</trkpt>
			<trkpt lat="50.749243" lon="15.695706">
				<ele>1390.000000</ele>
			</trkpt>
			<trkpt lat="50.749379" lon="15.695724">
				<ele>1390.000000</ele>
			</trkpt>
			<trkpt lat="50.749544" lon="15.695724">
				<ele>1391.000000</ele>
			</trkpt>
			<trkpt lat="50.749743" lon="15.695733">
				<ele>1391.000000</ele>
			</trkpt>
			<trkpt lat="50.749902" lon="15.695733">
				<ele>1391.000000</ele>
			</trkpt>
			<trkpt lat="50.750022" lon="15.695634">
				<ele>1391.000000</ele>
			</trkpt>
			<trkpt lat="50.750210" lon="15.695580">
				<ele>1392.000000</ele>
			</trkpt>
			<trkpt lat="50.750408" lon="15.695598">
				<ele>1392.000000</ele>
			</trkpt>
			<trkpt lat="50.750511" lon="15.695571">
				<ele>1392.000000</ele>
			</trkpt>
			<trkpt lat="50.750596" lon="15.695544">
				<ele>1392.000000</ele>
			</trkpt>
			<trkpt lat="50.750670" lon="15.695464">
				<ele>1393.000000</ele>
			</trkpt>
			<trkpt lat="50.750755" lon="15.695364">
				<ele>1393.000000</ele>
			</trkpt>
			<trkpt lat="50.750812" lon="15.695328">
				<ele>1393.000000</ele>
			</trkpt>
			<trkpt lat="50.750982" lon="15.695248">
				<ele>1393.000000</ele>
			</trkpt>
			<trkpt lat="50.751085" lon="15.695185">
				<ele>1393.000000</ele>
			</trkpt>
			<trkpt lat="50.751204" lon="15.695051">
				<ele>1394.000000</ele>
			</trkpt>
			<trkpt lat="50.751250" lon="15.695014">
				<ele>1394.000000</ele>
			</trkpt>
			<trkpt lat="50.751335" lon="15.694934">
				<ele>1394.000000</ele>
			</trkpt>
			<trkpt lat="50.751505" lon="15.694835">
				<ele>1394.000000</ele>
			</trkpt>
			<trkpt lat="50.751528" lon="15.694808">
				<ele>1394.000000</ele>
			</trkpt>
			<trkpt lat="50.751573" lon="15.694781">
				<ele>1394.000000</ele>
			</trkpt>
			<trkpt lat="50.751624" lon="15.694799">
				<ele>1394.000000</ele>
			</trkpt>
			<trkpt lat="50.751710" lon="15.694871">
				<ele>1395.000000</ele>
			</trkpt>
			<trkpt lat="50.751767" lon="15.694907">
				<ele>1395.000000</ele>
			</trkpt>
			<trkpt lat="50.751932" lon="15.694915">
				<ele>1395.000000</ele>
			</trkpt>
			<trkpt lat="50.751932" lon="15.694915">
				<ele>1395.000000</ele>
			</trkpt>
			<trkpt lat="50.751932" lon="15.694915">
				<ele>1395.000000</ele>
			</trkpt>
			<trkpt lat="50.751982" lon="15.694915">
				<ele>1395.000000</ele>
			</trkpt>
			<trkpt lat="50.752074" lon="15.694915">
				<ele>1395.000000</ele>
			</trkpt>
			<trkpt lat="50.752125" lon="15.694934">
				<ele>1395.000000</ele>
			</trkpt>
			<trkpt lat="50.752284" lon="15.694961">
				<ele>1396.000000</ele>
			</trkpt>
			<trkpt lat="50.752375" lon="15.694915">
				<ele>1396.000000</ele>
			</trkpt>
			<trkpt lat="50.752522" lon="15.694844">
				<ele>1396.000000</ele>
			</trkpt>
			<trkpt lat="50.752738" lon="15.694699">
				<ele>1396.000000</ele>
			</trkpt>
			<trkpt lat="50.752852" lon="15.694638">
				<ele>1397.000000</ele>
			</trkpt>
			<trkpt lat="50.753085" lon="15.694512">
				<ele>1397.000000</ele>
			</trkpt>
			<trkpt lat="50.753341" lon="15.694269">
				<ele>1398.000000</ele>
			</trkpt>
			<trkpt lat="50.753500" lon="15.694143">
				<ele>1398.000000</ele>
			</trkpt>
			<trkpt lat="50.753778" lon="15.693766">
				<ele>1399.000000</ele>
			</trkpt>
			<trkpt lat="50.753886" lon="15.693657">
				<ele>1399.000000</ele>
			</trkpt>
			<trkpt lat="50.753966" lon="15.693630">
				<ele>1399.000000</ele>
			</trkpt>
			<trkpt lat="50.754120" lon="15.693622">
				<ele>1399.000000</ele>
			</trkpt>
			<trkpt lat="50.754216" lon="15.693596">
				<ele>1399.000000</ele>
			</trkpt>
			<trkpt lat="50.754262" lon="15.693550">
				<ele>1399.000000</ele>
			</trkpt>
			<trkpt lat="50.754313" lon="15.693496">
				<ele>1400.000000</ele>
			</trkpt>
			<trkpt lat="50.754381" lon="15.693424">
				<ele>1400.000000</ele>
			</trkpt>
			<trkpt lat="50.754483" lon="15.693370">
				<ele>1400.000000</ele>
			</trkpt>
			<trkpt lat="50.754563" lon="15.693290">
				<ele>1400.000000</ele>
			</trkpt>
			<trkpt lat="50.754824" lon="15.693101">
				<ele>1402.000000</ele>
			</trkpt>
			<trkpt lat="50.754915" lon="15.693030">
				<ele>1402.000000</ele>
			</trkpt>
			<trkpt lat="50.754978" lon="15.692904">
				<ele>1402.000000</ele>
			</trkpt>
			<trkpt lat="50.755029" lon="15.692841">
				<ele>1403.000000</ele>
			</trkpt>
			<trkpt lat="50.755137" lon="15.692768">
				<ele>1403.000000</ele>
			</trkpt>
			<trkpt lat="50.755217" lon="15.692643">
				<ele>1404.000000</ele>
			</trkpt>
			<trkpt lat="50.755290" lon="15.692454">
				<ele>1404.000000</ele>
			</trkpt>
			<trkpt lat="50.755392" lon="15.692265">
				<ele>1405.000000</ele>
			</trkpt>
			<trkpt lat="50.755483" lon="15.691988">
				<ele>1406.000000</ele>
			</trkpt>
			<trkpt lat="50.755529" lon="15.691808">
				<ele>1407.000000</ele>
			</trkpt>
			<trkpt lat="50.755546" lon="15.691718">
				<ele>1407.000000</ele>
			</trkpt>
			<trkpt lat="50.755597" lon="15.691493">
				<ele>1408.000000</ele>
			</trkpt>
			<trkpt lat="50.755728" lon="15.691196">
				<ele>1409.000000</ele>
			</trkpt>
			<trkpt lat="50.755734" lon="15.690972">
				<ele>1409.000000</ele>
			</trkpt>
			<trkpt lat="50.755779" lon="15.690630">
				<ele>1410.000000</ele>
			</trkpt>
			<trkpt lat="50.755807" lon="15.690325">
				<ele>1410.000000</ele>
			</trkpt>
			<trkpt lat="50.755824" lon="15.690055">
				<ele>1410.000000</ele>
			</trkpt>
			<trkpt lat="50.755842" lon="15.689831">
				<ele>1410.000000</ele>
			</trkpt>
			<trkpt lat="50.755864" lon="15.689724">
				<ele>1410.000000</ele>
			</trkpt>
			<trkpt lat="50.755904" lon="15.689525">
				<ele>1410.000000</ele>
			</trkpt>
			<trkpt lat="50.755966" lon="15.689372">
				<ele>1410.000000</ele>
			</trkpt>
			<trkpt lat="50.755972" lon="15.689364">
				<ele>1410.000000</ele>
			</trkpt>
			<trkpt lat="50.756040" lon="15.689248">
				<ele>1410.000000</ele>
			</trkpt>
			<trkpt lat="50.756097" lon="15.689122">
				<ele>1410.000000</ele>
			</trkpt>
			<trkpt lat="50.756239" lon="15.688888">
				<ele>1410.000000</ele>
			</trkpt>
			<trkpt lat="50.756455" lon="15.688475">
				<ele>1410.000000</ele>
			</trkpt>
			<trkpt lat="50.756620" lon="15.688214">
				<ele>1410.000000</ele>
			</trkpt>
			<trkpt lat="50.756774" lon="15.687881">
				<ele>1410.000000</ele>
			</trkpt>
			<trkpt lat="50.757018" lon="15.687433">
				<ele>1410.000000</ele>
			</trkpt>
			<trkpt lat="50.757348" lon="15.686894">
				<ele>1410.000000</ele>
			</trkpt>
			<trkpt lat="50.757637" lon="15.686606">
				<ele>1410.000000</ele>
			</trkpt>
			<trkpt lat="50.758200" lon="15.685860">
				<ele>1410.000000</ele>
			</trkpt>
			<trkpt lat="50.758484" lon="15.685527">
				<ele>1410.000000</ele>
			</trkpt>
			<trkpt lat="50.758643" lon="15.685294">
				<ele>1411.000000</ele>
			</trkpt>
			<trkpt lat="50.758785" lon="15.685133">
				<ele>1413.000000</ele>
			</trkpt>
			<trkpt lat="50.759047" lon="15.684728">
				<ele>1415.000000</ele>
			</trkpt>
			<trkpt lat="50.759114" lon="15.684657">
				<ele>1416.000000</ele>
			</trkpt>
			<trkpt lat="50.759171" lon="15.684540">
				<ele>1416.000000</ele>
			</trkpt>
			<trkpt lat="50.759325" lon="15.684038">
				<ele>1419.000000</ele>
			</trkpt>
			<trkpt lat="50.759371" lon="15.683929">
				<ele>1420.000000</ele>
			</trkpt>
			<trkpt lat="50.759422" lon="15.683759">
				<ele>1420.000000</ele>
			</trkpt>
			<trkpt lat="50.759518" lon="15.683489">
				<ele>1420.000000</ele>
			</trkpt>
			<trkpt lat="50.759524" lon="15.683345">
				<ele>1420.000000</ele>
			</trkpt>
			<trkpt lat="50.759524" lon="15.683345">
				<ele>1420.000000</ele>
			</trkpt>
			<trkpt lat="50.759683" lon="15.683472">
				<ele>1417.000000</ele>
			</trkpt>
			<trkpt lat="50.759768" lon="15.683561">
				<ele>1415.000000</ele>
			</trkpt>
			<trkpt lat="50.759842" lon="15.683632">
				<ele>1414.000000</ele>
			</trkpt>
			<trkpt lat="50.759955" lon="15.683785">
				<ele>1411.000000</ele>
			</trkpt>
			<trkpt lat="50.760098" lon="15.683885">
				<ele>1408.000000</ele>
			</trkpt>
			<trkpt lat="50.760143" lon="15.683885">
				<ele>1407.000000</ele>
			</trkpt>
			<trkpt lat="50.760285" lon="15.683956">
				<ele>1403.000000</ele>
			</trkpt>
			<trkpt lat="50.760348" lon="15.683992">
				<ele>1401.000000</ele>
			</trkpt>
			<trkpt lat="50.760388" lon="15.684064">
				<ele>1400.000000</ele>
			</trkpt>
			<trkpt lat="50.760456" lon="15.684118">
				<ele>1398.000000</ele>
			</trkpt>
			<trkpt lat="50.760615" lon="15.684298">
				<ele>1393.000000</ele>
			</trkpt>
			<trkpt lat="50.760842" lon="15.684361">
				<ele>1387.000000</ele>
			</trkpt>
			<trkpt lat="50.760893" lon="15.684414">
				<ele>1386.000000</ele>
			</trkpt>
			<trkpt lat="50.760933" lon="15.684585">
				<ele>1383.000000</ele>
			</trkpt>
			<trkpt lat="50.760973" lon="15.684665">
				<ele>1381.000000</ele>
			</trkpt>
			<trkpt lat="50.761041" lon="15.684711">
				<ele>1379.000000</ele>
			</trkpt>
			<trkpt lat="50.761075" lon="15.684764">
				<ele>1378.000000</ele>
			</trkpt>
			<trkpt lat="50.761195" lon="15.684845">
				<ele>1374.000000</ele>
			</trkpt>
			<trkpt lat="50.761252" lon="15.684872">
				<ele>1372.000000</ele>
			</trkpt>
			<trkpt lat="50.761331" lon="15.684927">
				<ele>1369.000000</ele>
			</trkpt>
			<trkpt lat="50.761416" lon="15.685007">
				<ele>1367.000000</ele>
			</trkpt>
			<trkpt lat="50.761456" lon="15.684998">
				<ele>1366.000000</ele>
			</trkpt>
			<trkpt lat="50.761501" lon="15.685051">
				<ele>1364.000000</ele>
			</trkpt>
			<trkpt lat="50.761553" lon="15.685088">
				<ele>1362.000000</ele>
			</trkpt>
			<trkpt lat="50.761666" lon="15.685223">
				<ele>1359.000000</ele>
			</trkpt>
			<trkpt lat="50.761757" lon="15.685250">
				<ele>1357.000000</ele>
			</trkpt>
			<trkpt lat="50.762064" lon="15.685430">
				<ele>1349.000000</ele>
			</trkpt>
			<trkpt lat="50.762098" lon="15.685438">
				<ele>1348.000000</ele>
			</trkpt>
			<trkpt lat="50.762160" lon="15.685493">
				<ele>1346.000000</ele>
			</trkpt>
			<trkpt lat="50.762229" lon="15.685519">
				<ele>1344.000000</ele>
			</trkpt>
			<trkpt lat="50.762393" lon="15.685636">
				<ele>1340.000000</ele>
			</trkpt>
			<trkpt lat="50.762615" lon="15.685797">
				<ele>1334.000000</ele>
			</trkpt>
			<trkpt lat="50.762939" lon="15.686103">
				<ele>1324.000000</ele>
			</trkpt>
			<trkpt lat="50.763053" lon="15.686183">
				<ele>1321.000000</ele>
			</trkpt>
			<trkpt lat="50.763149" lon="15.686292">
				<ele>1318.000000</ele>
			</trkpt>
			<trkpt lat="50.763223" lon="15.686328">
				<ele>1316.000000</ele>
			</trkpt>
			<trkpt lat="50.763291" lon="15.686409">
				<ele>1314.000000</ele>
			</trkpt>
			<trkpt lat="50.763706" lon="15.686759">
				<ele>1303.000000</ele>
			</trkpt>
			<trkpt lat="50.763979" lon="15.686992">
				<ele>1296.000000</ele>
			</trkpt>
			<trkpt lat="50.764751" lon="15.687648">
				<ele>1278.000000</ele>
			</trkpt>
			<trkpt lat="50.765138" lon="15.687980">
				<ele>1269.000000</ele>
			</trkpt>
			<trkpt lat="50.765416" lon="15.688330">
				<ele>1261.000000</ele>
			</trkpt>
			<trkpt lat="50.765695" lon="15.688806">
				<ele>1253.000000</ele>
			</trkpt>
			<trkpt lat="50.765996" lon="15.689399">
				<ele>1242.000000</ele>
			</trkpt>
			<trkpt lat="50.766177" lon="15.689785">
				<ele>1235.000000</ele>
			</trkpt>
			<trkpt lat="50.766462" lon="15.690351">
				<ele>1226.000000</ele>
			</trkpt>
			<trkpt lat="50.766735" lon="15.690864">
				<ele>1218.000000</ele>
			</trkpt>
			<trkpt lat="50.767274" lon="15.692032">
				<ele>1207.000000</ele>
			</trkpt>
			<trkpt lat="50.767484" lon="15.692490">
				<ele>1205.000000</ele>
			</trkpt>
			<trkpt lat="50.767592" lon="15.692651">
				<ele>1204.000000</ele>
			</trkpt>
			<trkpt lat="50.767655" lon="15.692760">
				<ele>1203.000000</ele>
			</trkpt>
			<trkpt lat="50.767751" lon="15.692912">
				<ele>1202.000000</ele>
			</trkpt>
			<trkpt lat="50.767808" lon="15.693011">
				<ele>1201.000000</ele>
			</trkpt>
			<trkpt lat="50.767842" lon="15.693056">
				<ele>1201.000000</ele>
			</trkpt>
			<trkpt lat="50.767916" lon="15.693146">
				<ele>1200.000000</ele>
			</trkpt>
			<trkpt lat="50.767967" lon="15.693227">
				<ele>1200.000000</ele>
			</trkpt>
			<trkpt lat="50.768019" lon="15.693317">
				<ele>1198.000000</ele>
			</trkpt>
			<trkpt lat="50.768047" lon="15.693406">
				<ele>1197.000000</ele>
			</trkpt>
			<trkpt lat="50.768058" lon="15.693469">
				<ele>1196.000000</ele>
			</trkpt>
			<trkpt lat="50.768064" lon="15.693533">
				<ele>1195.000000</ele>
			</trkpt>
			<trkpt lat="50.768047" lon="15.693640">
				<ele>1194.000000</ele>
			</trkpt>
			<trkpt lat="50.768036" lon="15.693747">
				<ele>1193.000000</ele>
			</trkpt>
			<trkpt lat="50.768041" lon="15.693856">
				<ele>1191.000000</ele>
			</trkpt>
			<trkpt lat="50.768041" lon="15.693954">
				<ele>1190.000000</ele>
			</trkpt>
			<trkpt lat="50.768024" lon="15.694026">
				<ele>1189.000000</ele>
			</trkpt>
			<trkpt lat="50.767939" lon="15.694170">
				<ele>1186.000000</ele>
			</trkpt>
			<trkpt lat="50.767774" lon="15.694485">
				<ele>1181.000000</ele>
			</trkpt>
			<trkpt lat="50.767740" lon="15.694556">
				<ele>1180.000000</ele>
			</trkpt>
			<trkpt lat="50.767712" lon="15.694682">
				<ele>1180.000000</ele>
			</trkpt>
			<trkpt lat="50.767712" lon="15.694925">
				<ele>1180.000000</ele>
			</trkpt>
			<trkpt lat="50.767723" lon="15.695024">
				<ele>1180.000000</ele>
			</trkpt>
			<trkpt lat="50.767740" lon="15.695114">
				<ele>1180.000000</ele>
			</trkpt>
			<trkpt lat="50.767723" lon="15.695374">
				<ele>1172.000000</ele>
			</trkpt>
			<trkpt lat="50.767746" lon="15.695598">
				<ele>1167.000000</ele>
			</trkpt>
			<trkpt lat="50.767740" lon="15.695760">
				<ele>1165.000000</ele>
			</trkpt>
			<trkpt lat="50.767712" lon="15.695921">
				<ele>1163.000000</ele>
			</trkpt>
			<trkpt lat="50.767677" lon="15.696156">
				<ele>1159.000000</ele>
			</trkpt>
			<trkpt lat="50.767661" lon="15.696397">
				<ele>1156.000000</ele>
			</trkpt>
			<trkpt lat="50.767649" lon="15.696632">
				<ele>1152.000000</ele>
			</trkpt>
			<trkpt lat="50.767655" lon="15.696820">
				<ele>1150.000000</ele>
			</trkpt>
			<trkpt lat="50.767712" lon="15.697619">
				<ele>1140.000000</ele>
			</trkpt>
			<trkpt lat="50.767728" lon="15.697736">
				<ele>1139.000000</ele>
			</trkpt>
			<trkpt lat="50.767780" lon="15.697943">
				<ele>1137.000000</ele>
			</trkpt>
			<trkpt lat="50.767820" lon="15.698194">
				<ele>1134.000000</ele>
			</trkpt>
			<trkpt lat="50.767905" lon="15.698634">
				<ele>1129.000000</ele>
			</trkpt>
			<trkpt lat="50.767950" lon="15.698904">
				<ele>1126.000000</ele>
			</trkpt>
			<trkpt lat="50.768070" lon="15.699515">
				<ele>1119.000000</ele>
			</trkpt>
			<trkpt lat="50.768104" lon="15.699856">
				<ele>1116.000000</ele>
			</trkpt>
			<trkpt lat="50.768104" lon="15.700027">
				<ele>1115.000000</ele>
			</trkpt>
			<trkpt lat="50.768160" lon="15.700162">
				<ele>1113.000000</ele>
			</trkpt>
			<trkpt lat="50.768189" lon="15.700368">
				<ele>1112.000000</ele>
			</trkpt>
			<trkpt lat="50.768234" lon="15.700494">
				<ele>1110.000000</ele>
			</trkpt>
			<trkpt lat="50.768302" lon="15.700890">
				<ele>1107.000000</ele>
			</trkpt>
			<trkpt lat="50.768359" lon="15.701357">
				<ele>1104.000000</ele>
			</trkpt>
			<trkpt lat="50.768365" lon="15.701626">
				<ele>1102.000000</ele>
			</trkpt>
			<trkpt lat="50.768359" lon="15.701869">
				<ele>1100.000000</ele>
			</trkpt>
			<trkpt lat="50.768365" lon="15.702057">
				<ele>1098.000000</ele>
			</trkpt>
			<trkpt lat="50.768365" lon="15.702120">
				<ele>1098.000000</ele>
			</trkpt>
			<trkpt lat="50.768353" lon="15.702201">
				<ele>1097.000000</ele>
			</trkpt>
			<trkpt lat="50.768337" lon="15.702299">
				<ele>1095.000000</ele>
			</trkpt>
			<trkpt lat="50.768337" lon="15.702309">
				<ele>1095.000000</ele>
			</trkpt>
			<trkpt lat="50.768320" lon="15.702399">
				<ele>1094.000000</ele>
			</trkpt>
			<trkpt lat="50.768268" lon="15.702525">
				<ele>1092.000000</ele>
			</trkpt>
			<trkpt lat="50.768245" lon="15.702578">
				<ele>1092.000000</ele>
			</trkpt>
			<trkpt lat="50.768217" lon="15.702623">
				<ele>1091.000000</ele>
			</trkpt>
			<trkpt lat="50.768121" lon="15.702695">
				<ele>1089.000000</ele>
			</trkpt>
			<trkpt lat="50.768064" lon="15.702704">
				<ele>1088.000000</ele>
			</trkpt>
			<trkpt lat="50.767973" lon="15.702712">
				<ele>1086.000000</ele>
			</trkpt>
			<trkpt lat="50.767939" lon="15.702722">
				<ele>1085.000000</ele>
			</trkpt>
			<trkpt lat="50.767888" lon="15.702785">
				<ele>1084.000000</ele>
			</trkpt>
			<trkpt lat="50.767717" lon="15.702955">
				<ele>1080.000000</ele>
			</trkpt>
			<trkpt lat="50.767632" lon="15.703036">
				<ele>1080.000000</ele>
			</trkpt>
			<trkpt lat="50.767592" lon="15.703072">
				<ele>1080.000000</ele>
			</trkpt>
			<trkpt lat="50.767541" lon="15.703125">
				<ele>1079.000000</ele>
			</trkpt>
			<trkpt lat="50.767507" lon="15.703135">
				<ele>1079.000000</ele>
			</trkpt>
			<trkpt lat="50.767422" lon="15.703154">
				<ele>1079.000000</ele>
			</trkpt>
			<trkpt lat="50.767348" lon="15.703162">
				<ele>1079.000000</ele>
			</trkpt>
			<trkpt lat="50.767297" lon="15.703162">
				<ele>1079.000000</ele>
			</trkpt>
			<trkpt lat="50.767274" lon="15.703171">
				<ele>1079.000000</ele>
			</trkpt>
			<trkpt lat="50.767183" lon="15.703225">
				<ele>1078.000000</ele>
			</trkpt>
			<trkpt lat="50.766928" lon="15.703333">
				<ele>1078.000000</ele>
			</trkpt>
			<trkpt lat="50.766848" lon="15.703378">
				<ele>1077.000000</ele>
			</trkpt>
			<trkpt lat="50.766774" lon="15.703423">
				<ele>1077.000000</ele>
			</trkpt>
			<trkpt lat="50.766467" lon="15.703557">
				<ele>1076.000000</ele>
			</trkpt>
			<trkpt lat="50.766326" lon="15.703630">
				<ele>1076.000000</ele>
			</trkpt>
			<trkpt lat="50.766069" lon="15.703746">
				<ele>1075.000000</ele>
			</trkpt>
			<trkpt lat="50.765888" lon="15.703791">
				<ele>1074.000000</ele>
			</trkpt>
			<trkpt lat="50.765729" lon="15.703890">
				<ele>1074.000000</ele>
			</trkpt>
			<trkpt lat="50.765399" lon="15.704123">
				<ele>1073.000000</ele>
			</trkpt>
			<trkpt lat="50.765223" lon="15.704231">
				<ele>1072.000000</ele>
			</trkpt>
			<trkpt lat="50.765172" lon="15.704257">
				<ele>1072.000000</ele>
			</trkpt>
			<trkpt lat="50.765064" lon="15.704429">
				<ele>1072.000000</ele>
			</trkpt>
			<trkpt lat="50.765001" lon="15.704527">
				<ele>1072.000000</ele>
			</trkpt>
			<trkpt lat="50.764950" lon="15.704653">
				<ele>1071.000000</ele>
			</trkpt>
			<trkpt lat="50.764950" lon="15.704653">
				<ele>1071.000000</ele>
			</trkpt>
			<trkpt lat="50.764939" lon="15.704672">
				<ele>1071.000000</ele>
			</trkpt>
			<trkpt lat="50.765024" lon="15.704680">
				<ele>1070.000000</ele>
			</trkpt>
			<trkpt lat="50.765075" lon="15.704725">
				<ele>1070.000000</ele>
			</trkpt>
			<trkpt lat="50.765109" lon="15.704770">
				<ele>1069.000000</ele>
			</trkpt>
			<trkpt lat="50.765314" lon="15.705238">
				<ele>1066.000000</ele>
			</trkpt>
			<trkpt lat="50.766030" lon="15.706720">
				<ele>1058.000000</ele>
			</trkpt>
			<trkpt lat="50.766104" lon="15.706881">
				<ele>1057.000000</ele>
			</trkpt>
			<trkpt lat="50.766291" lon="15.707339">
				<ele>1056.000000</ele>
			</trkpt>
			<trkpt lat="50.766478" lon="15.707833">
				<ele>1055.000000</ele>
			</trkpt>
			<trkpt lat="50.766439" lon="15.707878">
				<ele>1055.000000</ele>
			</trkpt>
			<trkpt lat="50.766399" lon="15.707995">
				<ele>1054.000000</ele>
			</trkpt>
			<trkpt lat="50.766382" lon="15.708165">
				<ele>1053.000000</ele>
			</trkpt>
			<trkpt lat="50.766354" lon="15.708354">
				<ele>1051.000000</ele>
			</trkpt>
			<trkpt lat="50.766326" lon="15.708525">
				<ele>1050.000000</ele>
			</trkpt>
			<trkpt lat="50.766285" lon="15.708651">
				<ele>1049.000000</ele>
			</trkpt>
			<trkpt lat="50.766257" lon="15.708731">
				<ele>1048.000000</ele>
			</trkpt>
			<trkpt lat="50.766212" lon="15.708930">
				<ele>1046.000000</ele>
			</trkpt>
			<trkpt lat="50.766195" lon="15.709054">
				<ele>1045.000000</ele>
			</trkpt>
			<trkpt lat="50.766189" lon="15.709207">
				<ele>1044.000000</ele>
			</trkpt>
			<trkpt lat="50.766183" lon="15.709450">
				<ele>1042.000000</ele>
			</trkpt>
			<trkpt lat="50.766149" lon="15.710043">
				<ele>1034.000000</ele>
			</trkpt>
			<trkpt lat="50.766132" lon="15.710196">
				<ele>1032.000000</ele>
			</trkpt>
			<trkpt lat="50.766126" lon="15.710322">
				<ele>1030.000000</ele>
			</trkpt>
			<trkpt lat="50.766138" lon="15.710465">
				<ele>1028.000000</ele>
			</trkpt>
			<trkpt lat="50.766155" lon="15.710628">
				<ele>1026.000000</ele>
			</trkpt>
			<trkpt lat="50.766200" lon="15.710834">
				<ele>1024.000000</ele>
			</trkpt>
			<trkpt lat="50.766229" lon="15.710978">
				<ele>1022.000000</ele>
			</trkpt>
			<trkpt lat="50.766303" lon="15.711354">
				<ele>1017.000000</ele>
			</trkpt>
			<trkpt lat="50.766393" lon="15.711759">
				<ele>1011.000000</ele>
			</trkpt>
			<trkpt lat="50.766501" lon="15.712073">
				<ele>1006.000000</ele>
			</trkpt>
			<trkpt lat="50.766666" lon="15.712477">
				<ele>999.000000</ele>
			</trkpt>
			<trkpt lat="50.766694" lon="15.712612">
				<ele>997.000000</ele>
			</trkpt>
			<trkpt lat="50.766706" lon="15.712712">
				<ele>996.000000</ele>
			</trkpt>
			<trkpt lat="50.766706" lon="15.712836">
				<ele>994.000000</ele>
			</trkpt>
			<trkpt lat="50.766700" lon="15.713043">
				<ele>991.000000</ele>
			</trkpt>
			<trkpt lat="50.766694" lon="15.713367">
				<ele>987.000000</ele>
			</trkpt>
			<trkpt lat="50.766689" lon="15.713457">
				<ele>985.000000</ele>
			</trkpt>
			<trkpt lat="50.766672" lon="15.713582">
				<ele>983.000000</ele>
			</trkpt>
			<trkpt lat="50.766666" lon="15.713727">
				<ele>981.000000</ele>
			</trkpt>
			<trkpt lat="50.766660" lon="15.713798">
				<ele>980.000000</ele>
			</trkpt>
			<trkpt lat="50.766655" lon="15.713878">
				<ele>979.000000</ele>
			</trkpt>
			<trkpt lat="50.766655" lon="15.713951">
				<ele>978.000000</ele>
			</trkpt>
			<trkpt lat="50.766666" lon="15.714023">
				<ele>977.000000</ele>
			</trkpt>
			<trkpt lat="50.766689" lon="15.714085">
				<ele>976.000000</ele>
			</trkpt>
			<trkpt lat="50.766723" lon="15.714194">
				<ele>974.000000</ele>
			</trkpt>
			<trkpt lat="50.766751" lon="15.714265">
				<ele>973.000000</ele>
			</trkpt>
			<trkpt lat="50.766871" lon="15.714436">
				<ele>969.000000</ele>
			</trkpt>
			<trkpt lat="50.767013" lon="15.714670">
				<ele>965.000000</ele>
			</trkpt>
			<trkpt lat="50.767126" lon="15.714741">
				<ele>963.000000</ele>
			</trkpt>
			<trkpt lat="50.767303" lon="15.714849">
				<ele>959.000000</ele>
			</trkpt>
			<trkpt lat="50.767405" lon="15.714894">
				<ele>957.000000</ele>
			</trkpt>
			<trkpt lat="50.767576" lon="15.714983">
				<ele>953.000000</ele>
			</trkpt>
			<trkpt lat="50.767893" lon="15.715190">
				<ele>947.000000</ele>
			</trkpt>
			<trkpt lat="50.768172" lon="15.715379">
				<ele>942.000000</ele>
			</trkpt>
			<trkpt lat="50.768234" lon="15.715442">
				<ele>940.000000</ele>
			</trkpt>
			<trkpt lat="50.768268" lon="15.715541">
				<ele>939.000000</ele>
			</trkpt>
			<trkpt lat="50.768399" lon="15.715936">
				<ele>934.000000</ele>
			</trkpt>
			<trkpt lat="50.768507" lon="15.716169">
				<ele>931.000000</ele>
			</trkpt>
			<trkpt lat="50.768609" lon="15.716385">
				<ele>928.000000</ele>
			</trkpt>
			<trkpt lat="50.768711" lon="15.716637">
				<ele>925.000000</ele>
			</trkpt>
			<trkpt lat="50.768757" lon="15.716798">
				<ele>923.000000</ele>
			</trkpt>
			<trkpt lat="50.768774" lon="15.716907">
				<ele>922.000000</ele>
			</trkpt>
			<trkpt lat="50.768780" lon="15.717060">
				<ele>920.000000</ele>
			</trkpt>
			<trkpt lat="50.768780" lon="15.717220">
				<ele>918.000000</ele>
			</trkpt>
			<trkpt lat="50.768774" lon="15.717454">
				<ele>916.000000</ele>
			</trkpt>
			<trkpt lat="50.768734" lon="15.717760">
				<ele>912.000000</ele>
			</trkpt>
			<trkpt lat="50.768729" lon="15.717949">
				<ele>910.000000</ele>
			</trkpt>
			<trkpt lat="50.768734" lon="15.718182">
				<ele>908.000000</ele>
			</trkpt>
			<trkpt lat="50.768740" lon="15.718299">
				<ele>906.000000</ele>
			</trkpt>
			<trkpt lat="50.768740" lon="15.718335">
				<ele>906.000000</ele>
			</trkpt>
			<trkpt lat="50.768752" lon="15.718505">
				<ele>904.000000</ele>
			</trkpt>
			<trkpt lat="50.768780" lon="15.718649">
				<ele>903.000000</ele>
			</trkpt>
			<trkpt lat="50.768808" lon="15.718748">
				<ele>902.000000</ele>
			</trkpt>
			<trkpt lat="50.768859" lon="15.718865">
				<ele>900.000000</ele>
			</trkpt>
			<trkpt lat="50.768939" lon="15.719115">
				<ele>898.000000</ele>
			</trkpt>
			<trkpt lat="50.769024" lon="15.719440">
				<ele>894.000000</ele>
			</trkpt>
			<trkpt lat="50.769109" lon="15.719754">
				<ele>891.000000</ele>
			</trkpt>
			<trkpt lat="50.769155" lon="15.720131">
				<ele>887.000000</ele>
			</trkpt>
			<trkpt lat="50.769194" lon="15.720490">
				<ele>884.000000</ele>
			</trkpt>
			<trkpt lat="50.769217" lon="15.720813">
				<ele>881.000000</ele>
			</trkpt>
			<trkpt lat="50.769228" lon="15.721892">
				<ele>870.000000</ele>
			</trkpt>
			<trkpt lat="50.769206" lon="15.722323">
				<ele>864.000000</ele>
			</trkpt>
			<trkpt lat="50.769217" lon="15.722547">
				<ele>862.000000</ele>
			</trkpt>
			<trkpt lat="50.769223" lon="15.722826">
				<ele>858.000000</ele>
			</trkpt>
			<trkpt lat="50.769251" lon="15.723033">
				<ele>856.000000</ele>
			</trkpt>
			<trkpt lat="50.769274" lon="15.723266">
				<ele>854.000000</ele>
			</trkpt>
			<trkpt lat="50.769274" lon="15.723581">
				<ele>850.000000</ele>
			</trkpt>
			<trkpt lat="50.769269" lon="15.724029">
				<ele>845.000000</ele>
			</trkpt>
			<trkpt lat="50.769285" lon="15.724820">
				<ele>836.000000</ele>
			</trkpt>
			<trkpt lat="50.769308" lon="15.725090">
				<ele>833.000000</ele>
			</trkpt>
			<trkpt lat="50.769393" lon="15.725494">
				<ele>828.000000</ele>
			</trkpt>
			<trkpt lat="50.769479" lon="15.725790">
				<ele>824.000000</ele>
			</trkpt>
			<trkpt lat="50.769547" lon="15.726168">
				<ele>820.000000</ele>
			</trkpt>
			<trkpt lat="50.769536" lon="15.726339">
				<ele>818.000000</ele>
			</trkpt>
			<trkpt lat="50.769552" lon="15.726868">
				<ele>812.000000</ele>
			</trkpt>
			<trkpt lat="50.769575" lon="15.728000">
				<ele>800.000000</ele>
			</trkpt>
			<trkpt lat="50.769609" lon="15.728369">
				<ele>798.000000</ele>
			</trkpt>
			<trkpt lat="50.769655" lon="15.728576">
				<ele>797.000000</ele>
			</trkpt>
			<trkpt lat="50.769694" lon="15.728881">
				<ele>796.000000</ele>
			</trkpt>
			<trkpt lat="50.769694" lon="15.729015">
				<ele>795.000000</ele>
			</trkpt>
			<trkpt lat="50.769672" lon="15.729069">
				<ele>795.000000</ele>
			</trkpt>
			<trkpt lat="50.769632" lon="15.729069">
				<ele>795.000000</ele>
			</trkpt>
			<trkpt lat="50.769586" lon="15.729079">
				<ele>794.000000</ele>
			</trkpt>
			<trkpt lat="50.769524" lon="15.728818">
				<ele>794.000000</ele>
			</trkpt>
			<trkpt lat="50.769490" lon="15.728710">
				<ele>793.000000</ele>
			</trkpt>
			<trkpt lat="50.769456" lon="15.728656">
				<ele>793.000000</ele>
			</trkpt>
			<trkpt lat="50.769410" lon="15.728629">
				<ele>793.000000</ele>
			</trkpt>
			<trkpt lat="50.769359" lon="15.728612">
				<ele>793.000000</ele>
			</trkpt>
			<trkpt lat="50.769263" lon="15.728602">
				<ele>792.000000</ele>
			</trkpt>
			<trkpt lat="50.769234" lon="15.728602">
				<ele>792.000000</ele>
			</trkpt>
			<trkpt lat="50.769217" lon="15.728602">
				<ele>792.000000</ele>
			</trkpt>
			<trkpt lat="50.769189" lon="15.728602">
				<ele>792.000000</ele>
			</trkpt>
			<trkpt lat="50.769161" lon="15.728593">
				<ele>792.000000</ele>
			</trkpt>
			<trkpt lat="50.769109" lon="15.728585">
				<ele>792.000000</ele>
			</trkpt>
			<trkpt lat="50.769041" lon="15.728585">
				<ele>791.000000</ele>
			</trkpt>
			<trkpt lat="50.768978" lon="15.728612">
				<ele>791.000000</ele>
			</trkpt>
			<trkpt lat="50.768967" lon="15.728620">
				<ele>791.000000</ele>
			</trkpt>
		</trkseg>
	</trk>
</gpx>

